{
"type": "FeatureCollection",
"name": "71_vvt",
"crs": { "type": "name", "properties": { "name": "urn:ogc:def:crs:OGC:1.3:CRS84" } },
"features": [
{ "type": "Feature", "properties": { "fid": 2, "type": "stand", "nom": "jcdecaux" }, "geometry": { "type": "Polygon", "coordinates": [ [ [ 2.287703036137676, 48.82791782430607 ], [ 2.287869801528358, 48.82792231416903 ], [ 2.287874520243261, 48.827819189089702 ], [ 2.287708405194826, 48.827815577283936 ], [ 2.287703036137676, 48.82791782430607 ] ] ] } },
{ "type": "Feature", "properties": { "fid": 3, "type": "stand", "nom": "givaudan" }, "geometry": { "type": "Polygon", "coordinates": [ [ [ 2.287709455292334, 48.827787172703225 ], [ 2.287876232205674, 48.82779078844932 ], [ 2.287879179239704, 48.827720434543167 ], [ 2.287712402551218, 48.827716818800958 ], [ 2.287709455292334, 48.827787172703225 ] ] ] } },
{ "type": "Feature", "properties": { "fid": 4, "type": "stand", "nom": "worldline" }, "geometry": { "type": "Polygon", "coordinates": [ [ [ 2.287523613872049, 48.827689732055831 ], [ 2.287638293835366, 48.827691862408997 ], [ 2.287640585447842, 48.827631093892407 ], [ 2.287525905618103, 48.827628963541294 ], [ 2.287523613872049, 48.827689732055831 ] ] ] } },
{ "type": "Feature", "properties": { "fid": 5, "type": "stand", "nom": "region nouvelle aquitaine" }, "geometry": { "type": "Polygon", "coordinates": [ [ [ 2.287672617519224, 48.827693031653133 ], [ 2.287880060331043, 48.827697161458183 ], [ 2.287883082232791, 48.827636397287428 ], [ 2.287675639662512, 48.827632267487417 ], [ 2.287672617519224, 48.827693031653133 ] ] ] } },
{ "type": "Feature", "properties": { "fid": 6, "type": "stand", "nom": "credit agricole" }, "geometry": { "type": "Polygon", "coordinates": [ [ [ 2.287910403918261, 48.827922638798114 ], [ 2.287996741786994, 48.827925016431827 ], [ 2.287997219724571, 48.827931355458617 ], [ 2.288217875141604, 48.827936396109941 ], [ 2.288224456384772, 48.827826483895798 ], [ 2.28791518551277, 48.827820542928478 ], [ 2.287910403918261, 48.827922638798114 ] ] ] } },
{ "type": "Feature", "properties": { "fid": 7, "type": "stand", "nom": "meta" }, "geometry": { "type": "Polygon", "coordinates": [ [ [ 2.288048273336396, 48.827794761435882 ], [ 2.288224863620811, 48.827798976990913 ], [ 2.288230242685742, 48.827705884828227 ], [ 2.288139360904298, 48.827642507674803 ], [ 2.28805654610437, 48.827640206460529 ], [ 2.288048273336396, 48.827794761435882 ] ] ] } },
{ "type": "Feature", "properties": { "fid": 8, "type": "stand", "nom": "saudi export binance" }, "geometry": { "type": "Polygon", "coordinates": [ [ [ 2.287916843688823, 48.827792622763432 ], [ 2.288048267163416, 48.827795213458238 ], [ 2.28805654610437, 48.827640206460529 ], [ 2.287925116846082, 48.827638067796897 ], [ 2.287916843688823, 48.827792622763432 ] ] ] } },
{ "type": "Feature", "properties": { "fid": 12, "type": "stand", "nom": "vusion" }, "geometry": { "type": "Polygon", "coordinates": [ [ [ 2.288424065053324, 48.827896662509886 ], [ 2.288538894956694, 48.827899395440127 ], [ 2.288549615798043, 48.827682527765191 ], [ 2.288341672744465, 48.827678215913856 ], [ 2.288334372622986, 48.827833953178448 ], [ 2.288424065053324, 48.827896662509886 ] ] ] } },
{ "type": "Feature", "properties": { "fid": 13, "type": "stand", "nom": "travel tech hub by eventiz" }, "geometry": { "type": "Polygon", "coordinates": [ [ [ 2.288343085200708, 48.827650552743997 ], [ 2.288550506106993, 48.827655203111782 ], [ 2.288560303919129, 48.82746805122428 ], [ 2.288352375708948, 48.827462714600621 ], [ 2.288343085200708, 48.827650552743997 ] ] ] } },
{ "type": "Feature", "properties": { "fid": 14, "type": "stand", "nom": "alibaba cloud" }, "geometry": { "type": "Polygon", "coordinates": [ [ [ 2.288354305526889, 48.827435054504043 ], [ 2.288561725576809, 48.827439704853234 ], [ 2.28857139744793, 48.827261776041588 ], [ 2.288507327395929, 48.827217325319573 ], [ 2.288365082994662, 48.827214087594619 ], [ 2.288354305526889, 48.827435054504043 ] ] ] } },
{ "type": "Feature", "properties": { "fid": 15, "type": "stand", "nom": "india" }, "geometry": { "type": "Polygon", "coordinates": [ [ [ 2.288010490736208, 48.827377664922508 ], [ 2.288153252934423, 48.827380906148299 ], [ 2.288249792338148, 48.827321013211495 ], [ 2.288255460964645, 48.827208994109938 ], [ 2.288019073754104, 48.827203829146448 ], [ 2.288010490736208, 48.827377664922508 ] ] ] } },
{ "type": "Feature", "properties": { "fid": 16, "type": "stand", "nom": "luxembourg" }, "geometry": { "type": "Polygon", "coordinates": [ [ [ 2.287649355640619, 48.827603377863603 ], [ 2.287787988768663, 48.827605911677402 ], [ 2.287792143009212, 48.827529070919823 ], [ 2.287652992711208, 48.82752653402892 ], [ 2.287649355640619, 48.827603377863603 ] ] ] } },
{ "type": "Feature", "properties": { "fid": 17, "type": "stand", "nom": "60fps" }, "geometry": { "type": "Polygon", "coordinates": [ [ [ 2.287527283188497, 48.827600600926765 ], [ 2.287614705529346, 48.827602146590955 ], [ 2.287618864692749, 48.827524964242485 ], [ 2.287531447149527, 48.827523076984598 ], [ 2.287527283188497, 48.827600600926765 ] ] ] } },
{ "type": "Feature", "properties": { "fid": 18, "type": "restaurant", "nom": "picnic" }, "geometry": { "type": "Polygon", "coordinates": [ [ [ 2.287822121511636, 48.827607139818831 ], [ 2.287884709876316, 48.827608537394575 ], [ 2.287888351266358, 48.827531351956438 ], [ 2.287826275701974, 48.82753029906015 ], [ 2.287822121511636, 48.827607139818831 ] ] ] } },
{ "type": "Feature", "properties": { "fid": 19, "type": "stand", "nom": "china" }, "geometry": { "type": "Polygon", "coordinates": [ [ [ 2.287653827477128, 48.827503308538276 ], [ 2.28789074271523, 48.827507794109714 ], [ 2.287894244657551, 48.827402936251694 ], [ 2.287659404054387, 48.827398121416948 ], [ 2.287653827477128, 48.827503308538276 ] ] ] } },
{ "type": "Feature", "properties": { "fid": 20, "type": "stand", "nom": "liferay" }, "geometry": { "type": "Polygon", "coordinates": [ [ [ 2.287455863851575, 48.82752604291607 ], [ 2.287497249108705, 48.827526631113116 ], [ 2.287499599550852, 48.827468227332844 ], [ 2.287457706304181, 48.827466952860654 ], [ 2.287455863851575, 48.82752604291607 ] ] ] } },
{ "type": "Feature", "properties": { "fid": 21, "type": "stand", "nom": "ippon technologies" }, "geometry": { "type": "Polygon", "coordinates": [ [ [ 2.287459053860601, 48.827444072049389 ], [ 2.28750095175744, 48.827445004924471 ], [ 2.287503903597389, 48.827380455481894 ], [ 2.287463035828838, 48.827379870369597 ], [ 2.287459053860601, 48.827444072049389 ] ] ] } },
{ "type": "Feature", "properties": { "fid": 22, "type": null, "nom": "startup alley" }, "geometry": { "type": "Polygon", "coordinates": [ [ [ 2.287519094139456, 48.827366881002554 ], [ 2.28777565956957, 48.827372167122512 ], [ 2.287784238702919, 48.827198672959213 ], [ 2.287762513794509, 48.827198201951134 ], [ 2.287677449576675, 48.82725133036304 ], [ 2.287524853039539, 48.827248371602394 ], [ 2.287519094139456, 48.827366881002554 ] ] ] } },
{ "type": "Feature", "properties": { "fid": 23, "type": "stand", "nom": "thailand" }, "geometry": { "type": "Polygon", "coordinates": [ [ [ 2.287785586109099, 48.827175792138796 ], [ 2.287926800294292, 48.827178682795214 ], [ 2.287928208291438, 48.827151361214717 ], [ 2.287786481476451, 48.827148125881955 ], [ 2.287785586109099, 48.827175792138796 ] ] ] } },
{ "type": "Feature", "properties": { "fid": 24, "type": null, "nom": "pitch studio" }, "geometry": { "type": "Polygon", "coordinates": [ [ [ 2.287525375079201, 48.827248033087962 ], [ 2.287677449576673, 48.82725133036304 ], [ 2.287762523128078, 48.827197518757607 ], [ 2.287767362746566, 48.827108383570142 ], [ 2.287530454002388, 48.827103556155933 ], [ 2.287525375079201, 48.827248033087962 ] ] ] } },
{ "type": "Feature", "properties": { "fid": 27, "type": "stand", "nom": "sk kosme" }, "geometry": { "type": "Polygon", "coordinates": [ [ [ 2.288121133789997, 48.827182497138061 ], [ 2.288256356401266, 48.827185706502398 ], [ 2.288257181410261, 48.827163383817023 ], [ 2.288165971312604, 48.827099293170924 ], [ 2.288125408817406, 48.827098021220735 ], [ 2.288121133789997, 48.827182497138061 ] ] ] } },
{ "type": "Feature", "properties": { "fid": 28, "type": "stand", "nom": "frogans fss" }, "geometry": { "type": "Polygon", "coordinates": [ [ [ 2.288366121397406, 48.827186359718553 ], [ 2.288463898052056, 48.827188659014013 ], [ 2.288468631796081, 48.82710865133668 ], [ 2.288370335078814, 48.827106348949378 ], [ 2.288366121397406, 48.827186359718553 ] ] ] } },
{ "type": "Feature", "properties": { "fid": 29, "type": null, "nom": "discovery stage" }, "geometry": { "type": "Polygon", "coordinates": [ [ [ 2.288509723895418, 48.827109239318219 ], [ 2.288814493461696, 48.827116548146847 ], [ 2.288810988095202, 48.827182823081515 ], [ 2.288697647292, 48.827253597304406 ], [ 2.28861287585328, 48.827251375563371 ], [ 2.288505173028142, 48.827175851527997 ], [ 2.288509723895418, 48.827109239318219 ] ] ] } },
{ "type": "Feature", "properties": { "fid": 30, "type": null, "nom": "innovation avenue" }, "geometry": { "type": "Polygon", "coordinates": [ [ [ 2.288602485477654, 48.827440926529405 ], [ 2.288686741694659, 48.827442801709779 ], [ 2.288694676005406, 48.827280716244111 ], [ 2.288610940264259, 48.827278844163594 ], [ 2.288602485477654, 48.827440926529405 ] ] ] } },
{ "type": "Feature", "properties": { "fid": 31, "type": null, "nom": "innovation avenue" }, "geometry": { "type": "Polygon", "coordinates": [ [ [ 2.288592783937303, 48.827656244158916 ], [ 2.288676520283954, 48.827658116251527 ], [ 2.288685331039931, 48.827469929927183 ], [ 2.288602105837463, 48.82746874788193 ], [ 2.288592783937303, 48.827656244158916 ] ] ] } },
{ "type": "Feature", "properties": { "fid": 32, "type": null, "nom": "innovation avenue" }, "geometry": { "type": "Polygon", "coordinates": [ [ [ 2.28859032810443, 48.827683709654288 ], [ 2.288675109618079, 48.827685244463616 ], [ 2.288663055630363, 48.827920471129367 ], [ 2.288578798642235, 48.827918595933127 ], [ 2.28859032810443, 48.827683709654288 ] ] ] } },
{ "type": "Feature", "properties": { "fid": 33, "type": "stand", "nom": "l oreal groupe" }, "geometry": { "type": "Polygon", "coordinates": [ [ [ 2.288704916965304, 48.82790285805013 ], [ 2.288820373103183, 48.827905949197365 ], [ 2.288915348180038, 48.827846744734359 ], [ 2.288923197514728, 48.827690841833636 ], [ 2.28871620217421, 48.827685832373916 ], [ 2.288704916965304, 48.82790285805013 ] ] ] } },
{ "type": "Feature", "properties": { "fid": 34, "type": "stand", "nom": "lab gold sanofi" }, "geometry": { "type": "Polygon", "coordinates": [ [ [ 2.289021061377104, 48.82795385862579 ], [ 2.289243144220627, 48.82795895721852 ], [ 2.28924375809635, 48.827952090843084 ], [ 2.289329046240129, 48.827954658700286 ], [ 2.289334607966723, 48.827851984890856 ], [ 2.2890267033408, 48.827845345783089 ], [ 2.289021061377104, 48.82795385862579 ] ] ] } },
{ "type": "Feature", "properties": { "fid": 35, "type": "stand", "nom": "impact hub" }, "geometry": { "type": "Polygon", "coordinates": [ [ [ 2.289028132564627, 48.827816843677169 ], [ 2.28933707277964, 48.827823832437524 ], [ 2.289343350831293, 48.827668607178893 ], [ 2.289129588020371, 48.827663901720662 ], [ 2.289032523277072, 48.82772378093965 ], [ 2.289028132564627, 48.827816843677169 ] ] ] } },
{ "type": "Feature", "properties": { "fid": 36, "type": "stand", "nom": "ksa" }, "geometry": { "type": "Polygon", "coordinates": [ [ [ 2.288717651336982, 48.827658461335346 ], [ 2.288925249456226, 48.827663469575768 ], [ 2.288934161497365, 48.827475675520859 ], [ 2.288726552684696, 48.827471505829976 ], [ 2.288717651336982, 48.827658461335346 ] ] ] } },
{ "type": "Feature", "properties": { "fid": 37, "type": "stand", "nom": "aramco" }, "geometry": { "type": "Polygon", "coordinates": [ [ [ 2.288728158449723, 48.827443392156781 ], [ 2.28893594438577, 48.827448271195273 ], [ 2.288947252023647, 48.827226090585562 ], [ 2.288807502487915, 48.827222830653945 ], [ 2.288737023007357, 48.827265525156612 ], [ 2.288728158449723, 48.827443392156781 ] ] ] } },
{ "type": "Feature", "properties": { "fid": 38, "type": "stand", "nom": "cnes" }, "geometry": { "type": "Polygon", "coordinates": [ [ [ 2.288851446163908, 48.827196990971821 ], [ 2.288948249139571, 48.827199400813818 ], [ 2.288952510189356, 48.827119767724419 ], [ 2.288856104196773, 48.827117360245488 ], [ 2.288851446163908, 48.827196990971821 ] ] ] } },
{ "type": "Feature", "properties": { "fid": 39, "type": "stand", "nom": "sk kocca" }, "geometry": { "type": "Polygon", "coordinates": [ [ [ 2.289198669125412, 48.827122380186786 ], [ 2.28919434160102, 48.827206702209359 ], [ 2.289059004059885, 48.82720379953053 ], [ 2.289060584095916, 48.827181148335825 ], [ 2.2891576866146, 48.827121507134116 ], [ 2.289198669125412, 48.827122380186786 ] ] ] } },
{ "type": "Feature", "properties": { "fid": 40, "type": "stand", "nom": "sk fkcci" }, "geometry": { "type": "Polygon", "coordinates": [ [ [ 2.289183354590586, 48.827229706397446 ], [ 2.289293960556256, 48.827232386744896 ], [ 2.289291234822856, 48.827282495617993 ], [ 2.289180625686559, 48.827280040026046 ], [ 2.289183354590586, 48.827229706397446 ] ] ] } },
{ "type": "Feature", "properties": { "fid": 41, "type": "stand", "nom": "region auvergne rhone alpes" }, "geometry": { "type": "Polygon", "coordinates": [ [ [ 2.289058596405476, 48.827226272387477 ], [ 2.289183411010481, 48.827229846282414 ], [ 2.289174371410024, 48.827403486314545 ], [ 2.289143881391751, 48.827402675758954 ], [ 2.289052775779478, 48.827338572342214 ], [ 2.289058596405476, 48.827226272387477 ] ] ] } },
{ "type": "Feature", "properties": { "fid": 42, "type": "stand", "nom": "sk kised" }, "geometry": { "type": "Polygon", "coordinates": [ [ [ 2.28917437998996, 48.827402857040376 ], [ 2.289284430844504, 48.827405713747936 ], [ 2.289290869064047, 48.827283033595513 ], [ 2.289181303587419, 48.827279550451742 ], [ 2.28917437998996, 48.827402857040376 ] ] ] } },
{ "type": "Feature", "properties": { "fid": 43, "type": "stand", "nom": "cape verde" }, "geometry": { "type": "Polygon", "coordinates": [ [ [ 2.289399109480899, 48.827280146041801 ], [ 2.289468062417749, 48.827281856931492 ], [ 2.289461060836724, 48.827409983107678 ], [ 2.289391776342333, 48.827408487110965 ], [ 2.289399109480899, 48.827280146041801 ] ] ] } },
{ "type": "Feature", "properties": { "fid": 44, "type": "stand", "nom": "nigeria" }, "geometry": { "type": "Polygon", "coordinates": [ [ [ 2.289397438629492, 48.827436076412198 ], [ 2.289519399969046, 48.827439462034128 ], [ 2.289512470598905, 48.827544651255153 ], [ 2.289391238436438, 48.827541511869619 ], [ 2.289397438629492, 48.827436076412198 ] ] ] } },
{ "type": "Feature", "properties": { "fid": 45, "type": "stand", "nom": "senegal" }, "geometry": { "type": "Polygon", "coordinates": [ [ [ 2.289519766328232, 48.827439464210642 ], [ 2.289633317901488, 48.827441590209645 ], [ 2.289629206564127, 48.827501317296367 ], [ 2.289516027813553, 48.827498709691369 ], [ 2.289519766328232, 48.827439464210642 ] ] ] } },
{ "type": "Feature", "properties": { "fid": 46, "type": "stand", "nom": "zimbabwe" }, "geometry": { "type": "Polygon", "coordinates": [ [ [ 2.289513206615267, 48.827544413718861 ], [ 2.289627121480796, 48.827546783789415 ], [ 2.289629206564127, 48.827501317296367 ], [ 2.289516027813553, 48.827498709691369 ], [ 2.289513206615267, 48.827544413718861 ] ] ] } },
{ "type": "Feature", "properties": { "fid": 47, "type": "stand", "nom": "rwanda" }, "geometry": { "type": "Polygon", "coordinates": [ [ [ 2.289668234682702, 48.827442255486986 ], [ 2.289758612226042, 48.827444665006084 ], [ 2.289756338959275, 48.827481404046317 ], [ 2.289665961352352, 48.827478994525585 ], [ 2.289668234682702, 48.827442255486986 ] ] ] } },
{ "type": "Feature", "properties": { "fid": 48, "type": "stand", "nom": "yiri" }, "geometry": { "type": "Polygon", "coordinates": [ [ [ 2.289663020942537, 48.827538670676155 ], [ 2.289753405030619, 48.827540612051664 ], [ 2.289755981248319, 48.827481636014497 ], [ 2.289665961352352, 48.827478994525585 ], [ 2.289663020942537, 48.827538670676155 ] ] ] } },
{ "type": "Feature", "properties": { "fid": 49, "type": "stand", "nom": "ag partners" }, "geometry": { "type": "Polygon", "coordinates": [ [ [ 2.289787503005809, 48.827541658915223 ], [ 2.289828962136273, 48.827542704617912 ], [ 2.28983378648753, 48.827433002104868 ], [ 2.289792932844689, 48.827431959998989 ], [ 2.289787503005809, 48.827541658915223 ] ] ] } },
{ "type": "Feature", "properties": { "fid": 50, "type": "stand", "nom": "ivory coast" }, "geometry": { "type": "Polygon", "coordinates": [ [ [ 2.289483959844353, 48.82764442645373 ], [ 2.28962210121509, 48.827647226119005 ], [ 2.289626155351076, 48.827569672530466 ], [ 2.289487717168601, 48.827566673202867 ], [ 2.289483959844353, 48.82764442645373 ] ] ] } },
{ "type": "Feature", "properties": { "fid": 51, "type": "stand", "nom": "withings" }, "geometry": { "type": "Polygon", "coordinates": [ [ [ 2.289652554759976, 48.82773726064746 ], [ 2.289743156878974, 48.82773918629703 ], [ 2.289745503148133, 48.827682658422717 ], [ 2.289655168522687, 48.827680387480825 ], [ 2.289652554759976, 48.82773726064746 ] ] ] } },
{ "type": "Feature", "properties": { "fid": 52, "type": "startup", "nom": null }, "geometry": { "type": "Polygon", "coordinates": [ [ [ 2.287563744753474, 48.827902352398105 ], [ 2.287580458490929, 48.827909563051051 ], [ 2.287591675501688, 48.827896101461761 ], [ 2.287581616212877, 48.827882513128976 ], [ 2.287564462064005, 48.827888307938451 ], [ 2.287563744753474, 48.827902352398105 ] ] ] } },
{ "type": "Feature", "properties": { "fid": 53, "type": "startup", "nom": null }, "geometry": { "type": "Polygon", "coordinates": [ [ [ 2.287580725901244, 48.827909217761729 ], [ 2.287596135770495, 48.827915726880605 ], [ 2.287615398397805, 48.827909424303023 ], [ 2.287616099105747, 48.827896593832335 ], [ 2.287591940541954, 48.827895929599457 ], [ 2.287580725901244, 48.827909217761729 ] ] ] } },
{ "type": "Feature", "properties": { "fid": 54, "type": "startup", "nom": null }, "geometry": { "type": "Polygon", "coordinates": [ [ [ 2.287591940541954, 48.827895929599457 ], [ 2.287616361776112, 48.827896595397007 ], [ 2.287616792703875, 48.827884283642597 ], [ 2.287597461746385, 48.827876363639419 ], [ 2.287581616212877, 48.827882513128976 ], [ 2.287591940541954, 48.827895929599457 ] ] ] } },
{ "type": "Feature", "properties": { "fid": 55, "type": "startup", "nom": null }, "geometry": { "type": "Polygon", "coordinates": [ [ [ 2.287615736310222, 48.827903919559581 ], [ 2.287632327014352, 48.827910522428333 ], [ 2.287644061058603, 48.827897670958023 ], [ 2.287633747379711, 48.827883474070418 ], [ 2.287616722201657, 48.827889443096723 ], [ 2.287615736310222, 48.827903919559581 ] ] ] } },
{ "type": "Feature", "properties": { "fid": 56, "type": "startup", "nom": null }, "geometry": { "type": "Polygon", "coordinates": [ [ [ 2.287632459534456, 48.827910436497142 ], [ 2.287648911798394, 48.827917558862318 ], [ 2.287667663297049, 48.827910212584968 ], [ 2.287667835096917, 48.827897639125439 ], [ 2.28764419476352, 48.827897498313291 ], [ 2.287632459534456, 48.827910436497142 ] ] ] } },
{ "type": "Feature", "properties": { "fid": 57, "type": "startup", "nom": null }, "geometry": { "type": "Polygon", "coordinates": [ [ [ 2.287644063428335, 48.827897497530977 ], [ 2.287667833912091, 48.827897725838959 ], [ 2.28766813467738, 48.827885326588579 ], [ 2.287651291970138, 48.827877941738421 ], [ 2.287633747379711, 48.827883474070418 ], [ 2.287644063428335, 48.827897497530977 ] ] ] } },
{ "type": "Feature", "properties": { "fid": 58, "type": "startup", "nom": null }, "geometry": { "type": "Polygon", "coordinates": [ [ [ 2.287617310186482, 48.827875135258296 ], [ 2.287635762539393, 48.827882719369462 ], [ 2.287653107067323, 48.827877428932858 ], [ 2.287641639721547, 48.827862566341921 ], [ 2.287617835039629, 48.827862347491937 ], [ 2.287617310186482, 48.827875135258296 ] ] ] } },
{ "type": "Feature", "properties": { "fid": 59, "type": "startup", "nom": null }, "geometry": { "type": "Polygon", "coordinates": [ [ [ 2.287653225867678, 48.827877275533353 ], [ 2.287670005867461, 48.827870594767454 ], [ 2.287669852646704, 48.82785618483706 ], [ 2.28765383299083, 48.827849925131957 ], [ 2.287641521973981, 48.827862642694129 ], [ 2.287653225867678, 48.827877275533353 ] ] ] } },
{ "type": "Feature", "properties": { "fid": 60, "type": "startup", "nom": null }, "geometry": { "type": "Polygon", "coordinates": [ [ [ 2.287617951734406, 48.827862348187068 ], [ 2.287641639721547, 48.827862566341921 ], [ 2.287653949685581, 48.827849925827053 ], [ 2.287638058309, 48.82784281929456 ], [ 2.287617880479644, 48.827850481512556 ], [ 2.287617951734406, 48.827862348187068 ] ] ] } },
{ "type": "Feature", "properties": { "fid": 61, "type": "startup", "nom": null }, "geometry": { "type": "Polygon", "coordinates": [ [ [ 2.287636229160128, 48.827842018607107 ], [ 2.28765208357624, 48.827849072431249 ], [ 2.287671027165718, 48.827841671592715 ], [ 2.287671666020257, 48.827829049961935 ], [ 2.287647228778811, 48.827828904403553 ], [ 2.287636229160128, 48.827842018607107 ] ] ] } },
{ "type": "Feature", "properties": { "fid": 62, "type": "startup", "nom": null }, "geometry": { "type": "Polygon", "coordinates": [ [ [ 2.287619345391142, 48.827835204999197 ], [ 2.287636323273545, 48.827841957580226 ], [ 2.287647322892192, 48.827828843376636 ], [ 2.28763706492918, 48.827814986675882 ], [ 2.287620285111287, 48.82782104547335 ], [ 2.287619345391142, 48.827835204999197 ] ] ] } },
{ "type": "Feature", "properties": { "fid": 63, "type": "startup", "nom": null }, "geometry": { "type": "Polygon", "coordinates": [ [ [ 2.287647322892192, 48.827828843376636 ], [ 2.287671571906903, 48.827829110988851 ], [ 2.287672212444031, 48.827816366192955 ], [ 2.287653686597846, 48.827809095229924 ], [ 2.287637115987697, 48.827815007256149 ], [ 2.287647322892192, 48.827828843376636 ] ] ] } },
{ "type": "Feature", "properties": { "fid": 64, "type": "startup", "nom": null }, "geometry": { "type": "Polygon", "coordinates": [ [ [ 2.287554856509507, 48.827773452341503 ], [ 2.287563231265697, 48.827784337511645 ], [ 2.287584575704166, 48.827777073154898 ], [ 2.287584659676831, 48.827761618682707 ], [ 2.287565332373042, 48.827760915586516 ], [ 2.287554856509507, 48.827773452341503 ] ] ] } },
{ "type": "Feature", "properties": { "fid": 65, "type": "startup", "nom": null }, "geometry": { "type": "Polygon", "coordinates": [ [ [ 2.287563486825895, 48.82778425503966 ], [ 2.287572873496992, 48.827795566209254 ], [ 2.287594620027983, 48.827796115726557 ], [ 2.287603800870647, 48.827785251142387 ], [ 2.287584704058086, 48.827776989925098 ], [ 2.287563486825895, 48.82778425503966 ] ] ] } },
{ "type": "Feature", "properties": { "fid": 66, "type": "startup", "nom": null }, "geometry": { "type": "Polygon", "coordinates": [ [ [ 2.287584705205798, 48.827776905937519 ], [ 2.287603928076876, 48.827785251900146 ], [ 2.287614626208817, 48.827775068308668 ], [ 2.287603745193278, 48.827761396396902 ], [ 2.287584659676831, 48.827761618682707 ], [ 2.287584705205798, 48.827776905937519 ] ] ] } },
{ "type": "Feature", "properties": { "fid": 67, "type": "startup", "nom": null }, "geometry": { "type": "Polygon", "coordinates": [ [ [ 2.287646916976529, 48.827731796962084 ], [ 2.28766630214712, 48.827739712691027 ], [ 2.287676912923934, 48.827728966957622 ], [ 2.287666201485063, 48.827716199872626 ], [ 2.287647048029288, 48.827716030069787 ], [ 2.287646916976529, 48.827731796962084 ] ] ] } },
{ "type": "Feature", "properties": { "fid": 68, "type": "startup", "nom": null }, "geometry": { "type": "Polygon", "coordinates": [ [ [ 2.287625305294327, 48.827739026756987 ], [ 2.28764714473113, 48.827731657102682 ], [ 2.287647163556346, 48.827715946544991 ], [ 2.2876276795083, 48.827715765833062 ], [ 2.287616740216492, 48.827728049386401 ], [ 2.287625305294327, 48.827739026756987 ] ] ] } },
{ "type": "Feature", "properties": { "fid": 69, "type": "startup", "nom": null }, "geometry": { "type": "Polygon", "coordinates": [ [ [ 2.28762550112287, 48.827739027923485 ], [ 2.287634946549621, 48.827750075190202 ], [ 2.287656676455892, 48.827750721848922 ], [ 2.287666326957676, 48.827739594369014 ], [ 2.287646947135917, 48.827731785231634 ], [ 2.28762550112287, 48.827739027923485 ] ] ] } },
{ "type": "Feature", "properties": { "fid": 70, "type": "startup", "nom": null }, "geometry": { "type": "Polygon", "coordinates": [ [ [ 2.287583319668629, 48.827761592929001 ], [ 2.287604271748056, 48.82776158009375 ], [ 2.287604692734029, 48.827746028577614 ], [ 2.287584684527081, 48.827737994731095 ], [ 2.287574743041807, 48.827748465445403 ], [ 2.287583319668629, 48.827761592929001 ] ] ] } },
{ "type": "Feature", "properties": { "fid": 71, "type": "startup", "nom": null }, "geometry": { "type": "Polygon", "coordinates": [ [ [ 2.287604271748056, 48.82776158009375 ], [ 2.287623129827014, 48.827762243012593 ], [ 2.287634971890927, 48.827749994214521 ], [ 2.287625533204032, 48.827738926292966 ], [ 2.28760469367441, 48.827745959760087 ], [ 2.287604271748056, 48.82776158009375 ] ] ] } },
{ "type": "Feature", "properties": { "fid": 72, "type": "startup", "nom": null }, "geometry": { "type": "Polygon", "coordinates": [ [ [ 2.287584892046268, 48.827738064790395 ], [ 2.28760469367441, 48.827745959760087 ], [ 2.287625428033879, 48.827738994489621 ], [ 2.287616821308486, 48.82772806916924 ], [ 2.287595045748648, 48.82772732004689 ], [ 2.287584892046268, 48.827738064790395 ] ] ] } },
{ "type": "Feature", "properties": { "fid": 73, "type": "startup", "nom": null }, "geometry": { "type": "Polygon", "coordinates": [ [ [ 2.287552749609921, 48.827748403248663 ], [ 2.287574847271625, 48.827748466066303 ], [ 2.287584684527081, 48.827737994731095 ], [ 2.287564784317816, 48.827729686232026 ], [ 2.28754341328964, 48.827737473576583 ], [ 2.287552749609921, 48.827748403248663 ] ] ] } },
{ "type": "Feature", "properties": { "fid": 74, "type": "startup", "nom": null }, "geometry": { "type": "Polygon", "coordinates": [ [ [ 2.287564914489085, 48.827729691832644 ], [ 2.28758498357593, 48.827738042099824 ], [ 2.287595124483743, 48.827727193548505 ], [ 2.287584214899855, 48.82771465184419 ], [ 2.287565123359294, 48.827714407466999 ], [ 2.287564914489085, 48.827729691832644 ] ] ] } },
{ "type": "Feature", "properties": { "fid": 75, "type": "startup", "nom": null }, "geometry": { "type": "Polygon", "coordinates": [ [ [ 2.287534988043863, 48.827725920778974 ], [ 2.287543536707136, 48.827737468575997 ], [ 2.287565015203478, 48.827729561786377 ], [ 2.287565223181049, 48.827714342738538 ], [ 2.287545138778682, 48.827714353735928 ], [ 2.287534988043863, 48.827725920778974 ] ] ] } },
{ "type": "Feature", "properties": { "fid": 76, "type": "startup", "nom": null }, "geometry": { "type": "Polygon", "coordinates": [ [ [ 2.287479609015722, 48.827741293327364 ], [ 2.287495879260236, 48.827747987949436 ], [ 2.287515077837673, 48.827741287136732 ], [ 2.28751569042854, 48.827728602928183 ], [ 2.287491869477167, 48.827728025997096 ], [ 2.287479609015722, 48.827741293327364 ] ] ] } },
{ "type": "Feature", "properties": { "fid": 77, "type": "startup", "nom": null }, "geometry": { "type": "Polygon", "coordinates": [ [ [ 2.28749197927853, 48.827728026651272 ], [ 2.28751580122068, 48.827728531086194 ], [ 2.287516074499486, 48.827716569876465 ], [ 2.287498287850354, 48.827708343679504 ], [ 2.287480192250364, 48.82771468855087 ], [ 2.28749197927853, 48.827728026651272 ] ] ] } },
{ "type": "Feature", "properties": { "fid": 78, "type": "startup", "nom": null }, "geometry": { "type": "Polygon", "coordinates": [ [ [ 2.287463777980894, 48.82773460131984 ], [ 2.287479610006545, 48.827741220831214 ], [ 2.287491870467973, 48.827727953500961 ], [ 2.287480303042522, 48.827714616708896 ], [ 2.287463863375998, 48.827720318925294 ], [ 2.287463777980894, 48.82773460131984 ] ] ] } },
{ "type": "Feature", "properties": { "fid": 79, "type": "startup", "nom": null }, "geometry": { "type": "Polygon", "coordinates": [ [ [ 2.287496056335691, 48.827747864944499 ], [ 2.287495181293199, 48.827762688712298 ], [ 2.287478156920637, 48.827768447838693 ], [ 2.287467454690558, 48.827754443056826 ], [ 2.287479605293703, 48.827741196005654 ], [ 2.287496056335691, 48.827747864944499 ] ] ] } },
{ "type": "Feature", "properties": { "fid": 80, "type": "startup", "nom": null }, "geometry": { "type": "Polygon", "coordinates": [ [ [ 2.287443653227279, 48.827754212448312 ], [ 2.287467724860882, 48.827754355870205 ], [ 2.287479740985572, 48.82774110801779 ], [ 2.287463690955791, 48.827734619058468 ], [ 2.287443814631306, 48.827742403502739 ], [ 2.287443653227279, 48.827754212448312 ] ] ] } },
{ "type": "Feature", "properties": { "fid": 81, "type": "startup", "nom": null }, "geometry": { "type": "Polygon", "coordinates": [ [ [ 2.287443788919242, 48.827754124460505 ], [ 2.287443341568401, 48.827767174850337 ], [ 2.287461267022766, 48.827774207763859 ], [ 2.287478159347649, 48.827768270260563 ], [ 2.287467590382482, 48.827754355068983 ], [ 2.287443788919242, 48.827754124460505 ] ] ] } },
{ "type": "Feature", "properties": { "fid": 82, "type": "startup", "nom": null }, "geometry": { "type": "Polygon", "coordinates": [ [ [ 2.287478021990496, 48.827768364525873 ], [ 2.287489520076359, 48.827782381342757 ], [ 2.287513174061213, 48.827782894222118 ], [ 2.2875133456109, 48.827770341762928 ], [ 2.287495283034088, 48.827762609073567 ], [ 2.287478021990496, 48.827768364525873 ] ] ] } },
{ "type": "Feature", "properties": { "fid": 83, "type": "startup", "nom": null }, "geometry": { "type": "Polygon", "coordinates": [ [ [ 2.287461465081901, 48.827774124170936 ], [ 2.287460977551659, 48.827789185443692 ], [ 2.287477224620524, 48.827795791456353 ], [ 2.287489663445704, 48.827782196219424 ], [ 2.287478164089043, 48.827768272383729 ], [ 2.287461465081901, 48.827774124170936 ] ] ] } },
{ "type": "Feature", "properties": { "fid": 84, "type": "startup", "nom": null }, "geometry": { "type": "Polygon", "coordinates": [ [ [ 2.28747750881777, 48.827795607172085 ], [ 2.287493474235056, 48.827802211504427 ], [ 2.287512439200163, 48.827795443325172 ], [ 2.287513316159738, 48.827782802079959 ], [ 2.28748952134714, 48.827782288361561 ], [ 2.28747750881777, 48.827795607172085 ] ] ] } },
{ "type": "Feature", "properties": { "fid": 85, "type": "startup", "nom": null }, "geometry": { "type": "Polygon", "coordinates": [ [ [ 2.287464073023128, 48.827808436399792 ], [ 2.287475841315025, 48.827822759471829 ], [ 2.287492400615526, 48.827816389921054 ], [ 2.287493548191382, 48.827802201042303 ], [ 2.287477513225323, 48.827795580057931 ], [ 2.287464073023128, 48.827808436399792 ] ] ] } },
{ "type": "Feature", "properties": { "fid": 86, "type": "startup", "nom": null }, "geometry": { "type": "Polygon", "coordinates": [ [ [ 2.287440697851786, 48.827808339394558 ], [ 2.287464156720053, 48.827808414084814 ], [ 2.287477440804922, 48.827795672237286 ], [ 2.287460871726627, 48.827789130480838 ], [ 2.287441348989947, 48.827796758822664 ], [ 2.287440697851786, 48.827808339394558 ] ] ] } },
{ "type": "Feature", "properties": { "fid": 87, "type": "startup", "nom": null }, "geometry": { "type": "Polygon", "coordinates": [ [ [ 2.287440796414723, 48.827808339981814 ], [ 2.287440914211869, 48.82782135692122 ], [ 2.287458361492401, 48.827828631234233 ], [ 2.287475947929654, 48.827822578718148 ], [ 2.287464232234814, 48.82780848922539 ], [ 2.287440796414723, 48.827808339981814 ] ] ] } },
{ "type": "Feature", "properties": { "fid": 88, "type": null, "nom": "consumer tech arena" }, "geometry": { "type": "Polygon", "coordinates": [ [ [ 2.287439564249163, 48.827830760933807 ], [ 2.287437766248202, 48.827912775179783 ], [ 2.287557577608665, 48.827914382991921 ], [ 2.287557572018288, 48.827890021323313 ], [ 2.287611843027921, 48.827857266433192 ], [ 2.287612862026189, 48.827832240363009 ], [ 2.287545815722784, 48.82778423519396 ], [ 2.287521783369845, 48.827784092021879 ], [ 2.287521194439587, 48.827802415616937 ], [ 2.287474083523037, 48.827831413605949 ], [ 2.287439564249163, 48.827830760933807 ] ] ] } },
{ "type": "Feature", "properties": { "fid": 89, "type": null, "nom": null }, "geometry": { "type": "Polygon", "coordinates": [ [ [ 2.287447268806081, 48.827688101276621 ], [ 2.287488557650054, 48.827688794279567 ], [ 2.287488472678651, 48.827670243166438 ], [ 2.287447519277933, 48.827669775663317 ], [ 2.287447268806081, 48.827688101276621 ] ] ] } },
{ "type": "Feature", "properties": { "fid": 90, "type": null, "nom": null }, "geometry": { "type": "Polygon", "coordinates": [ [ [ 2.287447860815564, 48.827669554196966 ], [ 2.287488811161753, 48.827670245183086 ], [ 2.28748940926496, 48.827651251136736 ], [ 2.287448458933683, 48.827650560150822 ], [ 2.287447860815564, 48.827669554196966 ] ] ] } },
{ "type": "Feature", "properties": { "fid": 91, "type": null, "nom": null }, "geometry": { "type": "Polygon", "coordinates": [ [ [ 2.287448800471183, 48.827650338684492 ], [ 2.287490086230919, 48.827651255170004 ], [ 2.287490345850587, 48.827632259106707 ], [ 2.287449730962544, 48.827631793620938 ], [ 2.287448800471183, 48.827650338684492 ] ] ] } },
{ "type": "Feature", "properties": { "fid": 92, "type": null, "nom": null }, "geometry": { "type": "Polygon", "coordinates": [ [ [ 2.287451420337773, 48.827608667245279 ], [ 2.287491931393018, 48.827609486052403 ], [ 2.287495524249821, 48.827549659865895 ], [ 2.287453731756933, 48.827548841775787 ], [ 2.287451420337773, 48.827608667245279 ] ] ] } },
{ "type": "Feature", "properties": { "fid": 93, "type": null, "nom": null }, "geometry": { "type": "Polygon", "coordinates": [ [ [ 2.287533194192245, 48.827500203849951 ], [ 2.287619576334653, 48.827501995681793 ], [ 2.287624881797689, 48.827396867816326 ], [ 2.287537210285717, 48.827395068305712 ], [ 2.287533194192245, 48.827500203849951 ] ] ] } },
{ "type": "Feature", "properties": { "fid": 94, "type": null, "nom": null }, "geometry": { "type": "Polygon", "coordinates": [ [ [ 2.287810332532866, 48.827373121160967 ], [ 2.287976418554212, 48.827376415886292 ], [ 2.287984276542613, 48.82720287159011 ], [ 2.287817692223913, 48.827199573904451 ], [ 2.287810332532866, 48.827373121160967 ] ] ] } },
{ "type": "Feature", "properties": { "fid": 95, "type": "escaliers", "nom": null }, "geometry": { "type": "Polygon", "coordinates": [ [ [ 2.287952193626941, 48.827414869552484 ], [ 2.288231115908133, 48.827420904397613 ], [ 2.288222705623759, 48.827605553843753 ], [ 2.288090976380468, 48.827602339497489 ], [ 2.288099233922948, 48.827482820029594 ], [ 2.287948359729346, 48.827479977608142 ], [ 2.287952193626941, 48.827414869552484 ] ] ] } },
{ "type": "Feature", "properties": { "fid": 96, "type": "sanitaires", "nom": null }, "geometry": { "type": "Polygon", "coordinates": [ [ [ 2.288042924563593, 48.827563169339285 ], [ 2.288093702352042, 48.827564443723539 ], [ 2.288098497821737, 48.827482815647734 ], [ 2.287957929044421, 48.827480034583857 ], [ 2.287957583870663, 48.827505307198599 ], [ 2.288046652155146, 48.82750583747459 ], [ 2.288042924563593, 48.827563169339285 ] ] ] } },
{ "type": "Feature", "properties": { "fid": 97, "type": "restaurant", "nom": "restaurant" }, "geometry": { "type": "Polygon", "coordinates": [ [ [ 2.28795831997218, 48.827505311581319 ], [ 2.287952708522075, 48.827592767408454 ], [ 2.288043229249944, 48.827594764487785 ], [ 2.288046645518016, 48.827506323486404 ], [ 2.28795831997218, 48.827505311581319 ] ] ] } },
{ "type": "Feature", "properties": { "fid": 98, "type": "escaliers", "nom": null }, "geometry": { "type": "Polygon", "coordinates": [ [ [ 2.289337949281346, 48.827446685824022 ], [ 2.289335595940556, 48.827511316658843 ], [ 2.289186949781592, 48.827507030887006 ], [ 2.289183124601963, 48.827625604654905 ], [ 2.289052118096521, 48.827623367766208 ], [ 2.289061254919204, 48.827439208652507 ], [ 2.289337949281346, 48.827446685824022 ] ] ] } },
{ "type": "Feature", "properties": { "fid": 99, "type": "sanitaires", "nom": null }, "geometry": { "type": "Polygon", "coordinates": [ [ [ 2.289184351069188, 48.827589644153896 ], [ 2.289235115659194, 48.827591890077194 ], [ 2.289235917411762, 48.827533082641814 ], [ 2.289326424834737, 48.827536050773759 ], [ 2.289326762719953, 48.827511264167647 ], [ 2.289187685883237, 48.827507035262151 ], [ 2.289184351069188, 48.827589644153896 ] ] ] } },
{ "type": "Feature", "properties": { "fid": 100, "type": "restaurant", "nom": "restaurant" }, "geometry": { "type": "Polygon", "coordinates": [ [ [ 2.289233968739855, 48.827622018436621 ], [ 2.289322287882908, 48.827623515411332 ], [ 2.289325682107461, 48.82753653241133 ], [ 2.289237389615796, 48.827533091391516 ], [ 2.289233968739855, 48.827622018436621 ] ] ] } },
{ "type": "Feature", "properties": { "fid": 101, "type": "restaurant", "nom": "picnic" }, "geometry": { "type": "Polygon", "coordinates": [ [ [ 2.289386819861746, 48.827641882772049 ], [ 2.289450104896648, 48.827643716948181 ], [ 2.289453366428809, 48.827566454183625 ], [ 2.28939008148758, 48.827564620009106 ], [ 2.289386819861746, 48.827641882772049 ] ] ] } },
{ "type": "Feature", "properties": { "fid": 102, "type": "stand", "nom": "lab africa tech" }, "geometry": { "type": "Polygon", "coordinates": [ [ [ 2.289656043388359, 48.827657456164985 ], [ 2.289822366438845, 48.827661117246535 ], [ 2.289827354516759, 48.827565151757689 ], [ 2.289660663720848, 48.82756148849667 ], [ 2.289656043388359, 48.827657456164985 ] ] ] } },
{ "type": "Feature", "properties": { "fid": 103, "type": "stand", "nom": "hong kong" }, "geometry": { "type": "Polygon", "coordinates": [ [ [ 2.28938228679544, 48.827731410766667 ], [ 2.289617054573354, 48.827736450914891 ], [ 2.289620462062801, 48.827675471735006 ], [ 2.289384228975896, 48.827669936833523 ], [ 2.28938228679544, 48.827731410766667 ] ] ] } },
{ "type": "Feature", "properties": { "fid": 104, "type": "stand", "nom": "france travail" }, "geometry": { "type": "Polygon", "coordinates": [ [ [ 2.28937770237166, 48.827824705345051 ], [ 2.289543654571453, 48.827828607632547 ], [ 2.289547201239444, 48.827757422212095 ], [ 2.289380874588685, 48.827754003754094 ], [ 2.28937770237166, 48.827824705345051 ] ] ] } },
{ "type": "Feature", "properties": { "fid": 105, "type": "stand", "nom": "essilorluxottica" }, "geometry": { "type": "Polygon", "coordinates": [ [ [ 2.28937076755024, 48.827955411882002 ], [ 2.289536723477221, 48.827959071172799 ], [ 2.289541808146371, 48.827856058550978 ], [ 2.289375481181281, 48.827852640085773 ], [ 2.28937076755024, 48.827955411882002 ] ] ] } },
{ "type": "Feature", "properties": { "fid": 106, "type": "startup", "nom": null }, "geometry": { "type": "Polygon", "coordinates": [ [ [ 2.289624032580407, 48.827953696449327 ], [ 2.289642879748656, 48.827961706729063 ], [ 2.289659529924516, 48.827955365450478 ], [ 2.289648488044868, 48.827941811948058 ], [ 2.289624756845758, 48.827941063424021 ], [ 2.289624032580407, 48.827953696449327 ] ] ] } },
{ "type": "Feature", "properties": { "fid": 107, "type": "startup", "nom": null }, "geometry": { "type": "Polygon", "coordinates": [ [ [ 2.28965934755305, 48.827955242854493 ], [ 2.289675991102844, 48.827949387585292 ], [ 2.289676920903941, 48.827935176114536 ], [ 2.289660260540943, 48.827928758494842 ], [ 2.289648491355994, 48.827941568942215 ], [ 2.28965934755305, 48.827955242854493 ] ] ] } },
{ "type": "Feature", "properties": { "fid": 108, "type": "startup", "nom": null }, "geometry": { "type": "Polygon", "coordinates": [ [ [ 2.289625123244046, 48.82794118711319 ], [ 2.289648859409904, 48.827941571128363 ], [ 2.289660260540943, 48.827928758494842 ], [ 2.289645261390737, 48.82792198620173 ], [ 2.289625108090092, 48.827928792721139 ], [ 2.289625123244046, 48.82794118711319 ] ] ] } },
{ "type": "Feature", "properties": { "fid": 109, "type": "startup", "nom": null }, "geometry": { "type": "Polygon", "coordinates": [ [ [ 2.289571961219278, 48.827952779571696 ], [ 2.289590816657688, 48.827960182345002 ], [ 2.289606906480098, 48.827954445308869 ], [ 2.28959696712035, 48.827941019863474 ], [ 2.289572861245485, 48.827940755154536 ], [ 2.289571961219278, 48.827952779571696 ] ] ] } },
{ "type": "Feature", "properties": { "fid": 110, "type": "startup", "nom": null }, "geometry": { "type": "Polygon", "coordinates": [ [ [ 2.289606908135758, 48.827954323805955 ], [ 2.289624480104137, 48.827947866494966 ], [ 2.289625038554161, 48.827933895844247 ], [ 2.28960819085974, 48.82792772013002 ], [ 2.289597151147301, 48.827941020956622 ], [ 2.289606908135758, 48.827954323805955 ] ] ] } },
{ "type": "Feature", "properties": { "fid": 111, "type": "startup", "nom": null }, "geometry": { "type": "Polygon", "coordinates": [ [ [ 2.289573229299386, 48.827940757340919 ], [ 2.289597152802984, 48.827940899453694 ], [ 2.289608374886645, 48.827927721223162 ], [ 2.289592641291648, 48.827920823047954 ], [ 2.289573587178794, 48.827928000626457 ], [ 2.289573229299386, 48.827940757340919 ] ] ] } },
{ "type": "Feature", "properties": { "fid": 112, "type": "startup", "nom": null }, "geometry": { "type": "Polygon", "coordinates": [ [ [ 2.289591113630363, 48.827919846988252 ], [ 2.289606842682257, 48.827926944624899 ], [ 2.289626076004859, 48.827919365730466 ], [ 2.289626243402732, 48.827907080663486 ], [ 2.28960241816593, 48.827907053963145 ], [ 2.289591113630363, 48.827919846988252 ] ] ] } },
{ "type": "Feature", "properties": { "fid": 113, "type": "startup", "nom": null }, "geometry": { "type": "Polygon", "coordinates": [ [ [ 2.289574162620955, 48.827913086559597 ], [ 2.289591287525824, 48.827919848021246 ], [ 2.28960259206135, 48.827907054996118 ], [ 2.289592180008455, 48.827892640270818 ], [ 2.289574351935159, 48.827899194100652 ], [ 2.289574162620955, 48.827913086559597 ] ] ] } },
{ "type": "Feature", "properties": { "fid": 114, "type": "startup", "nom": null }, "geometry": { "type": "Polygon", "coordinates": [ [ [ 2.289602765956766, 48.82790705602909 ], [ 2.289626069507313, 48.827907079630549 ], [ 2.289627291228655, 48.827893997065019 ], [ 2.289608605962953, 48.827886881870619 ], [ 2.289592006113084, 48.827892639237838 ], [ 2.289602765956766, 48.82790705602909 ] ] ] } },
{ "type": "Feature", "properties": { "fid": 115, "type": "startup", "nom": null }, "geometry": { "type": "Polygon", "coordinates": [ [ [ 2.289575600267097, 48.827884159702471 ], [ 2.289593752889466, 48.827892075499079 ], [ 2.289611053013855, 48.827885977822312 ], [ 2.289599935994495, 48.827872247847878 ], [ 2.289576638717826, 48.827871764986469 ], [ 2.289575600267097, 48.827884159702471 ] ] ] } },
{ "type": "Feature", "properties": { "fid": 116, "type": "startup", "nom": null }, "geometry": { "type": "Polygon", "coordinates": [ [ [ 2.289610990795268, 48.827886014799709 ], [ 2.289627771034445, 48.827879406869194 ], [ 2.289627965784288, 48.827865114437998 ], [ 2.289611965387959, 48.827858870756891 ], [ 2.289599931104189, 48.827872214482817 ], [ 2.289610990795268, 48.827886014799709 ] ] ] } },
{ "type": "Feature", "properties": { "fid": 117, "type": "startup", "nom": null }, "geometry": { "type": "Polygon", "coordinates": [ [ [ 2.289576838217454, 48.827871678042349 ], [ 2.289600053125869, 48.827872135355193 ], [ 2.289612086321577, 48.827858871475243 ], [ 2.289595731832548, 48.827851986868971 ], [ 2.289576648419063, 48.827858980375673 ], [ 2.289576838217454, 48.827871678042349 ] ] ] } },
{ "type": "Feature", "properties": { "fid": 118, "type": null, "nom": "human first arena" }, "geometry": { "type": "Polygon", "coordinates": [ [ [ 2.28963035672361, 48.827900840158783 ], [ 2.289631325567186, 48.8278794000624 ], [ 2.289706835615216, 48.827832399759039 ], [ 2.289734747195026, 48.827832465914 ], [ 2.289734323557162, 48.827852486392629 ], [ 2.289776177953972, 48.827882618066049 ], [ 2.28981113362634, 48.827882877521439 ], [ 2.289807555847492, 48.827964943838538 ], [ 2.289683294102537, 48.827962283906757 ], [ 2.289683637119166, 48.827937108442477 ], [ 2.28963035672361, 48.827900840158783 ] ] ] } },
{ "type": "Feature", "properties": { "fid": 119, "type": "startup", "nom": null }, "geometry": { "type": "Polygon", "coordinates": [ [ [ 2.289776326430096, 48.827873752907315 ], [ 2.289792337269835, 48.827880352148505 ], [ 2.28981191942533, 48.827873614592512 ], [ 2.289812301783574, 48.827861098106261 ], [ 2.289788371135471, 48.827860466433542 ], [ 2.289776326430096, 48.827873752907315 ] ] ] } },
{ "type": "Feature", "properties": { "fid": 120, "type": "startup", "nom": null }, "geometry": { "type": "Polygon", "coordinates": [ [ [ 2.289788296972143, 48.827860523951188 ], [ 2.289812379977914, 48.8278611214281 ], [ 2.289812704880533, 48.827848499475813 ], [ 2.289794194727656, 48.827840646602127 ], [ 2.289777685431676, 48.827846968251798 ], [ 2.289788296972143, 48.827860523951188 ] ] ] } },
{ "type": "Feature", "properties": { "fid": 121, "type": "startup", "nom": null }, "geometry": { "type": "Polygon", "coordinates": [ [ [ 2.289759762945094, 48.827866777649803 ], [ 2.289776445859139, 48.827873725610701 ], [ 2.289788443897129, 48.827860396870982 ], [ 2.289777712878279, 48.827846933151044 ], [ 2.289760854733927, 48.827852848141994 ], [ 2.289759762945094, 48.827866777649803 ] ] ] } },
{ "type": "Feature", "properties": { "fid": 122, "type": "startup", "nom": null }, "geometry": { "type": "Polygon", "coordinates": [ [ [ 2.289742398397003, 48.827845177808065 ], [ 2.289760948067586, 48.827852849282884 ], [ 2.289777911684142, 48.82784694774903 ], [ 2.289766653621065, 48.827832693690283 ], [ 2.289743159640077, 48.827832632113697 ], [ 2.289742398397003, 48.827845177808065 ] ] ] } },
{ "type": "Feature", "properties": { "fid": 123, "type": "startup", "nom": null }, "geometry": { "type": "Polygon", "coordinates": [ [ [ 2.289777912746006, 48.827846869803693 ], [ 2.289794409448341, 48.827840575736403 ], [ 2.289795196162955, 48.8278261593534 ], [ 2.28977899060379, 48.827819749031065 ], [ 2.289766653621065, 48.827832693690283 ], [ 2.289777912746006, 48.827846869803693 ] ] ] } },
{ "type": "Feature", "properties": { "fid": 124, "type": "startup", "nom": null }, "geometry": { "type": "Polygon", "coordinates": [ [ [ 2.289743395749816, 48.827832633515953 ], [ 2.289766653621065, 48.827832693690283 ], [ 2.28977899060379, 48.827819749031065 ], [ 2.289762556372167, 48.82781279168691 ], [ 2.289743329546662, 48.827820160858877 ], [ 2.289743395749816, 48.827832633515953 ] ] ] } },
{ "type": "Feature", "properties": { "fid": 125, "type": "startup", "nom": null }, "geometry": { "type": "Polygon", "coordinates": [ [ [ 2.289795299252022, 48.827826137762422 ], [ 2.289814476571599, 48.827819428776927 ], [ 2.289815281799966, 48.827806762515138 ], [ 2.289791562870621, 48.827806273554913 ], [ 2.289779042575399, 48.827819705698381 ], [ 2.289795299252022, 48.827826137762422 ] ] ] } },
{ "type": "Feature", "properties": { "fid": 126, "type": "startup", "nom": null }, "geometry": { "type": "Polygon", "coordinates": [ [ [ 2.289762688051477, 48.827812716082043 ], [ 2.289779042575399, 48.827819705698381 ], [ 2.289791669257526, 48.827806204565583 ], [ 2.289779835147175, 48.827792488547658 ], [ 2.28976309429993, 48.827798376544109 ], [ 2.289762688051477, 48.827812716082043 ] ] ] } },
{ "type": "Feature", "properties": { "fid": 127, "type": "startup", "nom": null }, "geometry": { "type": "Polygon", "coordinates": [ [ [ 2.289779936221189, 48.827792458821683 ], [ 2.289791592693268, 48.827806230384788 ], [ 2.289815273289391, 48.827806786234184 ], [ 2.289815439195664, 48.827794607362087 ], [ 2.28979773145746, 48.827786474572001 ], [ 2.289779936221189, 48.827792458821683 ] ] ] } },
{ "type": "Feature", "properties": { "fid": 128, "type": "startup", "nom": null }, "geometry": { "type": "Polygon", "coordinates": [ [ [ 2.289779936221189, 48.827792458821683 ], [ 2.289797942012902, 48.82778640661865 ], [ 2.289797717920555, 48.827772080114492 ], [ 2.289782081809543, 48.82776575892143 ], [ 2.28976922489801, 48.827778554462782 ], [ 2.289779936221189, 48.827792458821683 ] ] ] } },
{ "type": "Feature", "properties": { "fid": 129, "type": "startup", "nom": null }, "geometry": { "type": "Polygon", "coordinates": [ [ [ 2.289744937956573, 48.827790978852612 ], [ 2.289763232350502, 48.827798286970605 ], [ 2.289779943898893, 48.827792423019652 ], [ 2.28976922979085, 48.827778469506043 ], [ 2.289744999207875, 48.827778398325428 ], [ 2.289744937956573, 48.827790978852612 ] ] ] } },
{ "type": "Feature", "properties": { "fid": 130, "type": "startup", "nom": null }, "geometry": { "type": "Polygon", "coordinates": [ [ [ 2.289745110333055, 48.827778326263463 ], [ 2.289769452041143, 48.827778325382113 ], [ 2.289782290867901, 48.827765675293477 ], [ 2.289765685047902, 48.827758771724746 ], [ 2.289745215006035, 48.827765994741569 ], [ 2.289745110333055, 48.827778326263463 ] ] ] } },
{ "type": "Feature", "properties": { "fid": 131, "type": "startup", "nom": null }, "geometry": { "type": "Polygon", "coordinates": [ [ [ 2.289657065447156, 48.827841881432384 ], [ 2.28967904242225, 48.827842100456209 ], [ 2.289689236880692, 48.827831630816689 ], [ 2.289668972955524, 48.827823723427706 ], [ 2.289648373683987, 48.827830591704235 ], [ 2.289657065447156, 48.827841881432384 ] ] ] } },
{ "type": "Feature", "properties": { "fid": 132, "type": "startup", "nom": null }, "geometry": { "type": "Polygon", "coordinates": [ [ [ 2.289668972955524, 48.827823723427706 ], [ 2.289689102867422, 48.827831630020732 ], [ 2.28969903652854, 48.827820627897395 ], [ 2.289689022711024, 48.827808002985009 ], [ 2.289668917112829, 48.827808149034162 ], [ 2.289668972955524, 48.827823723427706 ] ] ] } },
{ "type": "Feature", "properties": { "fid": 133, "type": "startup", "nom": null }, "geometry": { "type": "Polygon", "coordinates": [ [ [ 2.289648508902878, 48.827830504018401 ], [ 2.289669106968775, 48.827823724223691 ], [ 2.289669051126038, 48.827808149830155 ], [ 2.289650698550043, 48.827807509887577 ], [ 2.28963887181695, 48.827819739608344 ], [ 2.289648508902878, 48.827830504018401 ] ] ] } },
{ "type": "Feature", "properties": { "fid": 134, "type": "startup", "nom": null }, "geometry": { "type": "Polygon", "coordinates": [ [ [ 2.289681054700748, 48.827795629798288 ], [ 2.289703168789625, 48.827795884897959 ], [ 2.289713527427649, 48.82778536538968 ], [ 2.289693027365333, 48.827776704555099 ], [ 2.289672205982591, 48.82778474870009 ], [ 2.289681054700748, 48.827795629798288 ] ] ] } },
{ "type": "Feature", "properties": { "fid": 135, "type": "startup", "nom": null }, "geometry": { "type": "Polygon", "coordinates": [ [ [ 2.289713646108908, 48.827785304967144 ], [ 2.289723072254863, 48.827774565786548 ], [ 2.289713079373651, 48.827762033645314 ], [ 2.289694190816014, 48.827761848519629 ], [ 2.28969299291716, 48.827776794166503 ], [ 2.289713646108908, 48.827785304967144 ] ] ] } },
{ "type": "Feature", "properties": { "fid": 136, "type": "startup", "nom": null }, "geometry": { "type": "Polygon", "coordinates": [ [ [ 2.289672338063541, 48.827784621979653 ], [ 2.289693105369837, 48.827776648953801 ], [ 2.289694301281225, 48.827761849175729 ], [ 2.2896746384735, 48.827761732388666 ], [ 2.28966299605889, 48.827772968983837 ], [ 2.289672338063541, 48.827784621979653 ] ] ] } },
{ "type": "Feature", "properties": { "fid": 137, "type": "startup", "nom": null }, "geometry": { "type": "Polygon", "coordinates": [ [ [ 2.28967230698397, 48.827784697748719 ], [ 2.289681143878319, 48.82779567284107 ], [ 2.289669195688876, 48.827808187591778 ], [ 2.28965061528704, 48.827807807536004 ], [ 2.289650834529283, 48.827791717099053 ], [ 2.28967230698397, 48.827784697748719 ] ] ] } },
{ "type": "Feature", "properties": { "fid": 138, "type": "startup", "nom": null }, "geometry": { "type": "Polygon", "coordinates": [ [ [ 2.289621101091507, 48.827793999914853 ], [ 2.289632810835011, 48.827807326445125 ], [ 2.289650837808501, 48.827807690939487 ], [ 2.289650762867706, 48.827791730641238 ], [ 2.289631484541053, 48.827783057015964 ], [ 2.289621101091507, 48.827793999914853 ] ] ] } },
{ "type": "Feature", "properties": { "fid": 139, "type": "startup", "nom": null }, "geometry": { "type": "Polygon", "coordinates": [ [ [ 2.289631569982453, 48.827783092431588 ], [ 2.289650828506248, 48.827791710573734 ], [ 2.289672447397292, 48.827784640633723 ], [ 2.289663059959872, 48.827772948166071 ], [ 2.28964131269925, 48.827772856289727 ], [ 2.289631569982453, 48.827783092431588 ] ] ] } },
{ "type": "Feature", "properties": { "fid": 140, "type": "startup", "nom": null }, "geometry": { "type": "Polygon", "coordinates": [ [ [ 2.289621189743381, 48.827793948858492 ], [ 2.289631774243553, 48.82778298808482 ], [ 2.289611254967227, 48.827775246915671 ], [ 2.289590780200988, 48.827782258238798 ], [ 2.289599459630364, 48.82779398189173 ], [ 2.289621189743381, 48.827793948858492 ] ] ] } },
{ "type": "Feature", "properties": { "fid": 141, "type": "startup", "nom": null }, "geometry": { "type": "Polygon", "coordinates": [ [ [ 2.289611377723702, 48.827775247644858 ], [ 2.289631774243553, 48.82778298808482 ], [ 2.289641488400328, 48.827772832702586 ], [ 2.289631481836145, 48.827759398988839 ], [ 2.289611593084127, 48.827759442961764 ], [ 2.289611377723702, 48.827775247644858 ] ] ] } },
{ "type": "Feature", "properties": { "fid": 142, "type": "startup", "nom": null }, "geometry": { "type": "Polygon", "coordinates": [ [ [ 2.28959090295748, 48.827782258968007 ], [ 2.289611501584592, 48.82777516732439 ], [ 2.289611715840567, 48.827759443690951 ], [ 2.289592811348914, 48.827759331394908 ], [ 2.289580736096412, 48.827771580209273 ], [ 2.28959090295748, 48.827782258968007 ] ] ] } },
{ "type": "Feature", "properties": { "fid": 143, "type": null, "nom": null }, "geometry": { "type": "Polygon", "coordinates": [ [ [ 2.289777343150166, 48.827740284948966 ], [ 2.289818953152512, 48.827740856276598 ], [ 2.289819084336614, 48.827722214125501 ], [ 2.289777838201593, 48.8277219691836 ], [ 2.289777343150166, 48.827740284948966 ] ] ] } },
{ "type": "Feature", "properties": { "fid": 144, "type": null, "nom": null }, "geometry": { "type": "Polygon", "coordinates": [ [ [ 2.289777960957947, 48.827721969912595 ], [ 2.289819085440703, 48.827722133075838 ], [ 2.289819713170391, 48.827703088591996 ], [ 2.289778349814946, 48.827702437672976 ], [ 2.289777960957947, 48.827721969912595 ] ] ] } },
{ "type": "Feature", "properties": { "fid": 145, "type": null, "nom": null }, "geometry": { "type": "Polygon", "coordinates": [ [ [ 2.289778472019175, 48.82770247892681 ], [ 2.289819712618344, 48.82770312911682 ], [ 2.289820585860104, 48.827684086090599 ], [ 2.289779466928101, 48.827683517679567 ], [ 2.289778472019175, 48.82770247892681 ] ] ] } },
{ "type": "Feature", "properties": { "fid": 146, "type": "stand", "nom": "media partner" }, "geometry": { "type": "Polygon", "coordinates": [ [ [ 2.28922920948851, 48.827207690693321 ], [ 2.289302353871529, 48.827209422294764 ], [ 2.289302729530935, 48.827181865398337 ], [ 2.289286525861026, 48.827181769102857 ], [ 2.289288038254996, 48.827142871084149 ], [ 2.289232075242847, 48.827141565814422 ], [ 2.28922920948851, 48.827207690693321 ] ] ] } },
{ "type": "Feature", "properties": { "fid": 147, "type": null, "nom": null }, "geometry": { "type": "Polygon", "coordinates": [ [ [ 2.289302602696451, 48.827209180604704 ], [ 2.289357342650695, 48.827210154348094 ], [ 2.289357707233096, 48.827183407948482 ], [ 2.289302724006535, 48.82718227064683 ], [ 2.289302602696451, 48.827209180604704 ] ] ] } },
{ "type": "Feature", "properties": { "fid": 148, "type": null, "nom": null }, "geometry": { "type": "Polygon", "coordinates": [ [ [ 2.289378197767839, 48.827211250948572 ], [ 2.289520074000272, 48.827214201372342 ], [ 2.289521181657008, 48.827186973049812 ], [ 2.289379551008773, 48.827184024086158 ], [ 2.289378197767839, 48.827211250948572 ] ] ] } },
{ "type": "Feature", "properties": { "fid": 149, "type": null, "nom": null }, "geometry": { "type": "Polygon", "coordinates": [ [ [ 2.289319308791897, 48.827406570803767 ], [ 2.289392462294896, 48.82740765395237 ], [ 2.289399609021692, 48.827279627543128 ], [ 2.289325964676974, 48.827278541480858 ], [ 2.289319308791897, 48.827406570803767 ] ] ] } },
{ "type": "Feature", "properties": { "fid": 150, "type": null, "nom": null }, "geometry": { "type": "Polygon", "coordinates": [ [ [ 2.289326455698187, 48.82727854439878 ], [ 2.289467843298819, 48.827281329867027 ], [ 2.289469939369474, 48.827235626592511 ], [ 2.289328556312037, 48.827232516927864 ], [ 2.289326455698187, 48.82727854439878 ] ] ] } },
{ "type": "Feature", "properties": { "fid": 151, "type": "startup", "nom": null }, "geometry": { "type": "Polygon", "coordinates": [ [ [ 2.289513887436693, 48.827271795616248 ], [ 2.289533528283137, 48.827271912300425 ], [ 2.289533499259099, 48.827256025102137 ], [ 2.289513471225703, 48.827248286829651 ], [ 2.289503507212933, 48.827258764946414 ], [ 2.289513887436693, 48.827271795616248 ] ] ] } },
{ "type": "Feature", "properties": { "fid": 152, "type": "startup", "nom": null }, "geometry": { "type": "Polygon", "coordinates": [ [ [ 2.289533650486165, 48.827271953554529 ], [ 2.289552305976902, 48.827272307550565 ], [ 2.289564006227802, 48.827260542844066 ], [ 2.289553969960659, 48.82724929745946 ], [ 2.28953349981136, 48.827255984577299 ], [ 2.289533650486165, 48.827271953554529 ] ] ] } },
{ "type": "Feature", "properties": { "fid": 153, "type": "startup", "nom": null }, "geometry": { "type": "Polygon", "coordinates": [ [ [ 2.289513594533214, 48.827248247034092 ], [ 2.289533499811359, 48.827255984577299 ], [ 2.289553847205418, 48.82724929673023 ], [ 2.289545295050205, 48.827237249598753 ], [ 2.289524550524452, 48.827237045303349 ], [ 2.289513594533214, 48.827248247034092 ] ] ] } },
{ "type": "Feature", "properties": { "fid": 154, "type": "startup", "nom": null }, "geometry": { "type": "Polygon", "coordinates": [ [ [ 2.289573417678209, 48.827272595078526 ], [ 2.289596124094142, 48.827272973132082 ], [ 2.289606091404244, 48.827262251858635 ], [ 2.289585573441122, 48.827254429631815 ], [ 2.289565464932819, 48.827261605240878 ], [ 2.289573417678209, 48.827272595078526 ] ] ] } },
{ "type": "Feature", "properties": { "fid": 155, "type": "startup", "nom": null }, "geometry": { "type": "Polygon", "coordinates": [ [ [ 2.289565587688086, 48.827261605970115 ], [ 2.289585573441122, 48.827254429631815 ], [ 2.289586896917452, 48.827238388355248 ], [ 2.289566516238834, 48.827238510453519 ], [ 2.289554694342694, 48.827250193381552 ], [ 2.289565587688086, 48.827261605970115 ] ] ] } },
{ "type": "Feature", "properties": { "fid": 156, "type": "startup", "nom": null }, "geometry": { "type": "Polygon", "coordinates": [ [ [ 2.289585698405255, 48.827254268261633 ], [ 2.289606091404244, 48.827262251858635 ], [ 2.289616056501456, 48.827251692683681 ], [ 2.28960555460536, 48.827238580243602 ], [ 2.289586896917452, 48.827238388355248 ], [ 2.289585698405255, 48.827254268261633 ] ] ] } },
{ "type": "Feature", "properties": { "fid": 157, "type": "startup", "nom": null }, "geometry": { "type": "Polygon", "coordinates": [ [ [ 2.289501208886076, 48.827310303068892 ], [ 2.289517076512507, 48.827317043951204 ], [ 2.289529535404211, 48.827303662630449 ], [ 2.289517935348686, 48.82729005732169 ], [ 2.289501282744879, 48.827295875494862 ], [ 2.289501208886076, 48.827310303068892 ] ] ] } },
{ "type": "Feature", "properties": { "fid": 158, "type": "startup", "nom": null }, "geometry": { "type": "Polygon", "coordinates": [ [ [ 2.289517077617057, 48.827316962901499 ], [ 2.289534052255326, 48.827323548245687 ], [ 2.289552435589338, 48.827316848730987 ], [ 2.289553101120922, 48.82730404579705 ], [ 2.289529536508741, 48.827303581580757 ], [ 2.289517077617057, 48.827316962901499 ] ] ] } },
{ "type": "Feature", "properties": { "fid": 159, "type": "startup", "nom": null }, "geometry": { "type": "Polygon", "coordinates": [ [ [ 2.289529537613271, 48.827303500531066 ], [ 2.289553224980782, 48.827303965476602 ], [ 2.289553027911175, 48.827291400586873 ], [ 2.289535452758615, 48.827283839002575 ], [ 2.2895178136979, 48.82728997554274 ], [ 2.289529537613271, 48.827303500531066 ] ] ] } },
{ "type": "Feature", "properties": { "fid": 160, "type": "startup", "nom": null }, "geometry": { "type": "Polygon", "coordinates": [ [ [ 2.289500034646805, 48.827324399880261 ], [ 2.289499856809974, 48.827337448879945 ], [ 2.289523300890834, 48.827337750273429 ], [ 2.289536001983155, 48.82732461355986 ], [ 2.28951878735623, 48.827317621508961 ], [ 2.289500034646805, 48.827324399880261 ] ] ] } },
{ "type": "Feature", "properties": { "fid": 161, "type": "startup", "nom": null }, "geometry": { "type": "Polygon", "coordinates": [ [ [ 2.289536125843091, 48.827324533239441 ], [ 2.289552114024807, 48.827331436945649 ], [ 2.289551059240797, 48.827345777635578 ], [ 2.289533913391928, 48.827351754995384 ], [ 2.289523299786294, 48.827337831323106 ], [ 2.289536125843091, 48.827324533239441 ] ] ] } },
{ "type": "Feature", "properties": { "fid": 162, "type": "startup", "nom": null }, "geometry": { "type": "Polygon", "coordinates": [ [ [ 2.289499979565418, 48.827337449609253 ], [ 2.289523546401725, 48.827337751731974 ], [ 2.289534037251932, 48.827351674674951 ], [ 2.289516768643679, 48.827357651303004 ], [ 2.289499809460569, 48.827349931260962 ], [ 2.289499979565418, 48.827337449609253 ] ] ] } },
{ "type": "Feature", "properties": { "fid": 163, "type": "startup", "nom": null }, "geometry": { "type": "Polygon", "coordinates": [ [ [ 2.289587876069234, 48.827292661333608 ], [ 2.289608233410298, 48.827285244030286 ], [ 2.289623848905964, 48.827292469738346 ], [ 2.289611276120993, 48.82730520194233 ], [ 2.289587827636503, 48.827305224764856 ], [ 2.289587876069234, 48.827292661333608 ] ] ] } },
{ "type": "Feature", "properties": { "fid": 164, "type": "startup", "nom": null }, "geometry": { "type": "Polygon", "coordinates": [ [ [ 2.289623848905964, 48.827292469738346 ], [ 2.289640579143391, 48.827298972559511 ], [ 2.289640016510288, 48.827313235117572 ], [ 2.289621761466145, 48.827319530126466 ], [ 2.289611154470026, 48.827305120163452 ], [ 2.289623848905964, 48.827292469738346 ] ] ] } },
{ "type": "Feature", "properties": { "fid": 165, "type": "startup", "nom": null }, "geometry": { "type": "Polygon", "coordinates": [ [ [ 2.289588073147243, 48.827305226223274 ], [ 2.289611277225397, 48.827305120892646 ], [ 2.289621885325934, 48.827319449805955 ], [ 2.289605478235175, 48.827325269451826 ], [ 2.289587408728673, 48.827317948107712 ], [ 2.289588073147243, 48.827305226223274 ] ] ] } },
{ "type": "Feature", "properties": { "fid": 166, "type": "startup", "nom": null }, "geometry": { "type": "Polygon", "coordinates": [ [ [ 2.28960337924451, 48.827326148602118 ], [ 2.28961954192936, 48.827320246448501 ], [ 2.289638712926895, 48.827327817499253 ], [ 2.289638051833481, 48.827340296234652 ], [ 2.289613623498398, 48.827340151129569 ], [ 2.28960337924451, 48.827326148602118 ] ] ] } },
{ "type": "Feature", "properties": { "fid": 167, "type": "startup", "nom": null }, "geometry": { "type": "Polygon", "coordinates": [ [ [ 2.289613869009302, 48.827340152587936 ], [ 2.289638174588935, 48.827340296963797 ], [ 2.289637755693108, 48.82735302030644 ], [ 2.289617282200646, 48.827359950587038 ], [ 2.289602031638869, 48.827352970215216 ], [ 2.289613869009302, 48.827340152587936 ] ] ] } },
{ "type": "Feature", "properties": { "fid": 168, "type": "startup", "nom": null }, "geometry": { "type": "Polygon", "coordinates": [ [ [ 2.289585546899855, 48.827346468847381 ], [ 2.289602032743288, 48.827352889165525 ], [ 2.289613870113702, 48.827340071538252 ], [ 2.289603625859764, 48.827326069010823 ], [ 2.289586600569953, 48.827332209206851 ], [ 2.289585546899855, 48.827346468847381 ] ] ] } },
{ "type": "Feature", "properties": { "fid": 169, "type": "startup", "nom": null }, "geometry": { "type": "Polygon", "coordinates": [ [ [ 2.289587099680549, 48.827412701024016 ], [ 2.289606371208957, 48.827412896558265 ], [ 2.28960683539381, 48.82739685017939 ], [ 2.289586803982104, 48.827389355069201 ], [ 2.289576953877036, 48.827400482317458 ], [ 2.289587099680549, 48.827412701024016 ] ] ] } },
{ "type": "Feature", "properties": { "fid": 170, "type": "startup", "nom": null }, "geometry": { "type": "Polygon", "coordinates": [ [ [ 2.28960637231337, 48.82741281550858 ], [ 2.289625519981885, 48.827413091360228 ], [ 2.289637099700992, 48.827401163819509 ], [ 2.2896274327621, 48.827389839580292 ], [ 2.289606590987051, 48.827396767671338 ], [ 2.28960637231337, 48.82741281550858 ] ] ] } },
{ "type": "Feature", "properties": { "fid": 171, "type": "startup", "nom": null }, "geometry": { "type": "Polygon", "coordinates": [ [ [ 2.289586926737671, 48.827389355798417 ], [ 2.289606592091463, 48.82739668662164 ], [ 2.289627431657721, 48.827389920629969 ], [ 2.289618617385455, 48.827379087792188 ], [ 2.289596529118567, 48.827378389190216 ], [ 2.289586926737671, 48.827389355798417 ] ] ] } },
{ "type": "Feature", "properties": { "fid": 172, "type": "startup", "nom": null }, "geometry": { "type": "Polygon", "coordinates": [ [ [ 2.289577077737089, 48.827400401996989 ], [ 2.289587050597682, 48.827389275477941 ], [ 2.289566294807649, 48.827380884442483 ], [ 2.289545071507274, 48.827388782931379 ], [ 2.28955486449715, 48.827399864757481 ], [ 2.289577077737089, 48.827400401996989 ] ] ] } },
{ "type": "Feature", "properties": { "fid": 173, "type": "startup", "nom": null }, "geometry": { "type": "Polygon", "coordinates": [ [ [ 2.289566417563197, 48.827380885171713 ], [ 2.289587050597682, 48.827389275477941 ], [ 2.289596652978537, 48.827378308869726 ], [ 2.289586883177112, 48.827365525003437 ], [ 2.289566757900078, 48.827364919113009 ], [ 2.289566417563197, 48.827380885171713 ] ] ] } },
{ "type": "Feature", "properties": { "fid": 174, "type": "startup", "nom": null }, "geometry": { "type": "Polygon", "coordinates": [ [ [ 2.289545194262839, 48.827388783660624 ], [ 2.289566541423218, 48.827380804851266 ], [ 2.289567004515573, 48.827364839521771 ], [ 2.289547976307089, 48.827364807539062 ], [ 2.289536760424198, 48.827377061458051 ], [ 2.289545194262839, 48.827388783660624 ] ] ] } },
{ "type": "Feature", "properties": { "fid": 175, "type": "startup", "nom": null }, "geometry": { "type": "Polygon", "coordinates": [ [ [ 2.289554988357237, 48.827399784437034 ], [ 2.289543409724161, 48.827411630920125 ], [ 2.289523643860357, 48.827411675607685 ], [ 2.289524479651027, 48.827395388267888 ], [ 2.289545318122915, 48.827388703340198 ], [ 2.289554988357237, 48.827399784437034 ] ] ] } },
{ "type": "Feature", "properties": { "fid": 176, "type": "startup", "nom": null }, "geometry": { "type": "Polygon", "coordinates": [ [ [ 2.289523766615977, 48.827411676336951 ], [ 2.289504987215375, 48.827411402656907 ], [ 2.289494615802735, 48.827397723590458 ], [ 2.289504460401999, 48.827387001597387 ], [ 2.289524602406609, 48.827395388997168 ], [ 2.289523766615977, 48.827411676336951 ] ] ] } },
{ "type": "Feature", "properties": { "fid": 177, "type": "startup", "nom": null }, "geometry": { "type": "Polygon", "coordinates": [ [ [ 2.28950458315756, 48.827387002326688 ], [ 2.28952472405765, 48.827395470776118 ], [ 2.28954519426284, 48.827388783660624 ], [ 2.28953675931968, 48.827377142507721 ], [ 2.28951503600766, 48.827376689227535 ], [ 2.28950458315756, 48.827387002326688 ] ] ] } },
{ "type": "Feature", "properties": { "fid": 178, "type": "startup", "nom": null }, "geometry": { "type": "Polygon", "coordinates": [ [ [ 2.289668595058735, 48.827414238838166 ], [ 2.289711059672072, 48.827415139506122 ], [ 2.289715591869617, 48.827316764142402 ], [ 2.289673120710487, 48.827316349774115 ], [ 2.289668595058735, 48.827414238838166 ] ] ] } },
{ "type": "Feature", "properties": { "fid": 179, "type": null, "nom": null }, "geometry": { "type": "Polygon", "coordinates": [ [ [ 2.289674544830719, 48.827301930220393 ], [ 2.289717250446464, 48.827303156543273 ], [ 2.289722215851686, 48.827191004178779 ], [ 2.2895425421473, 48.827187018892673 ], [ 2.28954020695017, 48.827214239922796 ], [ 2.289679130450201, 48.827217658953764 ], [ 2.289674544830719, 48.827301930220393 ] ] ] } },
{ "type": "Feature", "properties": { "fid": 180, "type": null, "nom": null }, "geometry": { "type": "Polygon", "coordinates": [ [ [ 2.287947688372062, 48.827178992648683 ], [ 2.288086125080556, 48.827182086407944 ], [ 2.288089483302901, 48.827115964477933 ], [ 2.288047751063352, 48.827115391817465 ], [ 2.288046242172135, 48.827153965622692 ], [ 2.287949524523295, 48.827152417122718 ], [ 2.287947688372062, 48.827178992648683 ] ] ] } },
{ "type": "Feature", "properties": { "fid": 181, "type": "technical zone", "nom": null }, "geometry": { "type": "Polygon", "coordinates": [ [ [ 2.287786953548566, 48.827147992798189 ], [ 2.287928415880384, 48.827151286726789 ], [ 2.287930192878254, 48.827111800224046 ], [ 2.287787879559234, 48.827110407984613 ], [ 2.287786953548566, 48.827147992798189 ] ] ] } },
{ "type": "Feature", "properties": { "fid": 182, "type": "technical zone", "nom": null }, "geometry": { "type": "Polygon", "coordinates": [ [ [ 2.287949859702002, 48.82715195919404 ], [ 2.288046371784386, 48.82715389576299 ], [ 2.288048126375682, 48.827116043487813 ], [ 2.287951621803419, 48.827113562177139 ], [ 2.287949859702002, 48.82715195919404 ] ] ] } },
{ "type": "Feature", "properties": { "fid": 183, "type": "technical zone", "nom": null }, "geometry": { "type": "Polygon", "coordinates": [ [ [ 2.289286555874242, 48.827181565796771 ], [ 2.289358320298641, 48.827183081837575 ], [ 2.28936009992731, 48.827143322943165 ], [ 2.289288320705279, 48.82714289638961 ], [ 2.289286555874242, 48.827181565796771 ] ] ] } },
{ "type": "Feature", "properties": { "fid": 184, "type": "technical zone", "nom": null }, "geometry": { "type": "Polygon", "coordinates": [ [ [ 2.289379767864378, 48.827183481676883 ], [ 2.289521639205851, 48.827187048543635 ], [ 2.289523407574561, 48.827148106761634 ], [ 2.28938111638947, 48.827145082188729 ], [ 2.289379767864378, 48.827183481676883 ] ] ] } },
{ "type": "Feature", "properties": { "fid": 185, "type": "technical zone", "nom": null }, "geometry": { "type": "Polygon", "coordinates": [ [ [ 2.289542681673351, 48.827186901159813 ], [ 2.289722501592998, 48.827190965618534 ], [ 2.289717672530682, 48.827303163098676 ], [ 2.289781186623706, 48.827304629883308 ], [ 2.289789021293997, 48.827153497964609 ], [ 2.28954363611294, 48.827147137361372 ], [ 2.289542681673351, 48.827186901159813 ] ] ] } },
{ "type": "Feature", "properties": { "fid": 186, "type": "technical zone", "nom": null }, "geometry": { "type": "Polygon", "coordinates": [ [ [ 2.289711197052721, 48.827415078395383 ], [ 2.289775952571802, 48.827416280161501 ], [ 2.28978059228282, 48.827317973638969 ], [ 2.289715829464023, 48.827317316618341 ], [ 2.289711197052721, 48.827415078395383 ] ] ] } },
{ "type": "Feature", "properties": { "fid": 187, "type": "escaliers", "nom": null }, "geometry": { "type": "Polygon", "coordinates": [ [ [ 2.287448444477, 48.828052738085987 ], [ 2.287919114880812, 48.8280635257629 ], [ 2.287923727929608, 48.827961886771185 ], [ 2.287440174950562, 48.827949957778905 ], [ 2.287438532228461, 48.828011160785593 ], [ 2.287452236413163, 48.828011242437654 ], [ 2.287448444477, 48.828052738085987 ] ] ] } },
{ "type": "Feature", "properties": { "fid": 188, "type": "escaliers", "nom": null }, "geometry": { "type": "Polygon", "coordinates": [ [ [ 2.287917015541056, 48.82809917636412 ], [ 2.288001666452015, 48.828099148080078 ], [ 2.288004456286358, 48.828012934503384 ], [ 2.287922252980357, 48.828010848221631 ], [ 2.287917015541056, 48.82809917636412 ] ] ] } },
{ "type": "Feature", "properties": { "fid": 189, "type": null, "nom": null }, "geometry": { "type": "Polygon", "coordinates": [ [ [ 2.288022277634311, 48.828065736827057 ], [ 2.288117415441151, 48.828065238608062 ], [ 2.288117706153851, 48.828043948934848 ], [ 2.288269236624726, 48.828046447688088 ], [ 2.288269534541584, 48.828024625772279 ], [ 2.288024515007256, 48.828019973627995 ], [ 2.288022277634311, 48.828065736827057 ] ] ] } },
{ "type": "Feature", "properties": { "fid": 190, "type": "escaliers", "nom": null }, "geometry": { "type": "Polygon", "coordinates": [ [ [ 2.288025321135958, 48.828019978427157 ], [ 2.288269534541584, 48.828024625772279 ], [ 2.288270159439551, 48.82797885297191 ], [ 2.288027587579168, 48.827972086258704 ], [ 2.288025321135958, 48.828019978427157 ] ] ] } },
{ "type": "Feature", "properties": { "fid": 191, "type": "sas", "nom": null }, "geometry": { "type": "Polygon", "coordinates": [ [ [ 2.288238253998321, 48.828189980262316 ], [ 2.288423620624288, 48.828194277044254 ], [ 2.288425937561959, 48.828142659183065 ], [ 2.288240563852759, 48.828138894646287 ], [ 2.288238253998321, 48.828189980262316 ] ] ] } },
{ "type": "Feature", "properties": { "fid": 192, "type": "escaliers", "nom": null }, "geometry": { "type": "Polygon", "coordinates": [ [ [ 2.288472555119117, 48.82815304996253 ], [ 2.288748999901062, 48.828158952652828 ], [ 2.288752173353842, 48.828044530244355 ], [ 2.28847893916614, 48.828039711228932 ], [ 2.288472555119117, 48.82815304996253 ] ] ] } },
{ "type": "Feature", "properties": { "fid": 193, "type": "sas", "nom": null }, "geometry": { "type": "Polygon", "coordinates": [ [ [ 2.28879274170468, 48.828202860158257 ], [ 2.288976503417839, 48.828206614253467 ], [ 2.288978028195871, 48.828153927105731 ], [ 2.288795051016354, 48.828151774532124 ], [ 2.28879274170468, 48.828202860158257 ] ] ] } },
{ "type": "Feature", "properties": { "fid": 194, "type": "restaurant", "nom": null }, "geometry": { "type": "Polygon", "coordinates": [ [ [ 2.289012539390396, 48.828165310266662 ], [ 2.289305942075584, 48.828169183343483 ], [ 2.289309324720509, 48.828039325906005 ], [ 2.289205334065497, 48.828038707886499 ], [ 2.28920330817364, 48.828069036092188 ], [ 2.289017143057872, 48.828064203483891 ], [ 2.289012539390396, 48.828165310266662 ] ] ] } },
{ "type": "Feature", "properties": { "fid": 195, "type": "escaliers", "nom": null }, "geometry": { "type": "Polygon", "coordinates": [ [ [ 2.288958310124991, 48.828062789135508 ], [ 2.289202502044072, 48.828069031300963 ], [ 2.289206706216896, 48.827997197808401 ], [ 2.288963298984585, 48.827992557169686 ], [ 2.288958310124991, 48.828062789135508 ] ] ] } },
{ "type": "Feature", "properties": { "fid": 196, "type": "escaliers", "nom": null }, "geometry": { "type": "Polygon", "coordinates": [ [ [ 2.289205341322205, 48.828038175644593 ], [ 2.289310123593986, 48.828039862938418 ], [ 2.289309361750913, 48.828095748337546 ], [ 2.289778435169258, 48.828105454631903 ], [ 2.289779864872891, 48.828059686614282 ], [ 2.289792777445961, 48.828058698726956 ], [ 2.289793531519597, 48.828003345564845 ], [ 2.2892978567796, 48.827993481242764 ], [ 2.289297769710477, 48.827999868145916 ], [ 2.289206713473586, 48.827996665566481 ], [ 2.289205341322205, 48.828038175644593 ] ] ] } },
{ "type": "Feature", "properties": { "fid": 197, "type": "escaliers", "nom": null }, "geometry": { "type": "Polygon", "coordinates": [ [ [ 2.287970880085781, 48.827047701262472 ], [ 2.288233593216189, 48.827055120284143 ], [ 2.28824414672456, 48.826872609133481 ], [ 2.288078095133821, 48.826871088453061 ], [ 2.288074099624126, 48.826986570649161 ], [ 2.28797335734187, 48.826984374026104 ], [ 2.287969260589267, 48.82704822390572 ], [ 2.287970880085781, 48.827047701262472 ] ] ] } },
{ "type": "Feature", "properties": { "fid": 198, "type": "escaliers", "nom": null }, "geometry": { "type": "Polygon", "coordinates": [ [ [ 2.289096752482678, 48.827074093863239 ], [ 2.289357105603541, 48.827077238102028 ], [ 2.289359581177234, 48.827013910838623 ], [ 2.289262854842162, 48.827012803737432 ], [ 2.289269287822802, 48.826895739149322 ], [ 2.289104056755069, 48.826893160199319 ], [ 2.289096752482678, 48.827074093863239 ] ] ] } }
]
}
