{
"type": "FeatureCollection",
"name": "73",
"crs": { "type": "name", "properties": { "name": "urn:ogc:def:crs:OGC:1.3:CRS84" } },
"features": [
{ "type": "Feature", "properties": { "fid": 1 }, "geometry": { "type": "Polygon", "coordinates": [ [ [ 2.287848680740865, 48.827664639045864 ], [ 2.28783792549545, 48.827927095684807 ], [ 2.287417605889866, 48.827919427638804 ], [ 2.287428345604266, 48.827658262016307 ], [ 2.287848680740865, 48.827664639045864 ] ] ] } },
{ "type": "Feature", "properties": { "fid": 2 }, "geometry": { "type": "Polygon", "coordinates": [ [ [ 2.287747344592708, 48.827663067246903 ], [ 2.287891363967384, 48.827665431162892 ], [ 2.28789309070983, 48.827634455392818 ], [ 2.287748757296912, 48.827631228884314 ], [ 2.287747344592708, 48.827663067246903 ] ] ] } },
{ "type": "Feature", "properties": { "fid": 3 }, "geometry": { "type": "Polygon", "coordinates": [ [ [ 2.287849333974932, 48.827664535345328 ], [ 2.287891689849635, 48.827665433103363 ], [ 2.287881493239111, 48.827887008706355 ], [ 2.287839791891039, 48.827885899662739 ], [ 2.287849333974932, 48.827664535345328 ] ] ] } },
{ "type": "Feature", "properties": { "fid": 4 }, "geometry": { "type": "Polygon", "coordinates": [ [ [ 2.287921514208992, 48.827773192331193 ], [ 2.288020593678254, 48.827774514645256 ], [ 2.288025921628633, 48.827628063750112 ], [ 2.287926852440515, 48.827626009086728 ], [ 2.287921514208992, 48.827773192331193 ] ] ] } },
{ "type": "Feature", "properties": { "fid": 5 }, "geometry": { "type": "Polygon", "coordinates": [ [ [ 2.288054602800317, 48.827775205385763 ], [ 2.288248677988539, 48.827779046095145 ], [ 2.288252442626639, 48.827692887900383 ], [ 2.288162337475915, 48.827630096495589 ], [ 2.28806030705843, 48.827628268454554 ], [ 2.288054602800317, 48.827775205385763 ] ] ] } },
{ "type": "Feature", "properties": { "fid": 6 }, "geometry": { "type": "Polygon", "coordinates": [ [ [ 2.287915876610972, 48.827888147604028 ], [ 2.288243787252372, 48.827893517548205 ], [ 2.288247635227535, 48.827801256416691 ], [ 2.287920094903019, 48.827795888684136 ], [ 2.287915876610972, 48.827888147604028 ] ] ] } },
{ "type": "Feature", "properties": { "fid": 7 }, "geometry": { "type": "Polygon", "coordinates": [ [ [ 2.28753175157277, 48.827659559623349 ], [ 2.287672847458368, 48.82766201064716 ], [ 2.287674335992538, 48.827629578883226 ], [ 2.287532882323629, 48.827627815955303 ], [ 2.28753175157277, 48.827659559623349 ] ] ] } },
{ "type": "Feature", "properties": { "fid": 8 }, "geometry": { "type": "Polygon", "coordinates": [ [ [ 2.287493779678278, 48.82758225814036 ], [ 2.287534543863436, 48.827582731074948 ], [ 2.287535856961957, 48.827537644116958 ], [ 2.287496134983107, 48.827537407467297 ], [ 2.287493779678278, 48.82758225814036 ] ] ] } },
{ "type": "Feature", "properties": { "fid": 9 }, "geometry": { "type": "Polygon", "coordinates": [ [ [ 2.287570084612393, 48.827582942803325 ], [ 2.287716403730335, 48.827585654968232 ], [ 2.287719883191879, 48.827509520731105 ], [ 2.287573209561591, 48.827507266607967 ], [ 2.287570084612393, 48.827582942803325 ] ] ] } },
{ "type": "Feature", "properties": { "fid": 10 }, "geometry": { "type": "Polygon", "coordinates": [ [ [ 2.287497494713507, 48.827514408026303 ], [ 2.287538258845649, 48.827514880959647 ], [ 2.287539223501288, 48.827469791923072 ], [ 2.28749881098649, 48.827469091009263 ], [ 2.287497494713507, 48.827514408026303 ] ] ] } },
{ "type": "Feature", "properties": { "fid": 11 }, "geometry": { "type": "Polygon", "coordinates": [ [ [ 2.287751235032396, 48.82758678271891 ], [ 2.287825097762505, 48.82758768274951 ], [ 2.287828922361018, 48.827511780641025 ], [ 2.28775401756667, 48.827510644330495 ], [ 2.287751235032396, 48.82758678271891 ] ] ] } },
{ "type": "Feature", "properties": { "fid": 12 }, "geometry": { "type": "Polygon", "coordinates": [ [ [ 2.28757489130795, 48.827483692009551 ], [ 2.287721219834712, 48.827485695141604 ], [ 2.287725402335544, 48.827380262525857 ], [ 2.287579080289032, 48.82737780682816 ], [ 2.28757489130795, 48.827483692009551 ] ] ] } },
{ "type": "Feature", "properties": { "fid": 13 }, "geometry": { "type": "Polygon", "coordinates": [ [ [ 2.287501363501745, 48.827446592769661 ], [ 2.287541465502122, 48.827446605378285 ], [ 2.287541728888943, 48.827402251420004 ], [ 2.287501975833261, 48.827401788282771 ], [ 2.287501363501745, 48.827446592769661 ] ] ] } },
{ "type": "Feature", "properties": { "fid": 14 }, "geometry": { "type": "Polygon", "coordinates": [ [ [ 2.287504004902665, 48.827378717392165 ], [ 2.287544443391305, 48.827379184612248 ], [ 2.287545401502368, 48.827334155878894 ], [ 2.287504963048643, 48.827333688659117 ], [ 2.287504004902665, 48.827378717392165 ] ] ] } },
{ "type": "Feature", "properties": { "fid": 15 }, "geometry": { "type": "Polygon", "coordinates": [ [ [ 2.287580816074047, 48.827351113329222 ], [ 2.287727490045626, 48.827352892210186 ], [ 2.287731301974531, 48.827249494108479 ], [ 2.287584634478141, 48.827247262661388 ], [ 2.287581161891365, 48.827350889085587 ], [ 2.287580816074047, 48.827351113329222 ] ] ] } },
{ "type": "Feature", "properties": { "fid": 16 }, "geometry": { "type": "Polygon", "coordinates": [ [ [ 2.287506646296707, 48.827310842010505 ], [ 2.287547773274741, 48.827311087027915 ], [ 2.287547693930984, 48.827266731022519 ], [ 2.28750759825406, 48.827266265845353 ], [ 2.287506646296707, 48.827310842010505 ] ] ] } },
{ "type": "Feature", "properties": { "fid": 17 }, "geometry": { "type": "Polygon", "coordinates": [ [ [ 2.287509278406251, 48.827243645480642 ], [ 2.287550748055666, 48.827243892538924 ], [ 2.287552105072094, 48.827169672991616 ], [ 2.287512012562298, 48.827168981530541 ], [ 2.287509278406251, 48.827243645480642 ] ] ] } },
{ "type": "Feature", "properties": { "fid": 18 }, "geometry": { "type": "Polygon", "coordinates": [ [ [ 2.28758666041275, 48.827224418051522 ], [ 2.28773263930485, 48.827226871699068 ], [ 2.2877340605454, 48.827173019870934 ], [ 2.287587732895732, 48.827171016754043 ], [ 2.28758666041275, 48.827224418051522 ] ] ] } },
{ "type": "Feature", "properties": { "fid": 19 }, "geometry": { "type": "Polygon", "coordinates": [ [ [ 2.287513343800672, 48.827146811692664 ], [ 2.287712098839599, 48.827149806084336 ], [ 2.287712466746211, 48.827122878127589 ], [ 2.28751372108746, 48.827119204880404 ], [ 2.287513343800672, 48.827146811692664 ] ] ] } },
{ "type": "Feature", "properties": { "fid": 20 }, "geometry": { "type": "Polygon", "coordinates": [ [ [ 2.287766951256597, 48.82722748698486 ], [ 2.287927042323523, 48.827230451437529 ], [ 2.287933053569734, 48.827077067248176 ], [ 2.287772962973459, 48.827074102803138 ], [ 2.287766951256597, 48.82722748698486 ] ] ] } },
{ "type": "Feature", "properties": { "fid": 21 }, "geometry": { "type": "Polygon", "coordinates": [ [ [ 2.287451533403334, 48.827117590467374 ], [ 2.287717540277541, 48.82712266685045 ], [ 2.287729475848902, 48.826853873449622 ], [ 2.287463127914362, 48.826849667988412 ], [ 2.287451533403334, 48.827117590467374 ] ] ] } },
{ "type": "Feature", "properties": { "fid": 22 }, "geometry": { "type": "Polygon", "coordinates": [ [ [ 2.287774761670293, 48.827047171283532 ], [ 2.287935037325925, 48.827049435109942 ], [ 2.287940416412299, 48.826921800155503 ], [ 2.287779810647484, 48.82691953436774 ], [ 2.287774761670293, 48.827047171283532 ] ] ] } },
{ "type": "Feature", "properties": { "fid": 23 }, "geometry": { "type": "Polygon", "coordinates": [ [ [ 2.28778112560171, 48.82689586379071 ], [ 2.287942064775295, 48.82689791332816 ], [ 2.287943453002026, 48.826844672453895 ], [ 2.287782525917129, 48.826841750052459 ], [ 2.28778112560171, 48.82689586379071 ] ] ] } },
{ "type": "Feature", "properties": { "fid": 24 }, "geometry": { "type": "Polygon", "coordinates": [ [ [ 2.287530503485278, 48.826756714316588 ], [ 2.287528982680746, 48.826800349151938 ], [ 2.288202310505967, 48.826812293947256 ], [ 2.288204276287964, 48.826769882563845 ], [ 2.287530503485278, 48.826756714316588 ] ] ] } },
{ "type": "Feature", "properties": { "fid": 25 }, "geometry": { "type": "Polygon", "coordinates": [ [ [ 2.287469500508672, 48.826755740464165 ], [ 2.287480511944522, 48.826491195840156 ], [ 2.288020266931794, 48.826501735372311 ], [ 2.28800926240027, 48.826765974866262 ], [ 2.287469500508672, 48.826755740464165 ] ] ] } },
{ "type": "Feature", "properties": { "fid": 26 }, "geometry": { "type": "Polygon", "coordinates": [ [ [ 2.28801762942835, 48.826574822120378 ], [ 2.288084936145574, 48.826575769317181 ], [ 2.2880853042724, 48.826548810820199 ], [ 2.288018278442765, 48.826547500962022 ], [ 2.28801762942835, 48.826574822120378 ] ] ] } },
{ "type": "Feature", "properties": { "fid": 27 }, "geometry": { "type": "Polygon", "coordinates": [ [ [ 2.288016433632575, 48.826601775689198 ], [ 2.288084016262504, 48.826602724528939 ], [ 2.288084938632919, 48.826575587165181 ], [ 2.288017077672788, 48.826574818835475 ], [ 2.288016433632575, 48.826601775689198 ] ] ] } },
{ "type": "Feature", "properties": { "fid": 28 }, "geometry": { "type": "Polygon", "coordinates": [ [ [ 2.288111835577215, 48.826565728105216 ], [ 2.288152387117569, 48.826566151659733 ], [ 2.28815410742997, 48.826520984529509 ], [ 2.288113280047235, 48.826520559333339 ], [ 2.288111835577215, 48.826565728105216 ] ] ] } },
{ "type": "Feature", "properties": { "fid": 29 }, "geometry": { "type": "Polygon", "coordinates": [ [ [ 2.288152389604678, 48.826565969507719 ], [ 2.288193217023292, 48.826566394690516 ], [ 2.28819521317783, 48.826521229201788 ], [ 2.288154656697872, 48.826521169965808 ], [ 2.288152389604678, 48.826565969507719 ] ] ] } },
{ "type": "Feature", "properties": { "fid": 30 }, "geometry": { "type": "Polygon", "coordinates": [ [ [ 2.28821981303079, 48.826578575999172 ], [ 2.288286843878718, 48.826579521440337 ], [ 2.288287482805569, 48.82655292888866 ], [ 2.288219353454899, 48.826551612575841 ], [ 2.28821981303079, 48.826578575999172 ] ] ] } },
{ "type": "Feature", "properties": { "fid": 31 }, "geometry": { "type": "Polygon", "coordinates": [ [ [ 2.288111835577215, 48.826565728105201 ], [ 2.288152387117569, 48.826566151659705 ], [ 2.288150388437092, 48.826611499297933 ], [ 2.288109290080052, 48.82661070815427 ], [ 2.288111835577215, 48.826565728105201 ] ] ] } },
{ "type": "Feature", "properties": { "fid": 32 }, "geometry": { "type": "Polygon", "coordinates": [ [ [ 2.288150385949975, 48.826611681449911 ], [ 2.288190944987313, 48.826611558535333 ], [ 2.288192941145549, 48.826566393048445 ], [ 2.288152662995309, 48.826566153301854 ], [ 2.288150385949975, 48.826611681449911 ] ] ] } },
{ "type": "Feature", "properties": { "fid": 33 }, "geometry": { "type": "Polygon", "coordinates": [ [ [ 2.288220088908596, 48.826578577641158 ], [ 2.288286568000901, 48.826579519798507 ], [ 2.288284477430575, 48.826631607062417 ], [ 2.288216897246445, 48.826630476183965 ], [ 2.288220088908596, 48.826578577641158 ] ] ] } },
{ "type": "Feature", "properties": { "fid": 34 }, "geometry": { "type": "Polygon", "coordinates": [ [ [ 2.288150661827954, 48.826611683092068 ], [ 2.288190944987311, 48.826611558535333 ], [ 2.28818922719082, 48.826656543510424 ], [ 2.288148678066984, 48.826655937816469 ], [ 2.288150661827954, 48.826611683092068 ] ] ] } },
{ "type": "Feature", "properties": { "fid": 35 }, "geometry": { "type": "Polygon", "coordinates": [ [ [ 2.28810983934874, 48.826610893590761 ], [ 2.288150937705935, 48.82661168473421 ], [ 2.288148404675898, 48.826655754022298 ], [ 2.288107577187672, 48.826655328824245 ], [ 2.28810983934874, 48.826610893590761 ] ] ] } },
{ "type": "Feature", "properties": { "fid": 36 }, "geometry": { "type": "Polygon", "coordinates": [ [ [ 2.288016433632574, 48.826601775689177 ], [ 2.288084016262502, 48.826602724528918 ], [ 2.288083638185222, 48.826630411632621 ], [ 2.28801523534797, 48.826628911409287 ], [ 2.288016433632574, 48.826601775689177 ] ] ] } },
{ "type": "Feature", "properties": { "fid": 37 }, "geometry": { "type": "Polygon", "coordinates": [ [ [ 2.288015508738448, 48.826629095203742 ], [ 2.288083638185222, 48.826630411632621 ], [ 2.288081895640574, 48.826656997612112 ], [ 2.28801403706212, 48.826656047128751 ], [ 2.288015508738448, 48.826629095203742 ] ] ] } },
{ "type": "Feature", "properties": { "fid": 38 }, "geometry": { "type": "Polygon", "coordinates": [ [ [ 2.288217170637641, 48.826630659977965 ], [ 2.288284753308664, 48.826631608704261 ], [ 2.28828236447613, 48.826685333691799 ], [ 2.288214227491874, 48.826684563832181 ], [ 2.288217170637641, 48.826630659977965 ] ] ] } },
{ "type": "Feature", "properties": { "fid": 39 }, "geometry": { "type": "Polygon", "coordinates": [ [ [ 2.288148678066984, 48.826655937816469 ], [ 2.288189229677803, 48.826656361358438 ], [ 2.288187499443394, 48.82670225709164 ], [ 2.288146947796892, 48.826701833549087 ], [ 2.288148678066984, 48.826655937816469 ] ] ] } },
{ "type": "Feature", "properties": { "fid": 40 }, "geometry": { "type": "Polygon", "coordinates": [ [ [ 2.288107853065881, 48.826655330466494 ], [ 2.288148402188769, 48.826655936174305 ], [ 2.288146950284026, 48.826701651397109 ], [ 2.288105571002963, 48.826701222914053 ], [ 2.288107853065881, 48.826655330466494 ] ] ] } },
{ "type": "Feature", "properties": { "fid": 41 }, "geometry": { "type": "Polygon", "coordinates": [ [ [ 2.288014315427925, 48.82665586661922 ], [ 2.288081898127932, 48.826656815460126 ], [ 2.28808063520465, 48.826688687131238 ], [ 2.288012503194197, 48.826687552852718 ], [ 2.288014315427925, 48.82665586661922 ] ] ] } },
{ "type": "Feature", "properties": { "fid": 42 }, "geometry": { "type": "Polygon", "coordinates": [ [ [ 2.288214779248611, 48.826684567116196 ], [ 2.288282091084418, 48.826685149897962 ], [ 2.288280241570651, 48.82673978892651 ], [ 2.288212658759477, 48.82673884019777 ], [ 2.288214779248611, 48.826684567116196 ] ] ] } },
{ "type": "Feature", "properties": { "fid": 43 }, "geometry": { "type": "Polygon", "coordinates": [ [ [ 2.288146950284026, 48.826701651397109 ], [ 2.28818750441738, 48.826701892787675 ], [ 2.288186057519642, 48.826747243705121 ], [ 2.288144675714929, 48.826746997387588 ], [ 2.288146950284026, 48.826701651397109 ] ] ] } },
{ "type": "Feature", "properties": { "fid": 44 }, "geometry": { "type": "Polygon", "coordinates": [ [ [ 2.288105849368695, 48.826701042404324 ], [ 2.288146950284026, 48.826701651397109 ], [ 2.288144956567912, 48.826746634725801 ], [ 2.28810330385976, 48.826746022447836 ], [ 2.288105849368695, 48.826701042404324 ] ] ] } },
{ "type": "Feature", "properties": { "fid": 45 }, "geometry": { "type": "Polygon", "coordinates": [ [ [ 2.288012503194197, 48.826687552852718 ], [ 2.288080913570401, 48.826688506621551 ], [ 2.288079344699099, 48.826742782985185 ], [ 2.2880103874696, 48.826741461626582 ], [ 2.288012503194197, 48.826687552852718 ] ] ] } },
{ "type": "Feature", "properties": { "fid": 46 }, "geometry": { "type": "Polygon", "coordinates": [ [ [ 2.288411873204704, 48.826568053611595 ], [ 2.288984651586916, 48.826578512230711 ], [ 2.288973643858507, 48.826826267233542 ], [ 2.288400855881987, 48.826816312223173 ], [ 2.288411873204704, 48.826568053611595 ] ] ] } },
{ "type": "Feature", "properties": { "fid": 47 }, "geometry": { "type": "Polygon", "coordinates": [ [ [ 2.289100821311926, 48.826786727301595 ], [ 2.28936929236449, 48.826791345123269 ], [ 2.289380517888905, 48.826527472976849 ], [ 2.289110529431869, 48.826522342450957 ], [ 2.289100821311926, 48.826786727301595 ] ] ] } },
{ "type": "Feature", "properties": { "fid": 48 }, "geometry": { "type": "Polygon", "coordinates": [ [ [ 2.289370062048676, 48.826790845996868 ], [ 2.28963927537739, 48.826796978722989 ], [ 2.289650513261575, 48.826532099233816 ], [ 2.289379768804054, 48.826526461125333 ], [ 2.289370062048676, 48.826790845996868 ] ] ] } },
{ "type": "Feature", "properties": { "fid": 49 }, "geometry": { "type": "Polygon", "coordinates": [ [ [ 2.289190827070393, 48.826787766005879 ], [ 2.289543943588038, 48.826794901315658 ], [ 2.28954182768169, 48.826838206946952 ], [ 2.289190999329549, 48.826831085233216 ], [ 2.289190827070393, 48.826787766005879 ] ] ] } },
{ "type": "Feature", "properties": { "fid": 50 }, "geometry": { "type": "Polygon", "coordinates": [ [ [ 2.289650513261574, 48.826532099233816 ], [ 2.289920501822264, 48.826537228540602 ], [ 2.289910811527027, 48.826800606134931 ], [ 2.289640038196437, 48.826796983254113 ], [ 2.289650513261574, 48.826532099233816 ] ] ] } },
{ "type": "Feature", "properties": { "fid": 51 }, "geometry": { "type": "Polygon", "coordinates": [ [ [ 2.28942731856477, 48.826873282445064 ], [ 2.289588162816421, 48.826876334606325 ], [ 2.289586371226229, 48.826930136018255 ], [ 2.289425522046474, 48.826927433255349 ], [ 2.28942731856477, 48.826873282445064 ] ] ] } },
{ "type": "Feature", "properties": { "fid": 52 }, "geometry": { "type": "Polygon", "coordinates": [ [ [ 2.289423620176283, 48.826950484263755 ], [ 2.289583945000512, 48.826952834484928 ], [ 2.289579542180009, 48.827081747591123 ], [ 2.28941869729514, 48.827078695418834 ], [ 2.289423620176283, 48.826950484263755 ] ] ] } },
{ "type": "Feature", "properties": { "fid": 53 }, "geometry": { "type": "Polygon", "coordinates": [ [ [ 2.28964089107893, 48.826890624978994 ], [ 2.289907558545412, 48.826895353535647 ], [ 2.289899896669287, 48.827069323628251 ], [ 2.28963323307451, 48.82706424565464 ], [ 2.28964089107893, 48.826890624978994 ] ] ] } },
{ "type": "Feature", "properties": { "fid": 54 }, "geometry": { "type": "Polygon", "coordinates": [ [ [ 2.289672652093065, 48.827064692027491 ], [ 2.289836031883233, 48.827068114688714 ], [ 2.289831178838953, 48.827185798682898 ], [ 2.289747163365637, 48.827184380110261 ], [ 2.289668985432457, 48.827129350990063 ], [ 2.289672652093065, 48.827064692027491 ] ] ] } },
{ "type": "Feature", "properties": { "fid": 55 }, "geometry": { "type": "Polygon", "coordinates": [ [ [ 2.289417202515569, 48.82710578405743 ], [ 2.289578269559457, 48.827108580240505 ], [ 2.289571534498464, 48.827262118663398 ], [ 2.289410471158474, 48.827259015952698 ], [ 2.289417202515569, 48.82710578405743 ] ] ] } },
{ "type": "Feature", "properties": { "fid": 56 }, "geometry": { "type": "Polygon", "coordinates": [ [ [ 2.289150781735693, 48.827100215671059 ], [ 2.289376821785741, 48.827104931028636 ], [ 2.289369626066348, 48.827258160163154 ], [ 2.289144045416829, 48.827253754071059 ], [ 2.289150781735693, 48.827100215671059 ] ] ] } },
{ "type": "Feature", "properties": { "fid": 57 }, "geometry": { "type": "Polygon", "coordinates": [ [ [ 2.289603358205937, 48.827303310977513 ], [ 2.289750133880548, 48.82730551665346 ], [ 2.289746271418896, 48.827391307025366 ], [ 2.289599158819244, 48.827389099344877 ], [ 2.289603358205937, 48.827303310977513 ] ] ] } },
{ "type": "Feature", "properties": { "fid": 58 }, "geometry": { "type": "Polygon", "coordinates": [ [ [ 2.289784126765118, 48.827306607789353 ], [ 2.289825199081987, 48.827307074013213 ], [ 2.289825275344116, 48.827326193494329 ], [ 2.289783195990681, 48.827325498975803 ], [ 2.289784126765118, 48.827306607789353 ] ] ] } },
{ "type": "Feature", "properties": { "fid": 59 }, "geometry": { "type": "Polygon", "coordinates": [ [ [ 2.289783535702287, 48.827325278678984 ], [ 2.289824941688986, 48.827325969198689 ], [ 2.289824687323954, 48.827344642087532 ], [ 2.289782938582366, 48.827344394160875 ], [ 2.289783535702287, 48.827325278678984 ] ] ] } },
{ "type": "Feature", "properties": { "fid": 60 }, "geometry": { "type": "Polygon", "coordinates": [ [ [ 2.289783278294097, 48.827344173864049 ], [ 2.289824687323954, 48.827344642087532 ], [ 2.28982341685185, 48.827363753570594 ], [ 2.289783023914054, 48.827362846752486 ], [ 2.289783278294097, 48.827344173864049 ] ] ] } },
{ "type": "Feature", "properties": { "fid": 61 }, "geometry": { "type": "Polygon", "coordinates": [ [ [ 2.289780355209761, 48.827385729273757 ], [ 2.289822100956269, 48.82738619949761 ], [ 2.289819369787188, 48.827463104013006 ], [ 2.289776953639168, 48.827462407492987 ], [ 2.289780355209761, 48.827385729273757 ] ] ] } },
{ "type": "Feature", "properties": { "fid": 62 }, "geometry": { "type": "Polygon", "coordinates": [ [ [ 2.289597782243922, 48.827415991194393 ], [ 2.289744885833897, 48.827418865765353 ], [ 2.289740753816629, 48.827524440495417 ], [ 2.289593304156999, 48.827522230808391 ], [ 2.289597782243922, 48.827415991194393 ] ] ] } },
{ "type": "Feature", "properties": { "fid": 63 }, "geometry": { "type": "Polygon", "coordinates": [ [ [ 2.289775965320281, 48.827485522305793 ], [ 2.289817714174851, 48.82748577023488 ], [ 2.289815043558283, 48.827558228818312 ], [ 2.289773306759253, 48.827557091703326 ], [ 2.289775965320281, 48.827485522305793 ] ] ] } },
{ "type": "Feature", "properties": { "fid": 64 }, "geometry": { "type": "Polygon", "coordinates": [ [ [ 2.289772318436956, 48.827580206514149 ], [ 2.28981372765419, 48.827580674741341 ], [ 2.28981244561169, 48.827625352287328 ], [ 2.289770699673775, 48.827624882060213 ], [ 2.289772318436956, 48.827580206514149 ] ] ] } },
{ "type": "Feature", "properties": { "fid": 65 }, "geometry": { "type": "Polygon", "coordinates": [ [ [ 2.289589939099404, 48.827620918340301 ], [ 2.289736039268664, 48.827623342329133 ], [ 2.289739089082566, 48.827547773603733 ], [ 2.289592318784714, 48.827545123322203 ], [ 2.289589939099404, 48.827620918340301 ] ] ] } },
{ "type": "Feature", "properties": { "fid": 66 }, "geometry": { "type": "Polygon", "coordinates": [ [ [ 2.289480871281342, 48.827618936509872 ], [ 2.289555269614306, 48.827620045445535 ], [ 2.289556972951308, 48.827544468724113 ], [ 2.289483581750554, 48.82754358808662 ], [ 2.289480871281342, 48.827618936509872 ] ] ] } },
{ "type": "Feature", "properties": { "fid": 67 }, "geometry": { "type": "Polygon", "coordinates": [ [ [ 2.289395025656471, 48.827617759509465 ], [ 2.289445528429084, 48.827618059582647 ], [ 2.289447914383759, 48.827541819974741 ], [ 2.289397745339653, 48.827541744199337 ], [ 2.289395025656471, 48.827617759509465 ] ] ] } },
{ "type": "Feature", "properties": { "fid": 68 }, "geometry": { "type": "Polygon", "coordinates": [ [ [ 2.289559314165131, 48.827520917322225 ], [ 2.289563783233386, 48.827415344598172 ], [ 2.289403885678045, 48.827412393784819 ], [ 2.289399073541784, 48.82751840909512 ], [ 2.289559314165131, 48.827520917322225 ] ] ] } },
{ "type": "Feature", "properties": { "fid": 69 }, "geometry": { "type": "Polygon", "coordinates": [ [ [ 2.289405263868257, 48.827385390789289 ], [ 2.289565840766732, 48.827387901008478 ], [ 2.289569269468986, 48.82728454523447 ], [ 2.289409369284566, 48.827281816724408 ], [ 2.289405263868257, 48.827385390789289 ] ] ] } },
{ "type": "Feature", "properties": { "fid": 70 }, "geometry": { "type": "Polygon", "coordinates": [ [ [ 2.289141355423935, 48.827380043045487 ], [ 2.289363866930291, 48.827384033235496 ], [ 2.289368306081607, 48.827280683468842 ], [ 2.289146140792077, 48.827276028399098 ], [ 2.28906597427614, 48.827327573405583 ], [ 2.289141355423935, 48.827380043045487 ] ] ] } },
{ "type": "Feature", "properties": { "fid": 71 }, "geometry": { "type": "Polygon", "coordinates": [ [ [ 2.288380276092181, 48.827298754257725 ], [ 2.288582289165676, 48.827302473390255 ], [ 2.288717513952945, 48.827218111311048 ], [ 2.288844656634514, 48.827306970637082 ], [ 2.28895265798509, 48.827308451903633 ], [ 2.288957099292934, 48.827215760187393 ], [ 2.288382818038679, 48.827205631714797 ], [ 2.288380276092181, 48.827298754257725 ] ] ] } },
{ "type": "Feature", "properties": { "fid": 72 }, "geometry": { "type": "Polygon", "coordinates": [ [ [ 2.288650863253192, 48.82725966878202 ], [ 2.288713804887851, 48.827303675212669 ], [ 2.288781090962507, 48.827262121486854 ], [ 2.288716872861206, 48.82721852703709 ], [ 2.288650863253192, 48.82725966878202 ] ] ] } },
{ "type": "Feature", "properties": { "fid": 73 }, "geometry": { "type": "Polygon", "coordinates": [ [ [ 2.289064453648127, 48.827218076585446 ], [ 2.28908006588596, 48.826865337017743 ], [ 2.288291081310952, 48.826850575235483 ], [ 2.288276734475524, 48.827203322267401 ], [ 2.289064453648127, 48.827218076585446 ] ] ] } },
{ "type": "Feature", "properties": { "fid": 74 }, "geometry": { "type": "Polygon", "coordinates": [ [ [ 2.287755623330643, 48.827487289418663 ], [ 2.287915722623091, 48.827489291654722 ], [ 2.287919387496342, 48.827383799417696 ], [ 2.287759932494679, 48.827381171713029 ], [ 2.287755623330643, 48.827487289418663 ] ] ] } },
{ "type": "Feature", "properties": { "fid": 75 }, "geometry": { "type": "Polygon", "coordinates": [ [ [ 2.287860357942326, 48.82758839271812 ], [ 2.287911499717029, 48.827589116783386 ], [ 2.287913810451711, 48.827512984221272 ], [ 2.287862668751658, 48.827512260156958 ], [ 2.287860357942326, 48.82758839271812 ] ] ] } },
{ "type": "Feature", "properties": { "fid": 76 }, "geometry": { "type": "Polygon", "coordinates": [ [ [ 2.287761889147681, 48.827354227983122 ], [ 2.287921029247024, 48.827356644041195 ], [ 2.287924986000239, 48.8272530414554 ], [ 2.287765216579479, 48.827250202113419 ], [ 2.287761889147681, 48.827354227983122 ] ] ] } },
{ "type": "Feature", "properties": { "fid": 77 }, "geometry": { "type": "Polygon", "coordinates": [ [ [ 2.287962949337118, 48.827357942485577 ], [ 2.288184973900849, 48.827361991202771 ], [ 2.288265090994953, 48.827311494047926 ], [ 2.288189250678183, 48.827258180747137 ], [ 2.287966906007128, 48.827254339898502 ], [ 2.287962949337118, 48.827357942485577 ] ] ] } },
{ "type": "Feature", "properties": { "fid": 78 }, "geometry": { "type": "Polygon", "coordinates": [ [ [ 2.287967866330491, 48.827231631991566 ], [ 2.288070505096021, 48.827233171564508 ], [ 2.288077288546919, 48.82707969742652 ], [ 2.287974654310077, 48.827077848379254 ], [ 2.287967866330491, 48.827231631991566 ] ] ] } },
{ "type": "Feature", "properties": { "fid": 79 }, "geometry": { "type": "Polygon", "coordinates": [ [ [ 2.288070973824091, 48.827233174354873 ], [ 2.288193290724541, 48.827235449975731 ], [ 2.288199600862154, 48.827082282521204 ], [ 2.288077280094645, 48.827080316386407 ], [ 2.288070973824091, 48.827233174354873 ] ] ] } },
{ "type": "Feature", "properties": { "fid": 80 }, "geometry": { "type": "Polygon", "coordinates": [ [ [ 2.288378160646372, 48.827325636948792 ], [ 2.288692154582312, 48.827331644813746 ], [ 2.288679892821535, 48.827603674011328 ], [ 2.288366462079207, 48.827598045828111 ], [ 2.288378160646372, 48.827325636948792 ] ] ] } },
{ "type": "Feature", "properties": { "fid": 81 }, "geometry": { "type": "Polygon", "coordinates": [ [ [ 2.288733186893873, 48.827332265211851 ], [ 2.288951447386442, 48.827336197576891 ], [ 2.288939751812373, 48.827608606509742 ], [ 2.288721490180261, 48.827604674124316 ], [ 2.288733186893873, 48.827332265211851 ] ] ] } },
{ "type": "Feature", "properties": { "fid": 82 }, "geometry": { "type": "Polygon", "coordinates": [ [ [ 2.288709783075598, 48.827877835611126 ], [ 2.288838011038181, 48.827879727248543 ], [ 2.288931152114864, 48.82782119391829 ], [ 2.288938119134992, 48.827644726539376 ], [ 2.288719852217475, 48.827641170471992 ], [ 2.288709783075598, 48.827877835611126 ] ] ] } },
{ "type": "Feature", "properties": { "fid": 83 }, "geometry": { "type": "Polygon", "coordinates": [ [ [ 2.288488110783099, 48.827873129819231 ], [ 2.288668755469628, 48.827876838884478 ], [ 2.288676103372524, 48.827714298791996 ], [ 2.288511402963475, 48.827711813646644 ], [ 2.288509081892658, 48.827756585655727 ], [ 2.288491977682065, 48.827756860247483 ], [ 2.288488110783099, 48.827873129819231 ] ] ] } },
{ "type": "Feature", "properties": { "fid": 84 }, "geometry": { "type": "Polygon", "coordinates": [ [ [ 2.288446513214657, 48.827872129625298 ], [ 2.288488110783099, 48.827873129819231 ], [ 2.288491972546098, 48.827757236568324 ], [ 2.288509081892658, 48.827756585655727 ], [ 2.288514704861986, 48.827636939355955 ], [ 2.288364823868098, 48.827634542171133 ], [ 2.288357295212971, 48.827810253484969 ], [ 2.288446513214657, 48.827872129625298 ] ] ] } },
{ "type": "Feature", "properties": { "fid": 85 }, "geometry": { "type": "Polygon", "coordinates": [ [ [ 2.288511402963475, 48.827711813646644 ], [ 2.288675533403819, 48.827714295401847 ], [ 2.288678824797556, 48.827640173748577 ], [ 2.288514689454613, 48.827638068318628 ], [ 2.288511402963475, 48.827711813646644 ] ] ] } },
{ "type": "Feature", "properties": { "fid": 86 }, "geometry": { "type": "Polygon", "coordinates": [ [ [ 2.289038356599365, 48.827908563095455 ], [ 2.28936510939561, 48.827914021019488 ], [ 2.289368340110811, 48.827823506672935 ], [ 2.289040940279467, 48.827816726457598 ], [ 2.289038356599365, 48.827908563095455 ] ] ] } },
{ "type": "Feature", "properties": { "fid": 87 }, "geometry": { "type": "Polygon", "coordinates": [ [ [ 2.28904191749006, 48.827793879137261 ], [ 2.289222931402869, 48.827796713035625 ], [ 2.289228919989847, 48.827650400693265 ], [ 2.289141081591163, 48.827648560159936 ], [ 2.289045094823346, 48.827707319818828 ], [ 2.28904191749006, 48.827793879137261 ] ] ] } },
{ "type": "Feature", "properties": { "fid": 88 }, "geometry": { "type": "Polygon", "coordinates": [ [ [ 2.289257529605365, 48.827797797626218 ], [ 2.2893699887487, 48.827800223857352 ], [ 2.289375317334771, 48.827653468105474 ], [ 2.289262852516749, 48.827651481326718 ], [ 2.289257529605365, 48.827797797626218 ] ] ] } },
{ "type": "Feature", "properties": { "fid": 89 }, "geometry": { "type": "Polygon", "coordinates": [ [ [ 2.289627638437784, 48.827698915482095 ], [ 2.289768057702167, 48.827701067936133 ], [ 2.289767817182152, 48.82766986319524 ], [ 2.289626744398842, 48.827666827891903 ], [ 2.289627638437784, 48.827698915482095 ] ] ] } },
{ "type": "Feature", "properties": { "fid": 90 }, "geometry": { "type": "Polygon", "coordinates": [ [ [ 2.289551780369312, 48.827697146413307 ], [ 2.289552871136418, 48.827665949579739 ], [ 2.289410461228901, 48.827663345561099 ], [ 2.289408698807676, 48.827694977886395 ], [ 2.289551780369312, 48.827697146413307 ] ] ] } },
{ "type": "Feature", "properties": { "fid": 91 }, "geometry": { "type": "Polygon", "coordinates": [ [ [ 2.289398370525031, 48.827915537106854 ], [ 2.289441627365792, 48.827916233608541 ], [ 2.289449964717409, 48.827695223073242 ], [ 2.289408704797453, 48.827694538438685 ], [ 2.289398370525031, 48.827915537106854 ] ] ] } },
{ "type": "Feature", "properties": { "fid": 92 }, "geometry": { "type": "Polygon", "coordinates": [ [ [ 2.289441070339569, 48.827957102235857 ], [ 2.289860315524648, 48.827964866245203 ], [ 2.289869867391328, 48.827703430453106 ], [ 2.289450624307177, 48.827695666475442 ], [ 2.289441070339569, 48.827957102235857 ] ] ] } },
{ "type": "Feature", "properties": { "fid": 93 }, "geometry": { "type": "Polygon", "coordinates": [ [ [ 2.28961148931045, 48.827110607259598 ], [ 2.289619961604466, 48.827122232613505 ], [ 2.289641196316898, 48.827114345267674 ], [ 2.289641318310669, 48.827098793904291 ], [ 2.289622980367482, 48.827098625617658 ], [ 2.28961148931045, 48.827110607259598 ] ] ] } },
{ "type": "Feature", "properties": { "fid": 94 }, "geometry": { "type": "Polygon", "coordinates": [ [ [ 2.289620232909642, 48.82712211550686 ], [ 2.289629345801343, 48.827132913637584 ], [ 2.289651195357898, 48.827132687267856 ], [ 2.289660681204905, 48.827122711921767 ], [ 2.289641197125637, 48.827114285913368 ], [ 2.289620232909642, 48.82712211550686 ] ] ] } },
{ "type": "Feature", "properties": { "fid": 95 }, "geometry": { "type": "Polygon", "coordinates": [ [ [ 2.289641197125637, 48.827114285913368 ], [ 2.289660502221854, 48.827122651499536 ], [ 2.289670162196046, 48.827113092700706 ], [ 2.2896602863336, 48.827098906571536 ], [ 2.289641228414828, 48.827098793370311 ], [ 2.289641197125637, 48.827114285913368 ] ] ] } },
{ "type": "Feature", "properties": { "fid": 96 }, "geometry": { "type": "Polygon", "coordinates": [ [ [ 2.289640136544533, 48.827132740297941 ], [ 2.289621434153233, 48.827132926001035 ], [ 2.289610027322781, 48.827145323656609 ], [ 2.289619050320482, 48.827156121253893 ], [ 2.289639925463141, 48.827148231772583 ], [ 2.289640136544533, 48.827132740297941 ] ] ] } },
{ "type": "Feature", "properties": { "fid": 97 }, "geometry": { "type": "Polygon", "coordinates": [ [ [ 2.289639924654399, 48.827148291126889 ], [ 2.289659140675782, 48.827156596824736 ], [ 2.289669985477697, 48.827145857881533 ], [ 2.289657578775639, 48.827132665825062 ], [ 2.289640224822954, 48.827132859540534 ], [ 2.289639924654399, 48.827148291126889 ] ] ] } },
{ "type": "Feature", "properties": { "fid": 98 }, "geometry": { "type": "Polygon", "coordinates": [ [ [ 2.289619231729895, 48.827156003613268 ], [ 2.289639835567213, 48.827148231238603 ], [ 2.28965914229322, 48.827156478116109 ], [ 2.289649740674623, 48.827166869475896 ], [ 2.289628073321922, 48.827166918850409 ], [ 2.289619231729895, 48.827156003613268 ] ] ] } },
{ "type": "Feature", "properties": { "fid": 99 }, "geometry": { "type": "Polygon", "coordinates": [ [ [ 2.28965914229322, 48.827156478116109 ], [ 2.28967926051504, 48.827164551733063 ], [ 2.289699591424262, 48.82715701516355 ], [ 2.289692282901759, 48.827145752882679 ], [ 2.28966998709511, 48.82714573917292 ], [ 2.28965914229322, 48.827156478116109 ] ] ] } },
{ "type": "Feature", "properties": { "fid": 100 }, "geometry": { "type": "Polygon", "coordinates": [ [ [ 2.289679261323736, 48.827164492378763 ], [ 2.289679048636447, 48.827180102561641 ], [ 2.289660257949748, 48.827180169028232 ], [ 2.289649831379313, 48.827166810655562 ], [ 2.289659233806602, 48.827156359941476 ], [ 2.289679261323736, 48.827164492378763 ] ] ] } },
{ "type": "Feature", "properties": { "fid": 101 }, "geometry": { "type": "Polygon", "coordinates": [ [ [ 2.289678960357859, 48.827179983319077 ], [ 2.289697658722455, 48.827180094378534 ], [ 2.289709139262384, 48.827168884335066 ], [ 2.289699592232935, 48.827156955809244 ], [ 2.289679259706343, 48.827164611087383 ], [ 2.289678960357859, 48.827179983319077 ] ] ] } },
{ "type": "Feature", "properties": { "fid": 102 }, "geometry": { "type": "Polygon", "coordinates": [ [ [ 2.289606652243825, 48.82721487248596 ], [ 2.28962507135132, 48.827222283068231 ], [ 2.289641791891846, 48.827215793526875 ], [ 2.289631180674463, 48.82720279021089 ], [ 2.289607176010239, 48.827202825698052 ], [ 2.289606652243825, 48.82721487248596 ] ] ] } },
{ "type": "Feature", "properties": { "fid": 103 }, "geometry": { "type": "Polygon", "coordinates": [ [ [ 2.289641792700587, 48.827215734172576 ], [ 2.289658948968851, 48.827210256321841 ], [ 2.289658871756247, 48.82719612839518 ], [ 2.289642781053016, 48.827189384598682 ], [ 2.289631089160935, 48.82720290838553 ], [ 2.289641792700587, 48.827215734172576 ] ] ] } },
{ "type": "Feature", "properties": { "fid": 104 }, "geometry": { "type": "Polygon", "coordinates": [ [ [ 2.289607446507085, 48.827202767945735 ], [ 2.28963117986571, 48.827202849565204 ], [ 2.289642781053016, 48.827189384598682 ], [ 2.289626594796662, 48.827183055746104 ], [ 2.289607622012091, 48.827189888061383 ], [ 2.289607446507085, 48.827202767945735 ] ] ] } },
{ "type": "Feature", "properties": { "fid": 105 }, "geometry": { "type": "Polygon", "coordinates": [ [ [ 2.28964423040738, 48.827214976983896 ], [ 2.289644393468425, 48.827229402215821 ], [ 2.289661023560696, 48.827236149215629 ], [ 2.289672528382004, 48.827223158547099 ], [ 2.28966166040683, 48.827209203963172 ], [ 2.28964423040738, 48.827214976983896 ] ] ] } },
{ "type": "Feature", "properties": { "fid": 106 }, "geometry": { "type": "Polygon", "coordinates": [ [ [ 2.289660935282053, 48.827236029973051 ], [ 2.289676757122455, 48.827242712810701 ], [ 2.289695827091379, 48.827235346829987 ], [ 2.289696085192611, 48.827223001668564 ], [ 2.289672438485946, 48.827223158013147 ], [ 2.289660935282053, 48.827236029973051 ] ] ] } },
{ "type": "Feature", "properties": { "fid": 107 }, "geometry": { "type": "Polygon", "coordinates": [ [ [ 2.289672439294651, 48.827223098658834 ], [ 2.289695994487875, 48.827223060488926 ], [ 2.289696437233147, 48.827210360269405 ], [ 2.289678640922298, 48.827203428270138 ], [ 2.289661570510795, 48.827209203429206 ], [ 2.289672439294651, 48.827223098658834 ] ] ] } },
{ "type": "Feature", "properties": { "fid": 108 }, "geometry": { "type": "Polygon", "coordinates": [ [ [ 2.289696110261642, 48.82722116168511 ], [ 2.289714242714056, 48.827229817092196 ], [ 2.289730964054538, 48.827223268184106 ], [ 2.289720356047995, 48.827210027458896 ], [ 2.289696451789347, 48.827209291891897 ], [ 2.289696110261642, 48.82722116168511 ] ] ] } },
{ "type": "Feature", "properties": { "fid": 109 }, "geometry": { "type": "Polygon", "coordinates": [ [ [ 2.289730964863177, 48.8272232088298 ], [ 2.289747408425097, 48.827217251860709 ], [ 2.289748142678584, 48.827202950676337 ], [ 2.28973177095274, 48.827197036250446 ], [ 2.289720356856645, 48.827209968104583 ], [ 2.289730964863177, 48.8272232088298 ] ] ] } },
{ "type": "Feature", "properties": { "fid": 110 }, "geometry": { "type": "Polygon", "coordinates": [ [ [ 2.289696452598026, 48.827209232537591 ], [ 2.289720265343307, 48.827210086279294 ], [ 2.289731679439453, 48.82719715442515 ], [ 2.289715766092524, 48.827190589769195 ], [ 2.289696977960987, 48.827197067040601 ], [ 2.289696452598026, 48.827209232537591 ] ] ] } },
{ "type": "Feature", "properties": { "fid": 111 }, "geometry": { "type": "Polygon", "coordinates": [ [ [ 2.289705328441991, 48.827270425135261 ], [ 2.289721603013879, 48.827276873219198 ], [ 2.289733559735632, 48.827263707151936 ], [ 2.289722145889849, 48.827250224204988 ], [ 2.289705516861735, 48.827256595582703 ], [ 2.289705328441991, 48.827270425135261 ] ] ] } },
{ "type": "Feature", "properties": { "fid": 112 }, "geometry": { "type": "Polygon", "coordinates": [ [ [ 2.289721514735028, 48.827276753976683 ], [ 2.289737069332964, 48.827283257141445 ], [ 2.289756754834871, 48.827276903911738 ], [ 2.289756657380413, 48.827264259843574 ], [ 2.289733470648139, 48.827263647263727 ], [ 2.289721514735028, 48.827276753976683 ] ] ] } },
{ "type": "Feature", "properties": { "fid": 113 }, "geometry": { "type": "Polygon", "coordinates": [ [ [ 2.289733470648139, 48.827263647263727 ], [ 2.289756565867063, 48.827264378018299 ], [ 2.289756559117391, 48.827251675129567 ], [ 2.289739401760669, 48.827244034625153 ], [ 2.289722234977306, 48.827250284093218 ], [ 2.289733470648139, 48.827263647263727 ] ] ] } },
{ "type": "Feature", "properties": { "fid": 114 }, "geometry": { "type": "Polygon", "coordinates": [ [ [ 2.289756844731023, 48.827276904445633 ], [ 2.289774097657416, 48.827284130001068 ], [ 2.289791624838894, 48.827277823306908 ], [ 2.289780747117454, 48.827264580986117 ], [ 2.289756564249843, 48.82726449672689 ], [ 2.289756844731023, 48.827276904445633 ] ] ] } },
{ "type": "Feature", "properties": { "fid": 115 }, "geometry": { "type": "Polygon", "coordinates": [ [ [ 2.289791624838894, 48.827277823306908 ], [ 2.289808423952925, 48.827272165236685 ], [ 2.289808617196633, 48.827257979558155 ], [ 2.289792438175974, 48.827251116539692 ], [ 2.289780657221323, 48.827264580452237 ], [ 2.289791624838894, 48.827277823306908 ] ] ] } },
{ "type": "Feature", "properties": { "fid": 116 }, "geometry": { "type": "Polygon", "coordinates": [ [ [ 2.289756565867063, 48.827264378018299 ], [ 2.289780747117454, 48.827264580986117 ], [ 2.289792437367404, 48.827251175893991 ], [ 2.289776430057303, 48.827244907484086 ], [ 2.289756559117391, 48.827251675129567 ], [ 2.289756565867063, 48.827264378018299 ] ] ] } },
{ "type": "Feature", "properties": { "fid": 117 }, "geometry": { "type": "Polygon", "coordinates": [ [ [ 2.289808617196633, 48.827257979558155 ], [ 2.289827500892064, 48.827251087323269 ], [ 2.289827850475338, 48.827238623986958 ], [ 2.289804566580548, 48.827238545075787 ], [ 2.289792438175974, 48.827251116539692 ], [ 2.289808617196633, 48.827257979558155 ] ] ] } },
{ "type": "Feature", "properties": { "fid": 118 }, "geometry": { "type": "Polygon", "coordinates": [ [ [ 2.289792438175974, 48.827251116539692 ], [ 2.289804567389104, 48.827238485721494 ], [ 2.289793249086517, 48.827224587834742 ], [ 2.289776891380659, 48.82723084211549 ], [ 2.289776519144813, 48.827244967372266 ], [ 2.289792438175974, 48.827251116539692 ] ] ] } },
{ "type": "Feature", "properties": { "fid": 119 }, "geometry": { "type": "Polygon", "coordinates": [ [ [ 2.289804566580548, 48.827238545075787 ], [ 2.289827760579253, 48.827238623453134 ], [ 2.289828106119741, 48.827226456888205 ], [ 2.289811037039791, 48.827218935636338 ], [ 2.289793248277949, 48.827224647189055 ], [ 2.289804566580548, 48.827238545075787 ] ] ] } },
{ "type": "Feature", "properties": { "fid": 120 }, "geometry": { "type": "Polygon", "coordinates": [ [ [ 2.289797291918904, 48.827185197395679 ], [ 2.289778504608023, 48.827191615325617 ], [ 2.289778604493398, 48.827204081331658 ], [ 2.289802345129904, 48.827203628728405 ], [ 2.289813659605743, 48.827191408584213 ], [ 2.289797291918904, 48.827185197395679 ] ] ] } },
{ "type": "Feature", "properties": { "fid": 121 }, "geometry": { "type": "Polygon", "coordinates": [ [ [ 2.289802524921954, 48.827203629796102 ], [ 2.289812845471919, 48.827218174707298 ], [ 2.289795778304714, 48.827223712468225 ], [ 2.289778163385364, 48.827216662842957 ], [ 2.289778604493398, 48.827204081331658 ], [ 2.289802524921954, 48.827203629796102 ] ] ] } },
{ "type": "Feature", "properties": { "fid": 122 }, "geometry": { "type": "Polygon", "coordinates": [ [ [ 2.289812936176516, 48.827218115886836 ], [ 2.289829561945123, 48.827211981911219 ], [ 2.289830028913532, 48.827197501061846 ], [ 2.289813749501747, 48.827191409118051 ], [ 2.289802525730511, 48.827203570441796 ], [ 2.289812936176516, 48.827218115886836 ] ] ] } },
{ "type": "Feature", "properties": { "fid": 123 }, "geometry": { "type": "Polygon", "coordinates": [ [ [ 2.287993430474261, 48.827036876895704 ], [ 2.288266334439619, 48.827039925996601 ], [ 2.288274168789965, 48.82686118291609 ], [ 2.288097274060089, 48.826858705396177 ], [ 2.288096000240744, 48.826925654919137 ], [ 2.287996758820632, 48.826924826669767 ], [ 2.287993430474261, 48.827036876895704 ] ] ] } },
{ "type": "Feature", "properties": { "fid": 124 }, "geometry": { "type": "Polygon", "coordinates": [ [ [ 2.288014132882612, 48.826863908915875 ], [ 2.288097546108536, 48.826865117802541 ], [ 2.288096363064839, 48.826925419642421 ], [ 2.288011498444593, 48.826925151860763 ], [ 2.288014132882612, 48.826863908915875 ] ] ] } },
{ "type": "Feature", "properties": { "fid": 125 }, "geometry": { "type": "Polygon", "coordinates": [ [ [ 2.289088530664541, 48.827057281833135 ], [ 2.289361055800252, 48.827061750801739 ], [ 2.289364494476139, 48.826941390935815 ], [ 2.289270640266651, 48.826941070628997 ], [ 2.289273269989765, 48.826880065074533 ], [ 2.289097100786844, 48.826877118472964 ], [ 2.289088530664541, 48.827057281833135 ] ] ] } },
{ "type": "Feature", "properties": { "fid": 126 }, "geometry": { "type": "Polygon", "coordinates": [ [ [ 2.289270640266651, 48.826941070628997 ], [ 2.289354429408694, 48.826941093689612 ], [ 2.289356605600999, 48.826886971097728 ], [ 2.289273561602666, 48.826885052974418 ], [ 2.289270640266651, 48.826941070628997 ] ] ] } },
{ "type": "Feature", "properties": { "fid": 127 }, "geometry": { "type": "Polygon", "coordinates": [ [ [ 2.289065695017761, 48.827597907545993 ], [ 2.289243288817802, 48.827602049825948 ], [ 2.289245620215475, 48.827510175805173 ], [ 2.28934379372005, 48.827510284355938 ], [ 2.28934460244976, 48.827424574624906 ], [ 2.289072438242008, 48.827419870340691 ], [ 2.289065695017761, 48.827597907545993 ] ] ] } },
{ "type": "Feature", "properties": { "fid": 128 }, "geometry": { "type": "Polygon", "coordinates": [ [ [ 2.289243761692526, 48.827593742363554 ], [ 2.289324659007177, 48.827594935433858 ], [ 2.289328691099752, 48.82751019460963 ], [ 2.289245620215475, 48.827510175805173 ], [ 2.289243761692526, 48.827593742363554 ] ] ] } },
{ "type": "Feature", "properties": { "fid": 129 }, "geometry": { "type": "Polygon", "coordinates": [ [ [ 2.288065838268261, 48.8275806813039 ], [ 2.288244177034288, 48.827582930012028 ], [ 2.288250226580327, 48.827403226650524 ], [ 2.287978062582801, 48.827398519875722 ], [ 2.287974348978649, 48.827486111809172 ], [ 2.288069979396312, 48.827488105756117 ], [ 2.288065838268261, 48.8275806813039 ] ] ] } },
{ "type": "Feature", "properties": { "fid": 130 }, "geometry": { "type": "Polygon", "coordinates": [ [ [ 2.28798292939901, 48.827568790767316 ], [ 2.288066703338542, 48.827570001815623 ], [ 2.288069979396312, 48.827488105756117 ], [ 2.287986571659312, 48.827486422016648 ], [ 2.28798292939901, 48.827568790767316 ] ] ] } },
{ "type": "Feature", "properties": { "fid": 131 }, "geometry": { "type": "Polygon", "coordinates": [ [ [ 2.288050609298669, 48.828016635265953 ], [ 2.288291631621948, 48.828020950808927 ], [ 2.288296198273708, 48.827952795490653 ], [ 2.288056263762066, 48.827948726509788 ], [ 2.288050609298669, 48.828016635265953 ] ] ] } },
{ "type": "Feature", "properties": { "fid": 132 }, "geometry": { "type": "Polygon", "coordinates": [ [ [ 2.288481754339414, 48.828024722969509 ], [ 2.2884796052947, 48.82810225576069 ], [ 2.288784266628253, 48.82810622867536 ], [ 2.288786755887689, 48.828030378459211 ], [ 2.288481754339414, 48.828024722969509 ] ] ] } },
{ "type": "Feature", "properties": { "fid": 133 }, "geometry": { "type": "Polygon", "coordinates": [ [ [ 2.289029049957759, 48.828128090874181 ], [ 2.289304240809226, 48.828133327734427 ], [ 2.289306198819975, 48.828069718394083 ], [ 2.289030664354491, 48.828063039018275 ], [ 2.289030664354491, 48.828063039018275 ], [ 2.289029049957759, 48.828128090874181 ] ] ] } },
{ "type": "Feature", "properties": { "fid": 134 }, "geometry": { "type": "Polygon", "coordinates": [ [ [ 2.288967421999281, 48.828034333687988 ], [ 2.289216436967627, 48.828039175044154 ], [ 2.2892199378198, 48.827969092730946 ], [ 2.288970163260994, 48.827966647655614 ], [ 2.288967421999281, 48.828034333687988 ] ] ] } }
]
}
