{
"type": "FeatureCollection",
"name": "73_vvt",
"crs": { "type": "name", "properties": { "name": "urn:ogc:def:crs:OGC:1.3:CRS84" } },
"features": [
{ "type": "Feature", "properties": { "fid": 1, "type": null, "nom": "stage" }, "geometry": { "type": "Polygon", "coordinates": [ [ [ 2.287376663825302, 48.827947883976499 ], [ 2.287801495884867, 48.827955862566583 ], [ 2.287814188211606, 48.827691171655523 ], [ 2.287388540696176, 48.827682643449641 ], [ 2.287376663825302, 48.827947883976499 ] ] ] } },
{ "type": "Feature", "properties": { "fid": 2, "type": null, "nom": null }, "geometry": { "type": "Polygon", "coordinates": [ [ [ 2.287804536643411, 48.827914476864819 ], [ 2.287846607292538, 48.827915272183212 ], [ 2.287855448506013, 48.827690872572092 ], [ 2.287814188211606, 48.827691171655523 ], [ 2.287804536643411, 48.827914476864819 ] ] ] } },
{ "type": "Feature", "properties": { "fid": 3, "type": null, "nom": null }, "geometry": { "type": "Polygon", "coordinates": [ [ [ 2.287710253351423, 48.827688918302549 ], [ 2.287856273563071, 48.827690877485146 ], [ 2.287856705152135, 48.827659282403481 ], [ 2.287711510085479, 48.827657328135402 ], [ 2.287710253351423, 48.827688918302549 ] ] ] } },
{ "type": "Feature", "properties": { "fid": 4, "type": null, "nom": null }, "geometry": { "type": "Polygon", "coordinates": [ [ [ 2.287492482974939, 48.827684352339446 ], [ 2.28763602055122, 48.827686841787035 ], [ 2.28763645227373, 48.827655246706058 ], [ 2.287492914784417, 48.827652757258903 ], [ 2.287492482974939, 48.827684352339446 ] ] ] } },
{ "type": "Feature", "properties": { "fid": 5, "type": null, "nom": null }, "geometry": { "type": "Polygon", "coordinates": [ [ [ 2.28788696261358, 48.827800017640342 ], [ 2.287986787288407, 48.827801156793427 ], [ 2.287992921323965, 48.827654100806079 ], [ 2.287892286755741, 48.827651867259576 ], [ 2.28788696261358, 48.827800017640342 ] ] ] } },
{ "type": "Feature", "properties": { "fid": 6, "type": "stand", "nom": "credit agricole" }, "geometry": { "type": "Polygon", "coordinates": [ [ [ 2.287881244956351, 48.827916568013933 ], [ 2.288212042220307, 48.827922350814234 ], [ 2.288215796647715, 48.827828669799445 ], [ 2.287885007418668, 48.827822342266316 ], [ 2.287881244956351, 48.827916568013933 ] ] ] } },
{ "type": "Feature", "properties": { "fid": 7, "type": "stand", "nom": "meta" }, "geometry": { "type": "Polygon", "coordinates": [ [ [ 2.288021424879888, 48.827802452583683 ], [ 2.288217751701219, 48.827806345168185 ], [ 2.28822143917357, 48.827717566828639 ], [ 2.288130683445051, 48.827656555275254 ], [ 2.288025938462538, 48.827653207799763 ], [ 2.288021424879888, 48.827802452583683 ] ] ] } },
{ "type": "Feature", "properties": { "fid": 8, "type": "stand", "nom": "canada" }, "geometry": { "type": "Polygon", "coordinates": [ [ [ 2.288326235610948, 48.827838043646956 ], [ 2.288416962142783, 48.827901234012927 ], [ 2.288459032790563, 48.827902029115904 ], [ 2.288463946400484, 48.827783839576036 ], [ 2.28848045500696, 48.827783393009042 ], [ 2.288486238221503, 48.827661939907472 ], [ 2.288335275163727, 48.82765940729287 ], [ 2.288326235610948, 48.827838043646956 ] ] ] } },
{ "type": "Feature", "properties": { "fid": 9, "type": "stand", "nom": "groupe les echos le parisien" }, "geometry": { "type": "Polygon", "coordinates": [ [ [ 2.2884827296358, 48.827737644432567 ], [ 2.288649361594743, 48.827740814848475 ], [ 2.288651212392357, 48.827665645246448 ], [ 2.288486230786894, 48.827662484650318 ], [ 2.2884827296358, 48.827737644432567 ] ] ] } },
{ "type": "Feature", "properties": { "fid": 10, "type": "stand", "nom": "ovhcloud" }, "geometry": { "type": "Polygon", "coordinates": [ [ [ 2.28845986528594, 48.827901489282063 ], [ 2.288642181350002, 48.827904208232383 ], [ 2.288648543969742, 48.827740265198095 ], [ 2.288482722201143, 48.827738189175371 ], [ 2.28848045500696, 48.827783393009042 ], [ 2.288463953835344, 48.827783294833246 ], [ 2.28845986528594, 48.827901489282063 ] ] ] } },
{ "type": "Feature", "properties": { "fid": 11, "type": null, "nom": "impact hub" }, "geometry": { "type": "Polygon", "coordinates": [ [ [ 2.288682594449973, 48.827905538184197 ], [ 2.288811274170239, 48.827908482630498 ], [ 2.288906980896983, 48.827848580388903 ], [ 2.288913535861078, 48.827670474018262 ], [ 2.288692457796848, 48.82766643535993 ], [ 2.288682594449973, 48.827905538184197 ] ] ] } },
{ "type": "Feature", "properties": { "fid": 12, "type": "stand", "nom": "germany" }, "geometry": { "type": "Polygon", "coordinates": [ [ [ 2.288336719420995, 48.82762299630344 ], [ 2.288654138989009, 48.827629096113611 ], [ 2.288665688030848, 48.827354024004705 ], [ 2.288348276523135, 48.82734745633509 ], [ 2.288336719420995, 48.82762299630344 ] ] ] } },
{ "type": "Feature", "properties": { "fid": 13, "type": "stand", "nom": "lvmh" }, "geometry": { "type": "Polygon", "coordinates": [ [ [ 2.288694525892384, 48.827629804259509 ], [ 2.288916992253088, 48.827634870646236 ], [ 2.288927837640544, 48.827359326411184 ], [ 2.288706074721293, 48.82735473214688 ], [ 2.288694525892384, 48.827629804259509 ] ] ] } },
{ "type": "Feature", "properties": { "fid": 14, "type": "stand", "nom": "italy" }, "geometry": { "type": "Polygon", "coordinates": [ [ [ 2.287928972131206, 48.827380990790061 ], [ 2.28815358247421, 48.827384667590628 ], [ 2.288233654037346, 48.827333672249139 ], [ 2.288157133090216, 48.827280341086549 ], [ 2.287932523196423, 48.827276664292313 ], [ 2.287928972131206, 48.827380990790061 ] ] ] } },
{ "type": "Feature", "properties": { "fid": 15, "type": "stand", "nom": "turkiye" }, "geometry": { "type": "Polygon", "coordinates": [ [ [ 2.287724204038382, 48.827377431748133 ], [ 2.287887180911642, 48.827379338168939 ], [ 2.287891434318661, 48.827275483780561 ], [ 2.287728470554816, 48.827272641588166 ], [ 2.287724204038382, 48.827377431748133 ] ] ] } },
{ "type": "Feature", "properties": { "fid": 16, "type": "stand", "nom": "ministère des armées" }, "geometry": { "type": "Polygon", "coordinates": [ [ [ 2.287718832513272, 48.827511226765118 ], [ 2.287881088369828, 48.827514064750304 ], [ 2.287886088797465, 48.827407407263003 ], [ 2.287723118229023, 48.827405032952207 ], [ 2.287718832513272, 48.827511226765118 ] ] ] } },
{ "type": "Feature", "properties": { "fid": 17, "type": "restaurant", "nom": "picnic" }, "geometry": { "type": "Polygon", "coordinates": [ [ [ 2.287823743402117, 48.827613391625647 ], [ 2.287876879660926, 48.82761464389695 ], [ 2.28788006016087, 48.827537454955944 ], [ 2.287826911197439, 48.827537138462979 ], [ 2.287823743402117, 48.827613391625647 ] ] ] } },
{ "type": "Feature", "properties": { "fid": 18, "type": null, "nom": null }, "geometry": { "type": "Polygon", "coordinates": [ [ [ 2.287715332145419, 48.827611810127031 ], [ 2.287790436669995, 48.827613193277166 ], [ 2.287793617297834, 48.827536004338356 ], [ 2.28771708918618, 48.827535080637205 ], [ 2.287715332145419, 48.827611810127031 ] ] ] } },
{ "type": "Feature", "properties": { "fid": 19, "type": null, "nom": null }, "geometry": { "type": "Polygon", "coordinates": [ [ [ 2.287531829168392, 48.827607909487831 ], [ 2.287679912239068, 48.827610663308626 ], [ 2.287683086637491, 48.827533942261098 ], [ 2.287534295131828, 48.827531184222231 ], [ 2.287531829168392, 48.827607909487831 ] ] ] } },
{ "type": "Feature", "properties": { "fid": 20, "type": null, "nom": null }, "geometry": { "type": "Polygon", "coordinates": [ [ [ 2.287455313745733, 48.827606049842295 ], [ 2.287496402874146, 48.827607230503524 ], [ 2.287497016753598, 48.827562313211132 ], [ 2.287455927660571, 48.82756113255008 ], [ 2.287455313745733, 48.827606049842295 ] ] ] } },
{ "type": "Feature", "properties": { "fid": 21, "type": null, "nom": null }, "geometry": { "type": "Polygon", "coordinates": [ [ [ 2.287458360576091, 48.827538686570044 ], [ 2.287500164698876, 48.827539403563819 ], [ 2.287500082711125, 48.827493546269686 ], [ 2.28746039818685, 48.827493309831077 ], [ 2.287458360576091, 48.827538686570044 ] ] ] } },
{ "type": "Feature", "properties": { "fid": 22, "type": null, "nom": null }, "geometry": { "type": "Polygon", "coordinates": [ [ [ 2.287462141629991, 48.827469455961854 ], [ 2.287503237045409, 48.827470168732354 ], [ 2.287503850917359, 48.827425251434434 ], [ 2.287462040491188, 48.827425002330415 ], [ 2.287462141629991, 48.827469455961854 ] ] ] } },
{ "type": "Feature", "properties": { "fid": 23, "type": null, "nom": null }, "geometry": { "type": "Polygon", "coordinates": [ [ [ 2.287536032148211, 48.827507798241228 ], [ 2.287685538632565, 48.827510092610389 ], [ 2.287689122157849, 48.827403426689131 ], [ 2.287540318236026, 48.827401604434534 ], [ 2.287536032148211, 48.827507798241228 ] ] ] } },
{ "type": "Feature", "properties": { "fid": 24, "type": null, "nom": null }, "geometry": { "type": "Polygon", "coordinates": [ [ [ 2.28746448618741, 48.82740162057047 ], [ 2.287505587943867, 48.827401865451691 ], [ 2.287506201812987, 48.827356948151007 ], [ 2.287465821531953, 48.827355771715105 ], [ 2.28746448618741, 48.82740162057047 ] ] ] } },
{ "type": "Feature", "properties": { "fid": 25, "type": null, "nom": null }, "geometry": { "type": "Polygon", "coordinates": [ [ [ 2.287467552178396, 48.827332853620014 ], [ 2.287508653880653, 48.827333098500183 ], [ 2.287509970001332, 48.827288653307285 ], [ 2.287468868334108, 48.827288408427563 ], [ 2.287467552178396, 48.827332853620014 ] ] ] } },
{ "type": "Feature", "properties": { "fid": 26, "type": null, "nom": null }, "geometry": { "type": "Polygon", "coordinates": [ [ [ 2.287542119186836, 48.827373539565222 ], [ 2.28769091663581, 48.827375829706178 ], [ 2.287695176826262, 48.827271507435867 ], [ 2.287545677419766, 48.82726874518967 ], [ 2.287542119186836, 48.827373539565222 ] ] ] } },
{ "type": "Feature", "properties": { "fid": 27, "type": null, "nom": null }, "geometry": { "type": "Polygon", "coordinates": [ [ [ 2.287548110283001, 48.82724629920196 ], [ 2.287697622410728, 48.827248125667943 ], [ 2.287698376752452, 48.827192914810198 ], [ 2.287550275685212, 48.827191564677122 ], [ 2.287548110283001, 48.82724629920196 ] ] ] } },
{ "type": "Feature", "properties": { "fid": 28, "type": null, "nom": null }, "geometry": { "type": "Polygon", "coordinates": [ [ [ 2.287471320415629, 48.827264558776022 ], [ 2.287512415669665, 48.82726527154351 ], [ 2.287513438771793, 48.827190409365564 ], [ 2.287472337182005, 48.827190164487 ], [ 2.287471320415629, 48.827264558776022 ] ] ] } },
{ "type": "Feature", "properties": { "fid": 29, "type": null, "nom": null }, "geometry": { "type": "Polygon", "coordinates": [ [ [ 2.28747477646787, 48.827167250610579 ], [ 2.287675298223979, 48.827170316865896 ], [ 2.287675681799216, 48.827142243546874 ], [ 2.287475153756342, 48.82713964518075 ], [ 2.28747477646787, 48.827167250610579 ] ] ] } },
{ "type": "Feature", "properties": { "fid": 30, "type": "stand", "nom": "belgium" }, "geometry": { "type": "Polygon", "coordinates": [ [ [ 2.287730909731972, 48.827249727708192 ], [ 2.287892462517354, 48.827252093569385 ], [ 2.287898829808356, 48.827097247742579 ], [ 2.287737277502507, 48.827094881889693 ], [ 2.287730909731972, 48.827249727708192 ] ] ] } },
{ "type": "Feature", "properties": { "fid": 31, "type": "stand", "nom": "swisstech" }, "geometry": { "type": "Polygon", "coordinates": [ [ [ 2.288038405870016, 48.827255770065342 ], [ 2.28816169802653, 48.827257439852247 ], [ 2.288168064518538, 48.827102594011876 ], [ 2.28804336821337, 48.827099980016349 ], [ 2.288038405870016, 48.827255770065342 ] ] ] } },
{ "type": "Feature", "properties": { "fid": 32, "type": null, "nom": null }, "geometry": { "type": "Polygon", "coordinates": [ [ [ 2.287934260025696, 48.827253278300198 ], [ 2.288038418649367, 48.827254834288091 ], [ 2.288043355434146, 48.827100915793757 ], [ 2.287940614411632, 48.827099368248732 ], [ 2.287934260025696, 48.827253278300198 ] ] ] } },
{ "type": "Feature", "properties": { "fid": 33, "type": null, "nom": null }, "geometry": { "type": "Polygon", "coordinates": [ [ [ 2.287738615819594, 48.827066431211364 ], [ 2.28790182095821, 48.827069746324838 ], [ 2.287905716700183, 48.826940424858989 ], [ 2.287743912209937, 48.826938524010423 ], [ 2.287738615819594, 48.827066431211364 ] ] ] } },
{ "type": "Feature", "properties": { "fid": 34, "type": "restaurant", "nom": "picnic" }, "geometry": { "type": "Polygon", "coordinates": [ [ [ 2.287746374288891, 48.826914169387614 ], [ 2.287907456177884, 48.826917003210887 ], [ 2.287910321412362, 48.826863126656711 ], [ 2.287748510759872, 48.826861694416266 ], [ 2.287746374288891, 48.826914169387614 ] ] ] } },
{ "type": "Feature", "properties": { "fid": 35, "type": null, "nom": "reception facility" }, "geometry": { "type": "Polygon", "coordinates": [ [ [ 2.287412561824911, 48.827137596690505 ], [ 2.287680794059805, 48.82714247514869 ], [ 2.287692301717317, 48.826871669717328 ], [ 2.287425490322502, 48.826866799741559 ], [ 2.287412561824911, 48.827137596690505 ] ] ] } },
{ "type": "Feature", "properties": { "fid": 36, "type": "technical zone", "nom": null }, "geometry": { "type": "Polygon", "coordinates": [ [ [ 2.287490057142277, 48.826816571305976 ], [ 2.288170553846071, 48.826829996540361 ], [ 2.288172568321782, 48.826786424997003 ], [ 2.287491356059232, 48.826773464147124 ], [ 2.287490057142277, 48.826816571305976 ] ] ] } },
{ "type": "Feature", "properties": { "fid": 37, "type": "technical zone", "nom": null }, "geometry": { "type": "Polygon", "coordinates": [ [ [ 2.287431036036521, 48.826772636108146 ], [ 2.287976723201562, 48.826782447276479 ], [ 2.287987449125722, 48.826516792128203 ], [ 2.287441790357915, 48.826505106597871 ], [ 2.287431036036521, 48.826772636108146 ] ] ] } },
{ "type": "Feature", "properties": { "fid": 38, "type": "business studio", "nom": null }, "geometry": { "type": "Polygon", "coordinates": [ [ [ 2.287979185164393, 48.826758092645498 ], [ 2.288046602404267, 48.826758962660179 ], [ 2.288048757764472, 48.826705081869889 ], [ 2.287979914750806, 48.826704672007303 ], [ 2.287979185164393, 48.826758092645498 ] ] ] } },
{ "type": "Feature", "properties": { "fid": 39, "type": "business studio", "nom": null }, "geometry": { "type": "Polygon", "coordinates": [ [ [ 2.287981782184398, 48.826671878310968 ], [ 2.288049909034187, 48.826672752549442 ], [ 2.288048764163728, 48.826704613267793 ], [ 2.28798062447259, 48.826704676232907 ], [ 2.287981782184398, 48.826671878310968 ] ] ] } },
{ "type": "Feature", "properties": { "fid": 40, "type": "business studio", "nom": null }, "geometry": { "type": "Polygon", "coordinates": [ [ [ 2.28798107886292, 48.826671405483268 ], [ 2.288049909034187, 48.826672752549442 ], [ 2.288050267391514, 48.826646510830543 ], [ 2.287982146975857, 48.826645167990151 ], [ 2.28798107886292, 48.826671405483268 ] ] ] } },
{ "type": "Feature", "properties": { "fid": 41, "type": "business studio", "nom": null }, "geometry": { "type": "Polygon", "coordinates": [ [ [ 2.287983572817642, 48.826644707839172 ], [ 2.288050267391514, 48.826646510830543 ], [ 2.288052077185843, 48.826617934550676 ], [ 2.287982537366303, 48.826616583260126 ], [ 2.287983572817642, 48.826644707839172 ] ] ] } },
{ "type": "Feature", "properties": { "fid": 42, "type": "business studio", "nom": null }, "geometry": { "type": "Polygon", "coordinates": [ [ [ 2.287983963207303, 48.826616123109133 ], [ 2.288052077185843, 48.826617934550676 ], [ 2.288052441940911, 48.826591224228352 ], [ 2.287984327997255, 48.826589412786973 ], [ 2.287983963207303, 48.826616123109133 ] ] ] } },
{ "type": "Feature", "properties": { "fid": 43, "type": "business studio", "nom": null }, "geometry": { "type": "Polygon", "coordinates": [ [ [ 2.287984334397076, 48.826588944184813 ], [ 2.288052441940911, 48.826591224228352 ], [ 2.28805423253456, 48.826564053753543 ], [ 2.287984699186647, 48.826562233862006 ], [ 2.287984334397076, 48.826588944184813 ] ] ] } },
{ "type": "Feature", "properties": { "fid": 44, "type": "business studio", "nom": null }, "geometry": { "type": "Polygon", "coordinates": [ [ [ 2.288071397899451, 48.82676239075402 ], [ 2.288113265133068, 48.82676310862665 ], [ 2.288113176082791, 48.826717649998855 ], [ 2.288073431652525, 48.826717413403387 ], [ 2.288071397899451, 48.82676239075402 ] ] ] } },
{ "type": "Feature", "properties": { "fid": 45, "type": "business studio", "nom": null }, "geometry": { "type": "Polygon", "coordinates": [ [ [ 2.288072721930558, 48.826717409178364 ], [ 2.288115305248708, 48.826717662673232 ], [ 2.28811664203808, 48.826671743891048 ], [ 2.288074774877788, 48.826671026019547 ], [ 2.288072721930558, 48.826717409178364 ] ] ] } },
{ "type": "Feature", "properties": { "fid": 46, "type": "business studio", "nom": null }, "geometry": { "type": "Polygon", "coordinates": [ [ [ 2.288076194320456, 48.826671034469605 ], [ 2.288118067879405, 48.826671283738477 ], [ 2.288118682147203, 48.826626297933892 ], [ 2.288076098903661, 48.826626044440204 ], [ 2.288076194320456, 48.826671034469605 ] ] ] } },
{ "type": "Feature", "properties": { "fid": 47, "type": "business studio", "nom": null }, "geometry": { "type": "Polygon", "coordinates": [ [ [ 2.288076105302661, 48.826625575838072 ], [ 2.288118682147203, 48.826626297933892 ], [ 2.288120728651362, 48.826580383372693 ], [ 2.28807884876644, 48.826580602706876 ], [ 2.288076105302661, 48.826625575838072 ] ] ] } },
{ "type": "Feature", "properties": { "fid": 48, "type": "business studio", "nom": null }, "geometry": { "type": "Polygon", "coordinates": [ [ [ 2.288079564885507, 48.826580138329724 ], [ 2.288121431972881, 48.826580856199598 ], [ 2.288122768753349, 48.826534937411751 ], [ 2.288080908101776, 48.826533750940143 ], [ 2.288079564885507, 48.826580138329724 ] ] ] } },
{ "type": "Feature", "properties": { "fid": 49, "type": "business studio", "nom": null }, "geometry": { "type": "Polygon", "coordinates": [ [ [ 2.288113974855658, 48.826763112851438 ], [ 2.288154416246919, 48.82676429086213 ], [ 2.288155030484451, 48.826719305061083 ], [ 2.288113176082791, 48.826717649998855 ], [ 2.288113974855658, 48.826763112851438 ] ] ] } },
{ "type": "Feature", "properties": { "fid": 50, "type": "business studio", "nom": null }, "geometry": { "type": "Polygon", "coordinates": [ [ [ 2.288115305248708, 48.826717662673232 ], [ 2.288155746604744, 48.826718840683526 ], [ 2.288157799478167, 48.826672457523365 ], [ 2.288117345360794, 48.826672216717952 ], [ 2.288115305248708, 48.826717662673232 ] ] ] } },
{ "type": "Feature", "properties": { "fid": 51, "type": "business studio", "nom": null }, "geometry": { "type": "Polygon", "coordinates": [ [ [ 2.288117358158064, 48.826671279513711 ], [ 2.288159218920888, 48.826672465972422 ], [ 2.288159129830699, 48.826627007340988 ], [ 2.288118682147203, 48.826626297933892 ], [ 2.288117358158064, 48.826671279513711 ] ] ] } },
{ "type": "Feature", "properties": { "fid": 52, "type": "business studio", "nom": null }, "geometry": { "type": "Polygon", "coordinates": [ [ [ 2.288120101588662, 48.826626306383417 ], [ 2.288160555670424, 48.8266265471879 ], [ 2.288162589341283, 48.826581569830317 ], [ 2.288121425574294, 48.826581324801765 ], [ 2.288120101588662, 48.826626306383417 ] ] ] } },
{ "type": "Feature", "properties": { "fid": 53, "type": "business studio", "nom": null }, "geometry": { "type": "Polygon", "coordinates": [ [ [ 2.28812213529441, 48.826581329026517 ], [ 2.288163299061406, 48.826581574054821 ], [ 2.288163209967815, 48.826536115419728 ], [ 2.28812275595621, 48.826535874616113 ], [ 2.28812213529441, 48.826581329026517 ] ] ] } },
{ "type": "Feature", "properties": { "fid": 54, "type": "business studio", "nom": null }, "geometry": { "type": "Polygon", "coordinates": [ [ [ 2.288180094222621, 48.826755070901655 ], [ 2.28824962783454, 48.826756890679263 ], [ 2.288252499104049, 48.826702545507089 ], [ 2.288183681684299, 48.826700261353345 ], [ 2.288180094222621, 48.826755070901655 ] ] ] } },
{ "type": "Feature", "properties": { "fid": 55, "type": "business studio", "nom": null }, "geometry": { "type": "Polygon", "coordinates": [ [ [ 2.288183688082342, 48.826699792751214 ], [ 2.288253215223244, 48.826702081128936 ], [ 2.288253963720303, 48.826647254680012 ], [ 2.288184436652483, 48.826644966302617 ], [ 2.288183688082342, 48.826699792751214 ] ] ] } },
{ "type": "Feature", "properties": { "fid": 56, "type": "business studio", "nom": null }, "geometry": { "type": "Polygon", "coordinates": [ [ [ 2.288185849696443, 48.826645443353499 ], [ 2.28825467344133, 48.826647258903989 ], [ 2.288256099669457, 48.826594779687134 ], [ 2.288186547079507, 48.826594365719494 ], [ 2.288185849696443, 48.826645443353499 ] ] ] } },
{ "type": "Feature", "properties": { "fid": 57, "type": "business studio", "nom": null }, "geometry": { "type": "Polygon", "coordinates": [ [ [ 2.288188682638392, 48.826593909790404 ], [ 2.288257519110078, 48.826594788135019 ], [ 2.288257186834517, 48.82656713638324 ], [ 2.288187634281436, 48.826566722416217 ], [ 2.288188682638392, 48.826593909790404 ] ] ] } },
{ "type": "Feature", "properties": { "fid": 58, "type": null, "nom": "viva lounge" }, "geometry": { "type": "Polygon", "coordinates": [ [ [ 2.288370657501153, 48.826833999282982 ], [ 2.288950399443242, 48.826844945924371 ], [ 2.288960909514592, 48.826594754576263 ], [ 2.288381880072545, 48.8265838122066 ], [ 2.288370657501153, 48.826833999282982 ] ] ] } },
{ "type": "Feature", "properties": { "fid": 59, "type": "technical zone", "nom": null }, "geometry": { "type": "Polygon", "coordinates": [ [ [ 2.288934397666811, 48.827237571111716 ], [ 2.288928132105366, 48.827332667759627 ], [ 2.288820278653877, 48.827330151869177 ], [ 2.288690903044667, 48.827240340846792 ], [ 2.28855490345226, 48.827323887050639 ], [ 2.288349107267983, 48.827320788034704 ], [ 2.288353231904274, 48.827226615949826 ], [ 2.288934397666811, 48.827237571111716 ] ] ] } },
{ "type": "Feature", "properties": { "fid": 60, "type": null, "nom": "vicatech news" }, "geometry": { "type": "Polygon", "coordinates": [ [ [ 2.288622903302949, 48.82728211396882 ], [ 2.288687597438686, 48.827326550931645 ], [ 2.288754893849763, 48.82728430495159 ], [ 2.288690186921977, 48.827240805227333 ], [ 2.288622903302949, 48.82728211396882 ] ] ] } },
{ "type": "Feature", "properties": { "fid": 61, "type": "stand", "nom": "microsoft" }, "geometry": { "type": "Polygon", "coordinates": [ [ [ 2.289348726888655, 48.827303300308813 ], [ 2.289345173246654, 48.827407785880489 ], [ 2.289119516984282, 48.827403632895432 ], [ 2.289042181429236, 48.827349279583252 ], [ 2.289123787197878, 48.827298682946996 ], [ 2.289348726888655, 48.827303300308813 ] ] ] } },
{ "type": "Feature", "properties": { "fid": 62, "type": null, "nom": "workshop 1" }, "geometry": { "type": "Polygon", "coordinates": [ [ [ 2.28962189103225, 48.826814265338911 ], [ 2.289895925013508, 48.826819086534925 ], [ 2.289905991340346, 48.826553535775773 ], [ 2.289632757607886, 48.826549251632656 ], [ 2.28962189103225, 48.826814265338911 ] ] ] } },
{ "type": "Feature", "properties": { "fid": 63, "type": null, "nom": "workshop 2" }, "geometry": { "type": "Polygon", "coordinates": [ [ [ 2.289348670466856, 48.82680891606271 ], [ 2.289621898284537, 48.826813733096401 ], [ 2.289633556461864, 48.82654978866362 ], [ 2.289360344536191, 48.826543907170162 ], [ 2.289348670466856, 48.82680891606271 ] ] ] } },
{ "type": "Feature", "properties": { "fid": 64, "type": null, "nom": "media lounge" }, "geometry": { "type": "Polygon", "coordinates": [ [ [ 2.289077047661817, 48.826804640231387 ], [ 2.289348670466857, 48.826808916062703 ], [ 2.289361150642192, 48.826543911960329 ], [ 2.289087917004949, 48.826539626572362 ], [ 2.289077047661817, 48.826804640231387 ] ] ] } },
{ "type": "Feature", "properties": { "fid": 65, "type": null, "nom": "live & podcast studios" }, "geometry": { "type": "Polygon", "coordinates": [ [ [ 2.289168349136342, 48.82684883037507 ], [ 2.289524592052863, 48.826855205606755 ], [ 2.289525985678723, 48.826812098753699 ], [ 2.289169735799676, 48.82680625576841 ], [ 2.289168349136342, 48.82684883037507 ] ] ] } },
{ "type": "Feature", "properties": { "fid": 66, "type": "technical zone", "nom": null }, "geometry": { "type": "Polygon", "coordinates": [ [ [ 2.289886599451934, 48.827089432198576 ], [ 2.289616594622471, 48.827084634924582 ], [ 2.289624637933402, 48.826908496201213 ], [ 2.289895433464145, 48.826914362729305 ], [ 2.289886599451934, 48.827089432198576 ] ] ] } },
{ "type": "Feature", "properties": { "fid": 67, "type": "restaurant", "nom": "picnic" }, "geometry": { "type": "Polygon", "coordinates": [ [ [ 2.289405652099362, 48.826946052049649 ], [ 2.289568457759949, 48.826949148459043 ], [ 2.28957081702574, 48.826894337063578 ], [ 2.289408011536175, 48.826891240657254 ], [ 2.289405652099362, 48.826946052049649 ] ] ] } },
{ "type": "Feature", "properties": { "fid": 68, "type": "stand", "nom": "renault software republique" }, "geometry": { "type": "Polygon", "coordinates": [ [ [ 2.289399539475089, 48.827098781668539 ], [ 2.289560726130003, 48.82710240075059 ], [ 2.289567325268827, 48.826973094579955 ], [ 2.289404526788058, 48.826969465926673 ], [ 2.289399539475089, 48.827098781668539 ] ] ] } },
{ "type": "Feature", "properties": { "fid": 69, "type": "stand", "nom": "total energies" }, "geometry": { "type": "Polygon", "coordinates": [ [ [ 2.289122215915019, 48.827275981412555 ], [ 2.289350318095769, 48.827279466232966 ], [ 2.289355646535553, 48.827125135123964 ], [ 2.289129171774222, 48.827120595412019 ], [ 2.289122215915019, 48.827275981412555 ] ] ] } },
{ "type": "Feature", "properties": { "fid": 70, "type": null, "nom": null }, "geometry": { "type": "Polygon", "coordinates": [ [ [ 2.289392221689958, 48.827280779801882 ], [ 2.289555028395019, 48.827283876228627 ], [ 2.289560356229273, 48.827129545111106 ], [ 2.289399154981254, 48.827126990513349 ], [ 2.289392221689958, 48.827280779801882 ] ] ] } },
{ "type": "Feature", "properties": { "fid": 71, "type": null, "nom": "urban features arena" }, "geometry": { "type": "Polygon", "coordinates": [ [ [ 2.289652776635136, 48.82715085324029 ], [ 2.289731032696182, 48.827205877296798 ], [ 2.289816067087946, 48.827207180728138 ], [ 2.289821718111902, 48.827088248495151 ], [ 2.289655277235126, 48.827085663126581 ], [ 2.289652776635136, 48.82715085324029 ] ] ] } },
{ "type": "Feature", "properties": { "fid": 72, "type": "startup", "nom": null }, "geometry": { "type": "Polygon", "coordinates": [ [ [ 2.289594594362212, 48.827131345357721 ], [ 2.289603309325435, 48.827142575121243 ], [ 2.289623970423627, 48.827134979712575 ], [ 2.289624986855498, 48.827119549472464 ], [ 2.289605640097331, 48.827119434549907 ], [ 2.289594594362212, 48.827131345357721 ] ] ] } },
{ "type": "Feature", "properties": { "fid": 73, "type": "startup", "nom": null }, "geometry": { "type": "Polygon", "coordinates": [ [ [ 2.28962437348121, 48.827134982106763 ], [ 2.289644010895128, 48.827143349176964 ], [ 2.289652612894102, 48.827133286848436 ], [ 2.28964433361375, 48.827119664391887 ], [ 2.289624986855498, 48.827119549472464 ], [ 2.28962437348121, 48.827134982106763 ] ] ] } },
{ "type": "Feature", "properties": { "fid": 74, "type": "startup", "nom": null }, "geometry": { "type": "Polygon", "coordinates": [ [ [ 2.289603712383074, 48.827142577515509 ], [ 2.28961263069211, 48.82715367541477 ], [ 2.289634802493194, 48.82715354097413 ], [ 2.289644413952775, 48.827143351571074 ], [ 2.289623972236706, 48.827134846651987 ], [ 2.289603712383074, 48.827142577515509 ] ] ] } },
{ "type": "Feature", "properties": { "fid": 75, "type": "startup", "nom": null }, "geometry": { "type": "Polygon", "coordinates": [ [ [ 2.289622289849579, 48.827169568282748 ], [ 2.289642740644144, 48.827177407898944 ], [ 2.28965235391958, 48.827167085434887 ], [ 2.289642858208631, 48.82715398803871 ], [ 2.28962331534802, 48.827153472740186 ], [ 2.289622289849579, 48.827169568282748 ] ] ] } },
{ "type": "Feature", "properties": { "fid": 76, "type": "startup", "nom": null }, "geometry": { "type": "Polygon", "coordinates": [ [ [ 2.289623513250724, 48.827153740058442 ], [ 2.289604569537598, 48.827153627529917 ], [ 2.289591913376883, 48.827165395699495 ], [ 2.289602235137429, 48.827177034221684 ], [ 2.289622495004668, 48.827169303358666 ], [ 2.289623513250724, 48.827153740058442 ] ] ] } },
{ "type": "Feature", "properties": { "fid": 77, "type": "startup", "nom": null }, "geometry": { "type": "Polygon", "coordinates": [ [ [ 2.28960244029265, 48.827176769297658 ], [ 2.28961075039405, 48.827188129726487 ], [ 2.289632922209793, 48.827187995286195 ], [ 2.289642943986131, 48.827177276035414 ], [ 2.289622291662663, 48.827169435222167 ], [ 2.28960244029265, 48.827176769297658 ] ] ] } },
{ "type": "Feature", "properties": { "fid": 78, "type": "startup", "nom": null }, "geometry": { "type": "Polygon", "coordinates": [ [ [ 2.289632924022849, 48.827187862225635 ], [ 2.289642419737473, 48.827200959622189 ], [ 2.289661762900008, 48.827201340659947 ], [ 2.289662782947948, 48.82718564429927 ], [ 2.289642945799161, 48.827177142974826 ], [ 2.289632924022849, 48.827187862225635 ] ] ] } },
{ "type": "Feature", "properties": { "fid": 79, "type": "startup", "nom": null }, "geometry": { "type": "Polygon", "coordinates": [ [ [ 2.289661964429056, 48.827201341856984 ], [ 2.289680703004724, 48.827201719300604 ], [ 2.289692968786528, 48.827189017303958 ], [ 2.289683436802834, 48.827178581122965 ], [ 2.289662782947948, 48.82718564429927 ], [ 2.289661964429056, 48.827201341856984 ] ] ] } },
{ "type": "Feature", "properties": { "fid": 80, "type": "startup", "nom": null }, "geometry": { "type": "Polygon", "coordinates": [ [ [ 2.28964334704404, 48.827177278429531 ], [ 2.289662984476935, 48.8271856454963 ], [ 2.289683436802834, 48.827178581122965 ], [ 2.289674120855484, 48.827167081653442 ], [ 2.289652357545592, 48.827166819313717 ], [ 2.28964334704404, 48.827177278429531 ] ] ] } },
{ "type": "Feature", "properties": { "fid": 81, "type": "startup", "nom": null }, "geometry": { "type": "Polygon", "coordinates": [ [ [ 2.289589739599088, 48.827236176745807 ], [ 2.289607969967311, 48.827244269319927 ], [ 2.289624382674539, 48.827237846317423 ], [ 2.2896134853193, 48.827224075237176 ], [ 2.28958930363632, 48.827223798520592 ], [ 2.289589739599088, 48.827236176745807 ] ] ] } },
{ "type": "Feature", "properties": { "fid": 82, "type": "startup", "nom": null }, "geometry": { "type": "Polygon", "coordinates": [ [ [ 2.289624384487619, 48.827237713256871 ], [ 2.289641403591288, 48.827231160782688 ], [ 2.28964240188954, 48.827217061149554 ], [ 2.289625956277978, 48.827211108323617 ], [ 2.289613283790166, 48.82722407404006 ], [ 2.289624384487619, 48.827237713256871 ] ] ] } },
{ "type": "Feature", "properties": { "fid": 83, "type": "startup", "nom": null }, "geometry": { "type": "Polygon", "coordinates": [ [ [ 2.289589503352286, 48.827223932778331 ], [ 2.289613283790166, 48.82722407404006 ], [ 2.289625956277978, 48.827211108323617 ], [ 2.289609920980758, 48.827204625647312 ], [ 2.289590681435532, 48.827211431069649 ], [ 2.289589503352286, 48.827223932778331 ] ] ] } },
{ "type": "Feature", "properties": { "fid": 84, "type": "startup", "nom": null }, "geometry": { "type": "Polygon", "coordinates": [ [ [ 2.289628033769855, 48.827236138077573 ], [ 2.289627632802774, 48.827250773543923 ], [ 2.289643261431795, 48.827257519944624 ], [ 2.289656329726716, 48.82724508886178 ], [ 2.289645049246499, 48.827229851724063 ], [ 2.289628033769855, 48.827236138077573 ] ] ] } },
{ "type": "Feature", "properties": { "fid": 85, "type": "startup", "nom": null }, "geometry": { "type": "Polygon", "coordinates": [ [ [ 2.289643464774091, 48.827257388081115 ], [ 2.289659487400769, 48.827264802176636 ], [ 2.289678737834364, 48.827257198380089 ], [ 2.289680115613241, 48.827244830928485 ], [ 2.28965653488193, 48.827244823937669 ], [ 2.289643464774091, 48.827257388081115 ] ] ] } },
{ "type": "Feature", "properties": { "fid": 86, "type": "startup", "nom": null }, "geometry": { "type": "Polygon", "coordinates": [ [ [ 2.28965653488193, 48.827244823937669 ], [ 2.289680518671675, 48.827244833322482 ], [ 2.289679676003067, 48.827232718824874 ], [ 2.289660837414365, 48.827224888791669 ], [ 2.289644845904313, 48.827229983587571 ], [ 2.28965653488193, 48.827244823937669 ] ] ] } },
{ "type": "Feature", "properties": { "fid": 87, "type": "startup", "nom": null }, "geometry": { "type": "Polygon", "coordinates": [ [ [ 2.289680317142459, 48.827244832125494 ], [ 2.289698360501653, 48.82725185900415 ], [ 2.289714373767396, 48.827245167474267 ], [ 2.28970306788989, 48.827231793190123 ], [ 2.289679708635965, 48.827230323734462 ], [ 2.289680317142459, 48.827244832125494 ] ] ] } },
{ "type": "Feature", "properties": { "fid": 88, "type": "startup", "nom": null }, "geometry": { "type": "Polygon", "coordinates": [ [ [ 2.289714776825835, 48.827245169868149 ], [ 2.289731594391383, 48.827238616184268 ], [ 2.289731575955658, 48.827225175868804 ], [ 2.289716350383136, 48.827218431873312 ], [ 2.289702866360723, 48.827231791993157 ], [ 2.289714776825835, 48.827245169868149 ] ] ] } },
{ "type": "Feature", "properties": { "fid": 89, "type": "startup", "nom": null }, "geometry": { "type": "Polygon", "coordinates": [ [ [ 2.289680111694286, 48.827230326128465 ], [ 2.289703069702769, 48.827231660129542 ], [ 2.289716755254211, 48.827218301206628 ], [ 2.289699913827131, 48.827211813754651 ], [ 2.289680872194242, 48.827218886509591 ], [ 2.289680111694286, 48.827230326128465 ] ] ] } },
{ "type": "Feature", "properties": { "fid": 90, "type": "startup", "nom": null }, "geometry": { "type": "Polygon", "coordinates": [ [ [ 2.289762611443649, 48.82722536018953 ], [ 2.289785990637026, 48.827225365962612 ], [ 2.289798655831664, 48.827212932470225 ], [ 2.289782012299844, 48.827206712347746 ], [ 2.289762778214489, 48.827213118616015 ], [ 2.289762611443649, 48.82722536018953 ] ] ] } },
{ "type": "Feature", "properties": { "fid": 91, "type": "startup", "nom": null }, "geometry": { "type": "Polygon", "coordinates": [ [ [ 2.289762811160066, 48.827225494446971 ], [ 2.289762431983635, 48.827238533186971 ], [ 2.289780876597481, 48.827245695507521 ], [ 2.289797285658578, 48.82723953860247 ], [ 2.289786193978838, 48.827225234098847 ], [ 2.289762811160066, 48.827225494446971 ] ] ] } },
{ "type": "Feature", "properties": { "fid": 92, "type": "startup", "nom": null }, "geometry": { "type": "Polygon", "coordinates": [ [ [ 2.289797489000416, 48.827239406738705 ], [ 2.289814092336364, 48.82723378327043 ], [ 2.28981469840528, 48.827218882878853 ], [ 2.289798657644299, 48.827212799409629 ], [ 2.289786399133314, 48.827224969174523 ], [ 2.289797489000416, 48.827239406738705 ] ] ] } },
{ "type": "Feature", "properties": { "fid": 93, "type": "startup", "nom": null }, "geometry": { "type": "Polygon", "coordinates": [ [ [ 2.28978854228239, 48.827259979665527 ], [ 2.289812723983209, 48.827260256341816 ], [ 2.289813695046726, 48.827248152616292 ], [ 2.289794250032067, 48.827240452074449 ], [ 2.289778647087227, 48.827246613766427 ], [ 2.28978854228239, 48.827259979665527 ] ] ] } },
{ "type": "Feature", "properties": { "fid": 94, "type": "startup", "nom": null }, "geometry": { "type": "Polygon", "coordinates": [ [ [ 2.289778648899914, 48.827246480705831 ], [ 2.289761635246685, 48.827252634017711 ], [ 2.289760827632903, 48.82726753321171 ], [ 2.289778077582293, 48.827273623866731 ], [ 2.289788540469728, 48.827260112726108 ], [ 2.289778648899914, 48.827246480705831 ] ] ] } },
{ "type": "Feature", "properties": { "fid": 95, "type": "startup", "nom": null }, "geometry": { "type": "Polygon", "coordinates": [ [ [ 2.289788743811668, 48.827259980862337 ], [ 2.289812725795809, 48.827260123281235 ], [ 2.289811945385554, 48.827273026566843 ], [ 2.289792900120205, 48.827280365460389 ], [ 2.289777877865653, 48.827273489609318 ], [ 2.289788743811668, 48.827259980862337 ] ] ] } },
{ "type": "Feature", "properties": { "fid": 96, "type": "startup", "nom": null }, "geometry": { "type": "Polygon", "coordinates": [ [ [ 2.289793103462212, 48.827280233596618 ], [ 2.289792299482303, 48.827294866669341 ], [ 2.289775492782422, 48.827300621997992 ], [ 2.289765002058358, 48.82728658720486 ], [ 2.289778077582293, 48.827273623866731 ], [ 2.289793103462212, 48.827280233596618 ] ] ] } },
{ "type": "Feature", "properties": { "fid": 97, "type": "startup", "nom": null }, "geometry": { "type": "Polygon", "coordinates": [ [ [ 2.289775694311856, 48.82730062319483 ], [ 2.28975928885446, 48.827306513975451 ], [ 2.289739638671066, 48.827299078349419 ], [ 2.289740410035678, 48.827286840367421 ], [ 2.28976500387108, 48.827286454144279 ], [ 2.289775694311856, 48.82730062319483 ] ] ] } },
{ "type": "Feature", "properties": { "fid": 98, "type": "startup", "nom": null }, "geometry": { "type": "Polygon", "coordinates": [ [ [ 2.289740811281655, 48.827286975821799 ], [ 2.289765405117117, 48.827286589598565 ], [ 2.289778484266331, 48.827273360139245 ], [ 2.289761027349476, 48.827267667469151 ], [ 2.289741192276628, 48.827273804021864 ], [ 2.289740811281655, 48.827286975821799 ] ] ] } },
{ "type": "Feature", "properties": { "fid": 99, "type": "startup", "nom": null }, "geometry": { "type": "Polygon", "coordinates": [ [ [ 2.28972140856802, 48.82730575671615 ], [ 2.28974004354271, 48.827298947682628 ], [ 2.289740611565059, 48.827286841564323 ], [ 2.289717441124875, 48.827286304737022 ], [ 2.289704563486354, 48.827299535386487 ], [ 2.28972140856802, 48.82730575671615 ] ] ] } },
{ "type": "Feature", "properties": { "fid": 100, "type": "startup", "nom": null }, "geometry": { "type": "Polygon", "coordinates": [ [ [ 2.289717642654254, 48.82728630593396 ], [ 2.289741014623819, 48.827286843958127 ], [ 2.289741192276628, 48.827273804021864 ], [ 2.28972275490961, 48.827266109453063 ], [ 2.289705330933232, 48.82727279260525 ], [ 2.289717642654254, 48.82728630593396 ] ] ] } },
{ "type": "Feature", "properties": { "fid": 101, "type": "startup", "nom": null }, "geometry": { "type": "Polygon", "coordinates": [ [ [ 2.289705169887517, 48.827299405916783 ], [ 2.289717442937719, 48.827286171676441 ], [ 2.289705133029657, 48.827272525287157 ], [ 2.289689540942177, 48.827277888603867 ], [ 2.289688333874436, 48.827292519281933 ], [ 2.289705169887517, 48.827299405916783 ] ] ] } },
{ "type": "Feature", "properties": { "fid": 102, "type": "stand", "nom": "capgemini" }, "geometry": { "type": "Polygon", "coordinates": [ [ [ 2.289385240782532, 48.827408486805787 ], [ 2.289547641199708, 48.827411846968346 ], [ 2.289551484790032, 48.827307275733439 ], [ 2.289389887188739, 48.82730418648687 ], [ 2.289385240782532, 48.827408486805787 ] ] ] } },
{ "type": "Feature", "properties": { "fid": 103, "type": "stand", "nom": "french state s digital pavilion" }, "geometry": { "type": "Polygon", "coordinates": [ [ [ 2.289733791308626, 48.827328851600647 ], [ 2.28973019825111, 48.827415060482572 ], [ 2.289582703769008, 48.827412321401241 ], [ 2.289585897637529, 48.827325844008101 ], [ 2.289733791308626, 48.827328851600647 ] ] ] } },
{ "type": "Feature", "properties": { "fid": 104, "type": null, "nom": null }, "geometry": { "type": "Polygon", "coordinates": [ [ [ 2.289767786674321, 48.827348481913326 ], [ 2.289810503703442, 48.827349267880756 ], [ 2.289810365285163, 48.82732983864426 ], [ 2.289767230711125, 48.827330114767591 ], [ 2.289767786674321, 48.827348481913326 ] ] ] } },
{ "type": "Feature", "properties": { "fid": 105, "type": null, "nom": null }, "geometry": { "type": "Polygon", "coordinates": [ [ [ 2.28976818973356, 48.827348484307031 ], [ 2.28981091401312, 48.827348738032043 ], [ 2.289810656622697, 48.827367632632409 ], [ 2.289767126208884, 48.827367374119895 ], [ 2.28976818973356, 48.827348484307031 ] ] ] } },
{ "type": "Feature", "properties": { "fid": 106, "type": null, "nom": null }, "geometry": { "type": "Polygon", "coordinates": [ [ [ 2.289767536519146, 48.827366844271346 ], [ 2.289810660247915, 48.827367366511282 ], [ 2.289810391981644, 48.827387059474709 ], [ 2.289766069934331, 48.827385731690171 ], [ 2.289767536519146, 48.827366844271346 ] ] ] } },
{ "type": "Feature", "properties": { "fid": 107, "type": null, "nom": null }, "geometry": { "type": "Polygon", "coordinates": [ [ [ 2.289761870839486, 48.827486840956645 ], [ 2.289803785486511, 48.827487356017819 ], [ 2.289806859359991, 48.827409660621534 ], [ 2.289764142281443, 48.827408874652846 ], [ 2.289761870839486, 48.827486840956645 ] ] ] } },
{ "type": "Feature", "properties": { "fid": 108, "type": null, "nom": null }, "geometry": { "type": "Polygon", "coordinates": [ [ [ 2.289576431518501, 48.827547218459166 ], [ 2.289724343945392, 48.827548895457404 ], [ 2.289729421750799, 48.827442468563341 ], [ 2.289580311325053, 48.827439986024892 ], [ 2.289576431518501, 48.827547218459166 ] ] ] } },
{ "type": "Feature", "properties": { "fid": 109, "type": null, "nom": null }, "geometry": { "type": "Polygon", "coordinates": [ [ [ 2.289757740612932, 48.827582893913409 ], [ 2.289800461459253, 48.827583413763186 ], [ 2.289802671218134, 48.827509971524002 ], [ 2.289759950431972, 48.827509451674999 ], [ 2.289757740612932, 48.827582893913409 ] ] ] } },
{ "type": "Feature", "properties": { "fid": 110, "type": "stand", "nom": "business france" }, "geometry": { "type": "Polygon", "coordinates": [ [ [ 2.289379781397877, 48.827542856401699 ], [ 2.289542185859863, 48.82754595045018 ], [ 2.289546457916968, 48.827439518774668 ], [ 2.289384053786272, 48.82743642473168 ], [ 2.289379781397877, 48.827542856401699 ] ] ] } },
{ "type": "Feature", "properties": { "fid": 111, "type": null, "nom": null }, "geometry": { "type": "Polygon", "coordinates": [ [ [ 2.289755200236482, 48.827651011332073 ], [ 2.289797115015427, 48.827651526395506 ], [ 2.289798944126149, 48.827606026873809 ], [ 2.289756619071516, 48.827606041659401 ], [ 2.289755200236482, 48.827651011332073 ] ] ] } },
{ "type": "Feature", "properties": { "fid": 112, "type": null, "nom": null }, "geometry": { "type": "Polygon", "coordinates": [ [ [ 2.289573049045319, 48.827647534129987 ], [ 2.289719741694916, 48.827650002313852 ], [ 2.289722401765217, 48.827573102900374 ], [ 2.289574097088075, 48.827570625142179 ], [ 2.289573049045319, 48.827647534129987 ] ] ] } },
{ "type": "Feature", "properties": { "fid": 113, "type": null, "nom": null }, "geometry": { "type": "Polygon", "coordinates": [ [ [ 2.289462228884717, 48.82764527890297 ], [ 2.289537997197808, 48.827646261331196 ], [ 2.289539048918865, 48.827569086222539 ], [ 2.289463280717914, 48.827568103794889 ], [ 2.289462228884717, 48.82764527890297 ] ] ] } },
{ "type": "Feature", "properties": { "fid": 114, "type": "restaurant", "nom": "picnic" }, "geometry": { "type": "Polygon", "coordinates": [ [ [ 2.289375588796137, 48.82764343339835 ], [ 2.289427983164444, 48.827644010861398 ], [ 2.289428624733033, 48.827567365600828 ], [ 2.289377842685381, 48.82756679771812 ], [ 2.289375588796137, 48.82764343339835 ] ] ] } },
{ "type": "Feature", "properties": { "fid": 115, "type": null, "nom": null }, "geometry": { "type": "Polygon", "coordinates": [ [ [ 2.289611115611152, 48.82769380292433 ], [ 2.289752978900683, 48.827695710094339 ], [ 2.289751312896335, 48.827729234164856 ], [ 2.289609068211119, 48.827725727872462 ], [ 2.289611115611152, 48.82769380292433 ] ] ] } },
{ "type": "Feature", "properties": { "fid": 116, "type": null, "nom": null }, "geometry": { "type": "Polygon", "coordinates": [ [ [ 2.289390273968479, 48.827689829470373 ], [ 2.289534962298942, 48.827691487542751 ], [ 2.289534120412093, 48.827723685794169 ], [ 2.289387816116457, 48.82772228426191 ], [ 2.289390273968479, 48.827689829470373 ] ] ] } },
{ "type": "Feature", "properties": { "fid": 117, "type": null, "nom": null }, "geometry": { "type": "Polygon", "coordinates": [ [ [ 2.289235241952344, 48.827825971606117 ], [ 2.289350499807036, 48.827827987268385 ], [ 2.289355341806639, 48.827679774623718 ], [ 2.289241297092852, 48.827677500031228 ], [ 2.289235241952344, 48.827825971606117 ] ] ] } },
{ "type": "Feature", "properties": { "fid": 118, "type": "stand", "nom": "kpmg" }, "geometry": { "type": "Polygon", "coordinates": [ [ [ 2.289018030973542, 48.82782175290366 ], [ 2.289201395553434, 48.827824972016373 ], [ 2.289207850223647, 48.827676768959698 ], [ 2.289117183103192, 48.827674633190902 ], [ 2.289021229433059, 48.82773500943614 ], [ 2.289018030973542, 48.82782175290366 ] ] ] } },
{ "type": "Feature", "properties": { "fid": 119, "type": "stand", "nom": "envision energy" }, "geometry": { "type": "Polygon", "coordinates": [ [ [ 2.289013224086849, 48.827937762482755 ], [ 2.289343681968099, 48.827943718763564 ], [ 2.289348176145441, 48.827850595578127 ], [ 2.289017323049504, 48.827844104671009 ], [ 2.289013224086849, 48.827937762482755 ] ] ] } },
{ "type": "Feature", "properties": { "fid": 120, "type": null, "nom": null }, "geometry": { "type": "Polygon", "coordinates": [ [ [ 2.289377524819358, 48.827944984433927 ], [ 2.289420249585849, 48.827945238298362 ], [ 2.289429716440325, 48.827723863938211 ], [ 2.289388596848899, 48.827724151899119 ], [ 2.289377524819358, 48.827944984433927 ] ] ] } },
{ "type": "Feature", "properties": { "fid": 121, "type": null, "nom": "stage" }, "geometry": { "type": "Polygon", "coordinates": [ [ [ 2.289432948191675, 48.827723350854853 ], [ 2.289855292065481, 48.827730650072944 ], [ 2.289845254253807, 48.827994071581386 ], [ 2.289420497116979, 48.827986225718391 ], [ 2.289432948191675, 48.827723350854853 ] ] ] } },
{ "type": "Feature", "properties": { "fid": 122, "type": null, "nom": "stage" }, "geometry": { "type": "Polygon", "coordinates": [ [ [ 2.288246598675693, 48.82722446448301 ], [ 2.289042896606787, 48.827239846769707 ], [ 2.289059045162978, 48.826883311481119 ], [ 2.288261125918491, 48.826868984186746 ], [ 2.288246598675693, 48.82722446448301 ] ] ] } },
{ "type": "Feature", "properties": { "fid": 123, "type": "escaliers", "nom": null }, "geometry": { "type": "Polygon", "coordinates": [ [ [ 2.287960284299663, 48.827056154744881 ], [ 2.288235154578451, 48.827058855575743 ], [ 2.288241641194991, 48.826878981649095 ], [ 2.288116701247253, 48.826877705697939 ], [ 2.288111899709731, 48.826993183096072 ], [ 2.287964395602349, 48.826991240381382 ], [ 2.287960284299663, 48.827056154744881 ] ] ] } },
{ "type": "Feature", "properties": { "fid": 124, "type": "sanitaires", "nom": null }, "geometry": { "type": "Polygon", "coordinates": [ [ [ 2.287974715908176, 48.826943928407779 ], [ 2.288064201615761, 48.826943928876325 ], [ 2.288064659512532, 48.82691039760752 ], [ 2.288115430004994, 48.82691176441174 ], [ 2.288111100864634, 48.826992646055146 ], [ 2.287971657886614, 48.826990751334947 ], [ 2.287974715908176, 48.826943928407779 ] ] ] } },
{ "type": "Feature", "properties": { "fid": 125, "type": "restaurant", "nom": null }, "geometry": { "type": "Polygon", "coordinates": [ [ [ 2.287979559849599, 48.826943424962309 ], [ 2.288064201615761, 48.826943928876325 ], [ 2.288064238615707, 48.826882183962667 ], [ 2.287981194633888, 48.826882754132328 ], [ 2.287979559849599, 48.826943424962309 ] ] ] } },
{ "type": "Feature", "properties": { "fid": 126, "type": "escaliers", "nom": null }, "geometry": { "type": "Polygon", "coordinates": [ [ [ 2.287944825252804, 48.827420678261689 ], [ 2.288221266091618, 48.827426582175683 ], [ 2.288213145291662, 48.827608043143826 ], [ 2.288082568009338, 48.827606201330426 ], [ 2.288091443878937, 48.827487554537583 ], [ 2.287942318863218, 48.827486134441187 ], [ 2.287944825252804, 48.827420678261689 ] ] ] } },
{ "type": "Feature", "properties": { "fid": 127, "type": "sanitaires", "nom": null }, "geometry": { "type": "Polygon", "coordinates": [ [ [ 2.288033910620046, 48.82756811941006 ], [ 2.28808629399569, 48.827569495824008 ], [ 2.288091443878937, 48.827487554537583 ], [ 2.287947141046899, 48.827487227723566 ], [ 2.287946828459199, 48.827510114133148 ], [ 2.288034681091198, 48.827511701750666 ], [ 2.288033910620046, 48.82756811941006 ] ] ] } },
{ "type": "Feature", "properties": { "fid": 128, "type": "restaurant", "nom": null }, "geometry": { "type": "Polygon", "coordinates": [ [ [ 2.287949717758803, 48.827593700134756 ], [ 2.288033525383844, 48.82759632823867 ], [ 2.288034681091198, 48.827511701750666 ], [ 2.287952471304873, 48.827510147730813 ], [ 2.287949717758803, 48.827593700134756 ] ] ] } },
{ "type": "Feature", "properties": { "fid": 129, "type": "escaliers", "nom": null }, "geometry": { "type": "Polygon", "coordinates": [ [ [ 2.28932384912534, 48.827446978826806 ], [ 2.289322949452381, 48.82751297685666 ], [ 2.289175465600076, 48.827509438910099 ], [ 2.289170651835491, 48.827625980769902 ], [ 2.289041664944801, 48.827625746312862 ], [ 2.289048206915149, 48.827441614495946 ], [ 2.28932384912534, 48.827446978826806 ] ] ] } },
{ "type": "Feature", "properties": { "fid": 130, "type": "sanitaires", "nom": null }, "geometry": { "type": "Polygon", "coordinates": [ [ [ 2.289171944176777, 48.827590325340225 ], [ 2.289222708103926, 48.827592223915659 ], [ 2.289225902909387, 48.827535288380901 ], [ 2.289309725016001, 48.827536851106359 ], [ 2.289309245395729, 48.82751289541892 ], [ 2.289176271720988, 48.827509443701501 ], [ 2.289171944176777, 48.827590325340225 ] ] ] } },
{ "type": "Feature", "properties": { "fid": 131, "type": "restaurant", "nom": null }, "geometry": { "type": "Polygon", "coordinates": [ [ [ 2.289220725778497, 48.827619358681119 ], [ 2.289303756408767, 48.827619852135328 ], [ 2.289308105517712, 48.827537373767505 ], [ 2.289225902909387, 48.827535288380901 ], [ 2.289220725778497, 48.827619358681119 ] ] ] } },
{ "type": "Feature", "properties": { "fid": 132, "type": "escaliers", "nom": null }, "geometry": { "type": "Polygon", "coordinates": [ [ [ 2.289345034862733, 48.827016485826697 ], [ 2.289342508485016, 48.827083538786233 ], [ 2.289066889968395, 48.827076577769589 ], [ 2.289073395491254, 48.826895107073383 ], [ 2.289205568737378, 48.826898021873433 ], [ 2.289195896646971, 48.827016131777633 ], [ 2.289345034862733, 48.827016485826697 ] ] ] } },
{ "type": "Feature", "properties": { "fid": 133, "type": "sanitaires", "nom": null }, "geometry": { "type": "Polygon", "coordinates": [ [ [ 2.289195896646971, 48.827016131777633 ], [ 2.289339392069594, 48.827016452294743 ], [ 2.289340959977147, 48.826960571631943 ], [ 2.289249070415925, 48.826959493261178 ], [ 2.289249433221413, 48.826932881139932 ], [ 2.289202678725391, 48.826932603258207 ], [ 2.289195896646971, 48.827016131777633 ] ] ] } },
{ "type": "Feature", "properties": { "fid": 134, "type": "restaurant", "nom": null }, "geometry": { "type": "Polygon", "coordinates": [ [ [ 2.28924987652834, 48.826959498052084 ], [ 2.289334518332863, 48.826960001067029 ], [ 2.289336049967853, 48.826906781613729 ], [ 2.289250631162483, 48.826904144839176 ], [ 2.28924987652834, 48.826959498052084 ] ] ] } },
{ "type": "Feature", "properties": { "fid": 135, "type": "escaliers", "nom": null }, "geometry": { "type": "Polygon", "coordinates": [ [ [ 2.288016896406935, 48.828046542527055 ], [ 2.288261102669892, 48.828051722131121 ], [ 2.288265359002513, 48.8279761629774 ], [ 2.288020288814729, 48.827975236517382 ], [ 2.288016896406935, 48.828046542527055 ] ] ] } },
{ "type": "Feature", "properties": { "fid": 136, "type": "escaliers", "nom": null }, "geometry": { "type": "Polygon", "coordinates": [ [ [ 2.288946988015962, 48.82806538324423 ], [ 2.289196045750721, 48.828069525212925 ], [ 2.289197010905045, 48.827998737039465 ], [ 2.288949573024482, 48.827994072416466 ], [ 2.288946988015962, 48.82806538324423 ] ] ] } },
{ "type": "Feature", "properties": { "fid": 138, "type": "escaliers", "nom": null }, "geometry": { "type": "Polygon", "coordinates": [ [ [ 2.288450731693053, 48.82809809476133 ], [ 2.2887094558433, 48.828102827540086 ], [ 2.288709651911347, 48.828088457010224 ], [ 2.28845254009185, 48.828083733824378 ], [ 2.288450731693053, 48.82809809476133 ] ] ] } },
{ "type": "Feature", "properties": { "fid": 139, "type": "escaliers", "nom": null }, "geometry": { "type": "Polygon", "coordinates": [ [ [ 2.288501706741517, 48.828084558628781 ], [ 2.288760430829217, 48.828089291297317 ], [ 2.288760612360652, 48.828075985250926 ], [ 2.288502694468504, 48.82807125737866 ], [ 2.288501706741517, 48.828084558628781 ] ] ] } },
{ "type": "Feature", "properties": { "fid": 140, "type": "escaliers", "nom": null }, "geometry": { "type": "Polygon", "coordinates": [ [ [ 2.288451922836732, 48.828069890740252 ], [ 2.288711445714974, 48.828075160552949 ], [ 2.288711656305876, 48.828059725538992 ], [ 2.288453731234224, 48.828055529802938 ], [ 2.288451922836732, 48.828069890740252 ] ] ] } },
{ "type": "Feature", "properties": { "fid": 141, "type": "escaliers", "nom": null }, "geometry": { "type": "Polygon", "coordinates": [ [ [ 2.288268473665776, 48.828102333080231 ], [ 2.288341018100539, 48.828103297076296 ], [ 2.288340400874802, 48.828089453991836 ], [ 2.288269461452607, 48.828089031832228 ], [ 2.288268473665776, 48.828102333080231 ] ] ] } },
{ "type": "Feature", "properties": { "fid": 142, "type": "escaliers", "nom": null }, "geometry": { "type": "Polygon", "coordinates": [ [ [ 2.288271080978444, 48.82808850918542 ], [ 2.288340400874802, 48.828089453991836 ], [ 2.288340582513439, 48.828076147946071 ], [ 2.288269657641885, 48.828074661302914 ], [ 2.288271080978444, 48.82808850918542 ] ] ] } },
{ "type": "Feature", "properties": { "fid": 143, "type": null, "nom": null }, "geometry": { "type": "Polygon", "coordinates": [ [ [ 2.289006155670934, 48.828160481749954 ], [ 2.2892939081553, 48.828164853550241 ], [ 2.289294786108856, 48.828100452284588 ], [ 2.289008668015988, 48.828094493345631 ], [ 2.289006155670934, 48.828160481749954 ] ] ] } },
{ "type": "Feature", "properties": { "fid": 145, "type": "escaliers", "nom": null }, "geometry": { "type": "Polygon", "coordinates": [ [ [ 2.288500246859442, 48.828132455597377 ], [ 2.288758172315412, 48.828136651232832 ], [ 2.288757533194636, 48.828124404876462 ], [ 2.288499622327154, 48.828119144755924 ], [ 2.288500246859442, 48.828132455597377 ] ] ] } }
]
}
