{
"type": "FeatureCollection",
"name": "deuxieme_etage_jcd",
"crs": { "type": "name", "properties": { "name": "urn:ogc:def:crs:OGC:1.3:CRS84" } },
"features": [
{ "type": "Feature", "properties": { "fid": 1, "pièce": "bureau" }, "geometry": { "type": "Polygon", "coordinates": [ [ [ 1.945878255882813, 48.799416358155071 ], [ 1.945965934164565, 48.799414893623904 ], [ 1.945963457768874, 48.799348857041267 ], [ 1.945875356250424, 48.799350317836932 ], [ 1.945878255882813, 48.799416358155071 ] ] ] } },
{ "type": "Feature", "properties": { "fid": 2, "pièce": "bureau" }, "geometry": { "type": "Polygon", "coordinates": [ [ [ 1.94587920887881, 48.79945301033608 ], [ 1.945966875919309, 48.799452105151509 ], [ 1.945965939815983, 48.799414613950248 ], [ 1.945878261534701, 48.799416078481414 ], [ 1.94587920887881, 48.79945301033608 ] ] ] } },
{ "type": "Feature", "properties": { "fid": 3, "pièce": "bureau" }, "geometry": { "type": "Polygon", "coordinates": [ [ [ 1.945880167528033, 48.799489382842275 ], [ 1.945968263629807, 48.799488201716862 ], [ 1.945966458222271, 48.79945182174442 ], [ 1.945878367833787, 48.799452723194911 ], [ 1.945880167528033, 48.799489382842275 ] ] ] } },
{ "type": "Feature", "properties": { "fid": 4, "pièce": "degagement" }, "geometry": { "type": "Polygon", "coordinates": [ [ [ 1.945881730387835, 48.799516809525485 ], [ 1.945968974186535, 48.79951590060567 ], [ 1.945968257978394, 48.799488481390483 ], [ 1.9458810255293, 48.799488830962552 ], [ 1.945881730387835, 48.799516809525485 ] ] ] } },
{ "type": "Feature", "properties": { "fid": 5, "pièce": "bureau" }, "geometry": { "type": "Polygon", "coordinates": [ [ [ 1.945883490523533, 48.799555426885952 ], [ 1.945971163387483, 48.799554242024719 ], [ 1.945969820884486, 48.799515908072557 ], [ 1.945882165040567, 48.799516253912003 ], [ 1.945883490523533, 48.799555426885952 ] ] ] } },
{ "type": "Feature", "properties": { "fid": 6, "pièce": "bureau" }, "geometry": { "type": "Polygon", "coordinates": [ [ [ 1.945884889482821, 48.799590964101775 ], [ 1.945972139056892, 48.799589775506135 ], [ 1.945970745689604, 48.799553958617672 ], [ 1.945883496175408, 48.799555147212331 ], [ 1.945884889482821, 48.799590964101775 ] ] ] } },
{ "type": "Feature", "properties": { "fid": 7, "pièce": "bureau" }, "geometry": { "type": "Polygon", "coordinates": [ [ [ 1.94588586509415, 48.799626497582757 ], [ 1.945973538077494, 48.799625312719854 ], [ 1.945971715707318, 48.799589771772709 ], [ 1.945885312832399, 48.799590967835528 ], [ 1.94588586509415, 48.799626497582757 ] ] ] } },
{ "type": "Feature", "properties": { "fid": 8, "pièce": "bureau" }, "geometry": { "type": "Polygon", "coordinates": [ [ [ 1.94588762523661, 48.79966511493943 ], [ 1.945931670610486, 48.799664664218966 ], [ 1.94593187406907, 48.799654595970082 ], [ 1.945974237336094, 48.799653570952465 ], [ 1.945973961427357, 48.799625316453302 ], [ 1.945885870746019, 48.799626217909179 ], [ 1.94588762523661, 48.79966511493943 ] ] ] } },
{ "type": "Feature", "properties": { "fid": 9, "pièce": "bureau" }, "geometry": { "type": "Polygon", "coordinates": [ [ [ 1.94588833575293, 48.799692813824379 ], [ 1.945976020150464, 48.799691069612599 ], [ 1.945974666337583, 48.799653295012298 ], [ 1.945932726420886, 48.799654323763662 ], [ 1.945932522962468, 48.799664392012538 ], [ 1.94588762523661, 48.79966511493943 ], [ 1.94588833575293, 48.799692813824379 ] ] ] } },
{ "type": "Feature", "properties": { "fid": 10, "pièce": "bureau" }, "geometry": { "type": "Polygon", "coordinates": [ [ [ 1.945889729067343, 48.799728630709417 ], [ 1.945978254575025, 48.799727173637066 ], [ 1.945976020150464, 48.799691069612599 ], [ 1.945888764755195, 48.799692537884539 ], [ 1.945889729067343, 48.799728630709417 ] ] ] } },
{ "type": "Feature", "properties": { "fid": 11, "pièce": "bureau" }, "geometry": { "type": "Polygon", "coordinates": [ [ [ 1.945890704684542, 48.799764164186044 ], [ 1.945979647952096, 48.799762990519966 ], [ 1.945978254575025, 48.799727173637066 ], [ 1.945890152418037, 48.799728634443156 ], [ 1.945890704684542, 48.799764164186044 ] ] ] } },
{ "type": "Feature", "properties": { "fid": 12, "pièce": "bureau" }, "geometry": { "type": "Polygon", "coordinates": [ [ [ 1.945892521353762, 48.799799984802519 ], [ 1.945981052633836, 48.799798248054636 ], [ 1.945980076954456, 48.799762714579828 ], [ 1.945891557038363, 48.799763891979936 ], [ 1.945892521353762, 48.799799984802519 ] ] ] } },
{ "type": "Feature", "properties": { "fid": 13, "pièce": "sanitaire" }, "geometry": { "type": "Polygon", "coordinates": [ [ [ 1.945893350563402, 48.799821810539854 ], [ 1.945944604347366, 48.799820863940532 ], [ 1.94594514021374, 48.799836253452249 ], [ 1.945981136400384, 48.799836011449827 ], [ 1.945980629282571, 48.799798244321224 ], [ 1.945892527005616, 48.799799705128962 ], [ 1.945893350563402, 48.799821810539854 ] ] ] } },
{ "type": "Feature", "properties": { "fid": 14, "pièce": "ascenceur" }, "geometry": { "type": "Polygon", "coordinates": [ [ [ 1.945946076825842, 48.799852765391414 ], [ 1.94598164967217, 48.79985251965531 ], [ 1.945981136400384, 48.799836011449827 ], [ 1.945945134562165, 48.799836533125799 ], [ 1.945946076825842, 48.799852765391414 ] ] ] } },
{ "type": "Feature", "properties": { "fid": 15, "pièce": "bureau" }, "geometry": { "type": "Polygon", "coordinates": [ [ [ 1.945963463420302, 48.799348577367596 ], [ 1.945962747217353, 48.799321158148338 ], [ 1.945818306628943, 48.799323800379234 ], [ 1.945818267063547, 48.799325758094831 ], [ 1.945780893207799, 48.799352281903403 ], [ 1.945780689721254, 48.799362350154709 ], [ 1.945824729188246, 48.799362179147195 ], [ 1.945829794116121, 48.799509638095493 ], [ 1.945746778162015, 48.799510863929726 ], [ 1.94574601060068, 48.799506941030735 ], [ 1.945744368078678, 48.7995044090313 ], [ 1.945741873206519, 48.799502149236929 ], [ 1.945738531636919, 48.799499881973993 ], [ 1.945734332064655, 48.799498166589629 ], [ 1.945729697838482, 48.799497006818029 ], [ 1.945724617652841, 48.799496962006408 ], [ 1.945720807513615, 48.799496928397524 ], [ 1.945716568372829, 48.79949717072779 ], [ 1.945711877619253, 48.79949880769162 ], [ 1.945707175559758, 48.799501004002444 ], [ 1.945704161242441, 48.799503494924274 ], [ 1.945702845973177, 48.799505721109966 ], [ 1.945702354790215, 48.799509073458864 ], [ 1.945702303914644, 48.79951159052132 ], [ 1.94565487187667, 48.799512011280889 ], [ 1.945657636865473, 48.799354271622931 ], [ 1.945617916328286, 48.799329305553243 ], [ 1.94561795024793, 48.799327627511353 ], [ 1.945508681384396, 48.799328901300385 ], [ 1.945508816385005, 48.79934316839109 ], [ 1.945493146872138, 48.79934330986584 ], [ 1.945492875482724, 48.799356734200352 ], [ 1.945468298702896, 48.799357636254612 ], [ 1.945486543069643, 48.799837522956416 ], [ 1.945507710647216, 48.799837709712278 ], [ 1.945507501452127, 48.799848057632317 ], [ 1.945528669034053, 48.799848244384464 ], [ 1.945529628129762, 48.799863637632669 ], [ 1.94598199955595, 48.799856159144653 ], [ 1.945982067372497, 48.799852803062237 ], [ 1.945945659125708, 48.799852481984352 ], [ 1.94594460999894, 48.799820584266989 ], [ 1.945893356215251, 48.799821530866318 ], [ 1.94587536190232, 48.799350038163276 ], [ 1.945963463420302, 48.799348577367596 ] ] ] } },
{ "type": "Feature", "properties": { "fid": 16, "pièce": "escalier" }, "geometry": { "type": "Polygon", "coordinates": [ [ [ 1.945794642025638, 48.799510027357378 ], [ 1.945830220291109, 48.799509501992645 ], [ 1.945824308666612, 48.799362035576436 ], [ 1.945788741806384, 48.799362001592193 ], [ 1.945794642025638, 48.799510027357378 ] ] ] } }
]
}
