{
"type": "FeatureCollection",
"name": "premier_etage_jcd",
"crs": { "type": "name", "properties": { "name": "urn:ogc:def:crs:OGC:1.3:CRS84" } },
"features": [
{ "type": "Feature", "properties": { "fid": 1, "piece": "local" }, "geometry": { "type": "Polygon", "coordinates": [ [ [ 1.947569003149109, 48.80009231407174 ], [ 1.947570417446862, 48.800137641688821 ], [ 1.947496282506221, 48.800139366530679 ], [ 1.947569003149109, 48.80009231407174 ] ] ] } },
{ "type": "Feature", "properties": { "fid": 2, "piece": "local" }, "geometry": { "type": "Polygon", "coordinates": [ [ [ 1.947782692325448, 48.800088880747211 ], [ 1.947783045602612, 48.800134338881151 ], [ 1.947859483588212, 48.800133892889562 ], [ 1.947782692325448, 48.800088880747211 ] ] ] } },
{ "type": "Feature", "properties": { "fid": 3, "piece": "salle de reunion" }, "geometry": { "type": "Polygon", "coordinates": [ [ [ 1.947783045602612, 48.800134338881151 ], [ 1.94778247500682, 48.800089158557263 ], [ 1.947767637770754, 48.800079517345935 ], [ 1.947675089855124, 48.800080940332855 ], [ 1.94767777721821, 48.800136628916228 ], [ 1.947783045602612, 48.800134338881151 ] ] ] } },
{ "type": "Feature", "properties": { "fid": 4, "piece": "salle de reunion" }, "geometry": { "type": "Polygon", "coordinates": [ [ [ 1.947570840800995, 48.800137645416605 ], [ 1.947677991716435, 48.800136490943153 ], [ 1.947675089855124, 48.800080940332862 ], [ 1.947584246634822, 48.800081818811904 ], [ 1.947569214825991, 48.800092315935622 ], [ 1.947570840800995, 48.800137645416605 ] ] ] } },
{ "type": "Feature", "properties": { "fid": 5, "piece": "local" }, "geometry": { "type": "Polygon", "coordinates": [ [ [ 1.947497129214507, 48.800139373986767 ], [ 1.947488870987052, 48.800139441126603 ], [ 1.947487287511913, 48.800112993336882 ], [ 1.947515454656281, 48.800112542066181 ], [ 1.94751541515398, 48.800114499780996 ], [ 1.947534463259937, 48.80011480737479 ], [ 1.947497129214507, 48.800139373986767 ] ] ] } },
{ "type": "Feature", "properties": { "fid": 6, "piece": "sanitaire" }, "geometry": { "type": "Polygon", "coordinates": [ [ [ 1.947487705222508, 48.8001132767385 ], [ 1.947515666333243, 48.800112543930183 ], [ 1.947515629652544, 48.800114361808198 ], [ 1.947534248761421, 48.800114945347609 ], [ 1.94759818619718, 48.800072990408353 ], [ 1.947486375698996, 48.800074243638399 ], [ 1.947487705222508, 48.8001132767385 ] ] ] } },
{ "type": "Feature", "properties": { "fid": 7, "piece": "palier" }, "geometry": { "type": "Polygon", "coordinates": [ [ [ 1.947859489229555, 48.800133613215991 ], [ 1.947866051218467, 48.800133670980429 ], [ 1.947863973171544, 48.800068756900089 ], [ 1.94775026888147, 48.800069434259527 ], [ 1.947859489229555, 48.800133613215991 ] ] ] } },
{ "type": "Feature", "properties": { "fid": 8, "piece": "degagement" }, "geometry": { "type": "Polygon", "coordinates": [ [ [ 1.947585096163593, 48.800081686430566 ], [ 1.947767217237994, 48.800079373782083 ], [ 1.947726242004749, 48.800053558227063 ], [ 1.9477256745794, 48.800039706930932 ], [ 1.947619788281263, 48.800041152303578 ], [ 1.947620321822809, 48.800056681641557 ], [ 1.947585096163593, 48.800081686430566 ] ] ] } },
{ "type": "Feature", "properties": { "fid": 10, "piece": "bureau" }, "geometry": { "type": "Polygon", "coordinates": [ [ [ 1.947812523016412, 48.800068933356499 ], [ 1.947864397935467, 48.800068690708478 ], [ 1.947864897063385, 48.800033449974684 ], [ 1.947811924304995, 48.800035641020671 ], [ 1.947812523016412, 48.800068933356499 ] ] ] } },
{ "type": "Feature", "properties": { "fid": 11, "piece": "bureau" }, "geometry": { "type": "Polygon", "coordinates": [ [ [ 1.947793508435448, 48.800035478898351 ], [ 1.947812133160865, 48.800035782720933 ], [ 1.947864685386731, 48.800033448111321 ], [ 1.947863682906431, 48.799988683567463 ], [ 1.94779169316042, 48.799989028858462 ], [ 1.947793508435448, 48.800035478898351 ] ] ] } },
{ "type": "Feature", "properties": { "fid": 12, "piece": "bureau" }, "geometry": { "type": "Polygon", "coordinates": [ [ [ 1.947791907657736, 48.799988890885167 ], [ 1.947863894582903, 48.799988685430812 ], [ 1.947862618500801, 48.799957485054769 ], [ 1.947790631618686, 48.799957690508343 ], [ 1.947791907657736, 48.799988890885167 ] ] ] } },
{ "type": "Feature", "properties": { "fid": 13, "piece": "bureau" }, "geometry": { "type": "Polygon", "coordinates": [ [ [ 1.947790634439533, 48.799957550671543 ], [ 1.947862830177147, 48.799957486918125 ], [ 1.947861028946384, 48.799910337692083 ], [ 1.947789033666782, 48.799910962655119 ], [ 1.947790634439533, 48.799957550671543 ] ] ] } },
{ "type": "Feature", "properties": { "fid": 14, "piece": "bureau" }, "geometry": { "type": "Polygon", "coordinates": [ [ [ 1.947788610314471, 48.799910958928123 ], [ 1.947861240622539, 48.79991033955546 ], [ 1.947860179040625, 48.799879001203784 ], [ 1.94778755159703, 48.799879480739015 ], [ 1.947788610314471, 48.799910958928123 ] ] ] } },
{ "type": "Feature", "properties": { "fid": 15, "piece": "bureau" }, "geometry": { "type": "Polygon", "coordinates": [ [ [ 1.947787763273059, 48.799879482602528 ], [ 1.947859967364599, 48.799878999340436 ], [ 1.947859329135891, 48.799847664714612 ], [ 1.947786913411816, 48.799848146112858 ], [ 1.947787763273059, 48.799879482602528 ] ] ] } },
{ "type": "Feature", "properties": { "fid": 16, "piece": "bureau" }, "geometry": { "type": "Polygon", "coordinates": [ [ [ 1.947786704556767, 48.799848004412532 ], [ 1.947859117459989, 48.799847662851242 ], [ 1.947857319057033, 48.799800373783761 ], [ 1.947784903398592, 48.799800855180784 ], [ 1.947786704556767, 48.799848004412532 ] ] ] } },
{ "type": "Feature", "properties": { "fid": 17, "piece": "bureau" }, "geometry": { "type": "Polygon", "coordinates": [ [ [ 1.94778511789515, 48.799800717207482 ], [ 1.94785731905703, 48.799800373783746 ], [ 1.947856460693313, 48.799769456802835 ], [ 1.94778382776049, 48.799770216009506 ], [ 1.94778511789515, 48.799800717207482 ] ] ] } },
{ "type": "Feature", "properties": { "fid": 18, "piece": "bureau" }, "geometry": { "type": "Polygon", "coordinates": [ [ [ 1.947783830581345, 48.799770076172685 ], [ 1.947856675189555, 48.799769318829405 ], [ 1.94785486832953, 48.79972244926909 ], [ 1.94778223264128, 48.799723348311645 ], [ 1.947783830581345, 48.799770076172685 ] ] ] } },
{ "type": "Feature", "properties": { "fid": 19, "piece": "bureau" }, "geometry": { "type": "Polygon", "coordinates": [ [ [ 1.94778223546214, 48.799723208474816 ], [ 1.94785529450098, 48.799722313159023 ], [ 1.947853185832798, 48.799690406137849 ], [ 1.947781179573215, 48.799691590443587 ], [ 1.94778223546214, 48.799723208474816 ] ] ] } },
{ "type": "Feature", "properties": { "fid": 20, "piece": "bureau" }, "geometry": { "type": "Polygon", "coordinates": [ [ [ 1.94778118521493, 48.799691310769944 ], [ 1.947853185832798, 48.799690406137849 ], [ 1.947851156020899, 48.799644094058181 ], [ 1.947779166750359, 48.799644439341755 ], [ 1.94778118521493, 48.799691310769944 ] ] ] } },
{ "type": "Feature", "properties": { "fid": 21, "piece": "bureau" }, "geometry": { "type": "Polygon", "coordinates": [ [ [ 1.947779175212939, 48.799644019831248 ], [ 1.947851579371045, 48.799644097784949 ], [ 1.94784999829816, 48.799596530898555 ], [ 1.947777571639181, 48.799597571638614 ], [ 1.947779175212939, 48.799644019831248 ] ] ] } },
{ "type": "Feature", "properties": { "fid": 22, "piece": "bureau" }, "geometry": { "type": "Polygon", "coordinates": [ [ [ 1.947777786134926, 48.799597433665305 ], [ 1.947850207152373, 48.799596672598796 ], [ 1.947848301705123, 48.799565186947923 ], [ 1.94777670768434, 48.799566934325298 ], [ 1.947777786134926, 48.799597433665305 ] ] ] } },
{ "type": "Feature", "properties": { "fid": 23, "piece": "bureau" }, "geometry": { "type": "Polygon", "coordinates": [ [ [ 1.947776496009581, 48.799566932461794 ], [ 1.947848513379877, 48.799565188811343 ], [ 1.947847454633306, 48.799533710613147 ], [ 1.947775442948161, 48.799535174589309 ], [ 1.947776496009581, 48.799566932461794 ] ] ] } },
{ "type": "Feature", "properties": { "fid": 24, "piece": "bureau" }, "geometry": { "type": "Polygon", "coordinates": [ [ [ 1.947775445769026, 48.799535034752466 ], [ 1.947847242958678, 48.799533708749749 ], [ 1.947846051393889, 48.799487823627743 ], [ 1.947774062338977, 48.799488168908297 ], [ 1.947775445769026, 48.799535034752466 ] ] ] } },
{ "type": "Feature", "properties": { "fid": 25, "piece": "bureau" }, "geometry": { "type": "Polygon", "coordinates": [ [ [ 1.947773850664537, 48.799488167044771 ], [ 1.947846260247657, 48.799487965328005 ], [ 1.947844368910137, 48.799455780489751 ], [ 1.947772789143717, 48.79945682868064 ], [ 1.947773850664537, 48.799488167044771 ] ] ] } },
{ "type": "Feature", "properties": { "fid": 26, "piece": "bureau" }, "geometry": { "type": "Polygon", "coordinates": [ [ [ 1.947773006459762, 48.799456550870445 ], [ 1.947844366089462, 48.799455920326601 ], [ 1.947843950832184, 48.799424028204967 ], [ 1.94777131273841, 48.799425067077976 ], [ 1.947773006459762, 48.799456550870445 ] ] ] } },
{ "type": "Feature", "properties": { "fid": 27, "piece": "salle de reunion" }, "geometry": { "type": "Polygon", "coordinates": [ [ [ 1.947771524412593, 48.799425068941531 ], [ 1.947844162506365, 48.799424030068373 ], [ 1.94784201105419, 48.79935226207683 ], [ 1.947768760605615, 48.799352176663156 ], [ 1.947771524412593, 48.799425068941531 ] ] ] } },
{ "type": "Feature", "properties": { "fid": 28, "piece": "sanitaire" }, "geometry": { "type": "Polygon", "coordinates": [ [ [ 1.947806870367865, 48.799352092583014 ], [ 1.947842219907404, 48.799352403777107 ], [ 1.947840946428593, 48.799300084287857 ], [ 1.947805373967754, 48.799300330577424 ], [ 1.947806870367865, 48.799352092583014 ] ] ] } },
{ "type": "Feature", "properties": { "fid": 29, "piece": "palier" }, "geometry": { "type": "Polygon", "coordinates": [ [ [ 1.947768763426488, 48.799352036826278 ], [ 1.947806867547094, 48.799352232419885 ], [ 1.947805371146982, 48.799300470414309 ], [ 1.947767473096122, 48.799300556357487 ], [ 1.947768763426488, 48.799352036826278 ] ] ] } },
{ "type": "Feature", "properties": { "fid": 30, "piece": "degagement" }, "geometry": { "type": "Polygon", "coordinates": [ [ [ 1.947741796214666, 48.799355995260264 ], [ 1.947768687262924, 48.799355812421808 ], [ 1.947767687590673, 48.799300418384185 ], [ 1.947740584897291, 48.799300599358808 ], [ 1.947741796214666, 48.799355995260264 ] ] ] } },
{ "type": "Feature", "properties": { "fid": 31, "piece": "archive" }, "geometry": { "type": "Polygon", "coordinates": [ [ [ 1.947582549731933, 48.799357949823744 ], [ 1.94774200788857, 48.79935599712384 ], [ 1.947740796570971, 48.799300601222399 ], [ 1.947581533329071, 48.799303394805911 ], [ 1.947582549731933, 48.799357949823744 ] ] ] } },
{ "type": "Feature", "properties": { "fid": 32, "piece": "degagement" }, "geometry": { "type": "Polygon", "coordinates": [ [ [ 1.947556496913209, 48.79935855958658 ], [ 1.947582549731933, 48.799357949823744 ], [ 1.947581750645497, 48.799303116996029 ], [ 1.947554430633497, 48.799303575738335 ], [ 1.947556496913209, 48.79935855958658 ] ] ] } },
{ "type": "Feature", "properties": { "fid": 33, "piece": "sanitaire" }, "geometry": { "type": "Polygon", "coordinates": [ [ [ 1.947482442136122, 48.799366858617589 ], [ 1.947557171500981, 48.799367097090986 ], [ 1.947554639485735, 48.79930371743913 ], [ 1.947480514194651, 48.79930502276185 ], [ 1.947482442136122, 48.799366858617589 ] ] ] } },
{ "type": "Feature", "properties": { "fid": 34, "piece": "salle de reunion" }, "geometry": { "type": "Polygon", "coordinates": [ [ [ 1.947482650988419, 48.799367000318512 ], [ 1.947556957005599, 48.79936723506394 ], [ 1.947558887861424, 48.799428931078211 ], [ 1.947483071820613, 48.799430081654243 ], [ 1.947482650988419, 48.799367000318512 ] ] ] } },
{ "type": "Feature", "properties": { "fid": 35, "piece": "bureau" }, "geometry": { "type": "Polygon", "coordinates": [ [ [ 1.947483495168999, 48.79943008538234 ], [ 1.947559522883998, 48.799428936669948 ], [ 1.94755995489605, 48.799459989771307 ], [ 1.947484567802041, 48.799460864402363 ], [ 1.947483495168999, 48.79943008538234 ] ] ] } },
{ "type": "Feature", "properties": { "fid": 36, "piece": "bureau" }, "geometry": { "type": "Polygon", "coordinates": [ [ [ 1.947484991150677, 48.799460868130446 ], [ 1.947560166570367, 48.79945999163521 ], [ 1.947561013467637, 48.799491467974093 ], [ 1.947484988483174, 48.799492476850517 ], [ 1.947484991150677, 48.799460868130446 ] ] ] } },
{ "type": "Feature", "properties": { "fid": 37, "piece": "bureau" }, "geometry": { "type": "Polygon", "coordinates": [ [ [ 1.947485197335981, 48.799492618551412 ], [ 1.947561227963517, 48.799491330001146 ], [ 1.947562820055633, 48.799538337548384 ], [ 1.947486157157349, 48.799539480670674 ], [ 1.947485197335981, 48.799492618551412 ] ] ] } },
{ "type": "Feature", "properties": { "fid": 38, "piece": "bureau" }, "geometry": { "type": "Polygon", "coordinates": [ [ [ 1.947486368831989, 48.799539482534698 ], [ 1.947562608381001, 48.79953833568446 ], [ 1.947564550468199, 48.799588982715335 ], [ 1.94748576792545, 48.799590247035155 ], [ 1.947486368831989, 48.799539482534698 ] ] ] } },
{ "type": "Feature", "properties": { "fid": 39, "piece": "bureau" }, "geometry": { "type": "Polygon", "coordinates": [ [ [ 1.947567932099209, 48.799662719595851 ], [ 1.947566481205679, 48.799629699464944 ], [ 1.947486866009667, 48.799630257145694 ], [ 1.947486823840259, 48.799663823576623 ], [ 1.947567932099209, 48.799662719595851 ] ] ] } },
{ "type": "Feature", "properties": { "fid": 40, "piece": "bureau" }, "geometry": { "type": "Polygon", "coordinates": [ [ [ 1.947487038337044, 48.799663685603818 ], [ 1.947568358270915, 48.799662583486807 ], [ 1.947568979394015, 48.799694757140223 ], [ 1.947489558844168, 48.799696155707572 ], [ 1.947487038337044, 48.799663685603818 ] ] ] } },
{ "type": "Feature", "properties": { "fid": 41, "piece": "bureau" }, "geometry": { "type": "Polygon", "coordinates": [ [ [ 1.94748977334108, 48.799696017734789 ], [ 1.94756939992313, 48.799694900704836 ], [ 1.947570785996211, 48.799741626706016 ], [ 1.947491582693789, 48.799742747464897 ], [ 1.94748977334108, 48.799696017734789 ] ] ] } },
{ "type": "Feature", "properties": { "fid": 42, "piece": "degagement" }, "geometry": { "type": "Polygon", "coordinates": [ [ [ 1.94745153092846, 48.799755122171426 ], [ 1.94749240969707, 48.799754223403937 ], [ 1.947491791547616, 48.799742889165721 ], [ 1.947570994850247, 48.799741768406705 ], [ 1.947571570764343, 48.799765689821868 ], [ 1.947451691857255, 48.799768130723258 ], [ 1.94745153092846, 48.799755122171426 ] ] ] } },
{ "type": "Feature", "properties": { "fid": 43, "piece": "palier" }, "geometry": { "type": "Polygon", "coordinates": [ [ [ 1.9474091366398, 48.79977866516758 ], [ 1.947409020799129, 48.799742439976427 ], [ 1.947491613731794, 48.799741209259906 ], [ 1.94749199481096, 48.799753800165433 ], [ 1.947451528106716, 48.79975526200824 ], [ 1.947451697500745, 48.799767851049644 ], [ 1.947427346345716, 48.799768056186402 ], [ 1.947427346385504, 48.799778545811407 ], [ 1.9474091366398, 48.79977866516758 ] ] ] } },
{ "type": "Feature", "properties": { "fid": 44, "piece": "archive" }, "geometry": { "type": "Polygon", "coordinates": [ [ [ 1.947489352812176, 48.79969587416992 ], [ 1.947448697051511, 48.799696215453238 ], [ 1.947447477659917, 48.79966221832818 ], [ 1.947487283871914, 48.799662009425973 ], [ 1.947489352812176, 48.79969587416992 ] ] ] } },
{ "type": "Feature", "properties": { "fid": 45, "piece": "salle de reunion" }, "geometry": { "type": "Polygon", "coordinates": [ [ [ 1.947438034445911, 48.799741996180529 ], [ 1.947491613731794, 48.799741209259913 ], [ 1.947489778984358, 48.799695738061153 ], [ 1.947448697051511, 48.799696215453238 ], [ 1.947447779718838, 48.799678724665796 ], [ 1.947435073563249, 48.799678892492508 ], [ 1.947438034445911, 48.799741996180529 ] ] ] } },
{ "type": "Feature", "properties": { "fid": 46, "piece": "bureau" }, "geometry": { "type": "Polygon", "coordinates": [ [ [ 1.94743528523845, 48.799678894356624 ], [ 1.947447779718839, 48.799678724665796 ], [ 1.94744768369155, 48.799662499865924 ], [ 1.947487077840069, 48.799661727888271 ], [ 1.94748686036638, 48.799630536819365 ], [ 1.947433916219123, 48.799631329330325 ], [ 1.94743528523845, 48.799678894356624 ] ] ] } },
{ "type": "Feature", "properties": { "fid": 47, "piece": "bureau" }, "geometry": { "type": "Polygon", "coordinates": [ [ [ 1.947498497551786, 48.799767284148302 ], [ 1.947499623865681, 48.799805895884383 ], [ 1.947572900343739, 48.799804722931661 ], [ 1.947571567942919, 48.799765829658703 ], [ 1.947498497551786, 48.799767284148302 ] ] ] } },
{ "type": "Feature", "properties": { "fid": 48, "piece": "bureau" }, "geometry": { "type": "Polygon", "coordinates": [ [ [ 1.9475000443955, 48.799806039449209 ], [ 1.947572900343739, 48.799804722931661 ], [ 1.947574173427398, 48.799836063151837 ], [ 1.947500685229496, 48.799837234241288 ], [ 1.9475000443955, 48.799806039449209 ] ] ] } },
{ "type": "Feature", "properties": { "fid": 49, "piece": "bureau" }, "geometry": { "type": "Polygon", "coordinates": [ [ [ 1.947500899726958, 48.799837096268476 ], [ 1.947574596779086, 48.799836066879564 ], [ 1.947577035807576, 48.799914550739345 ], [ 1.947502912470672, 48.799915716238459 ], [ 1.947500899726958, 48.799837096268476 ] ] ] } },
{ "type": "Feature", "properties": { "fid": 50, "piece": "bureau" }, "geometry": { "type": "Polygon", "coordinates": [ [ [ 1.947503338644614, 48.799915580129678 ], [ 1.947577461981315, 48.799914414630287 ], [ 1.947578633569683, 48.799961278595248 ], [ 1.947505148017091, 48.799962309850521 ], [ 1.947503338644614, 48.799915580129678 ] ] ] } },
{ "type": "Feature", "properties": { "fid": 51, "piece": "bureau" }, "geometry": { "type": "Polygon", "coordinates": [ [ [ 1.947505359693444, 48.799962311714523 ], [ 1.947579059743802, 48.799961142486204 ], [ 1.947580632116439, 48.800009128871217 ], [ 1.947507363816243, 48.800009882318115 ], [ 1.947505359693444, 48.799962311714523 ] ] ] } },
{ "type": "Feature", "properties": { "fid": 52, "piece": "bureau" }, "geometry": { "type": "Polygon", "coordinates": [ [ [ 1.947507578314397, 48.800009744345324 ], [ 1.947580632116439, 48.800009128871217 ], [ 1.947581679426, 48.800041166405691 ], [ 1.947507572838943, 48.800041492886884 ], [ 1.947507578314397, 48.800009744345324 ] ] ] } },
{ "type": "Feature", "properties": { "fid": 53, "piece": "cafeteria" }, "geometry": { "type": "Polygon", "coordinates": [ [ [ 1.947486585964967, 48.800074315420915 ], [ 1.947550540576471, 48.800073479974593 ], [ 1.947549290073204, 48.800041021066498 ], [ 1.947482374849694, 48.800041690578837 ], [ 1.947483413634534, 48.800074147623569 ], [ 1.947486585964967, 48.800074315420915 ] ] ] } },
{ "type": "Feature", "properties": { "fid": 54, "piece": "coffre" }, "geometry": { "type": "Polygon", "coordinates": [ [ [ 1.947482586526367, 48.800041692442889 ], [ 1.947507784515619, 48.800041494750907 ], [ 1.947507578314399, 48.80000974434536 ], [ 1.947481330422788, 48.800009513206732 ], [ 1.947482586526367, 48.800041692442889 ] ] ] } },
{ "type": "Feature", "properties": { "fid": 55, "piece": "archive" }, "geometry": { "type": "Polygon", "coordinates": [ [ [ 1.94748132760111, 48.800009653043517 ], [ 1.947507578314399, 48.80000974434536 ], [ 1.947505351228609, 48.799962731224916 ], [ 1.947479317858702, 48.799962362113057 ], [ 1.94748132760111, 48.800009653043517 ] ] ] } },
{ "type": "Feature", "properties": { "fid": 56, "piece": "archive" }, "geometry": { "type": "Polygon", "coordinates": [ [ [ 1.947479529535056, 48.799962363977116 ], [ 1.947505562904966, 48.799962733088918 ], [ 1.947503666062076, 48.799920338308766 ], [ 1.947478264920198, 48.799920114625465 ], [ 1.947479529535056, 48.799962363977116 ] ] ] } },
{ "type": "Feature", "properties": { "fid": 57, "piece": "reserve" }, "geometry": { "type": "Polygon", "coordinates": [ [ [ 1.947478899948742, 48.799920120217614 ], [ 1.947503874916647, 48.799920480009554 ], [ 1.94750227727761, 48.799884241775004 ], [ 1.947477508359738, 48.799884163520346 ], [ 1.947478899948742, 48.799920120217614 ] ] ] } },
{ "type": "Feature", "properties": { "fid": 58, "piece": "reserve" }, "geometry": { "type": "Polygon", "coordinates": [ [ [ 1.947477508359738, 48.799884163520346 ], [ 1.94750227727761, 48.799884241775004 ], [ 1.947501580064481, 48.799866333344475 ], [ 1.947476178948909, 48.799866109660726 ], [ 1.947477508359738, 48.799884163520346 ] ] ] } },
{ "type": "Feature", "properties": { "fid": 59, "piece": "local" }, "geometry": { "type": "Polygon", "coordinates": [ [ [ 1.947476390624871, 48.799866111524786 ], [ 1.947501791740445, 48.799866335208485 ], [ 1.94750030696924, 48.79982450349992 ], [ 1.947473212467703, 48.799824264903421 ], [ 1.947476390624871, 48.799866111524786 ] ] ] } },
{ "type": "Feature", "properties": { "fid": 60, "piece": "sanitaire" }, "geometry": { "type": "Polygon", "coordinates": [ [ [ 1.947427558061108, 48.799778547675572 ], [ 1.947434120004874, 48.799778605463736 ], [ 1.947434264122179, 48.79982392191021 ], [ 1.947500304147622, 48.79982464333672 ], [ 1.947498712048964, 48.799767146175498 ], [ 1.94742692299459, 48.799768052458163 ], [ 1.947427558061108, 48.799778547675572 ] ] ] } },
{ "type": "Feature", "properties": { "fid": 61, "piece": "salle de reunion" }, "geometry": { "type": "Polygon", "coordinates": [ [ [ 1.947409565634726, 48.799778389222325 ], [ 1.947434543356085, 48.799778609191996 ], [ 1.947434264122179, 48.79982392191021 ], [ 1.94737411997901, 48.799824790850785 ], [ 1.947372773616098, 48.799786596760342 ], [ 1.947325973546367, 48.799787163612457 ], [ 1.947325730769745, 48.799757231078011 ], [ 1.94740897286363, 48.799755306827514 ], [ 1.947409565634726, 48.799778389222325 ] ] ] } },
{ "type": "Feature", "properties": { "fid": 62, "piece": "bureau" }, "geometry": { "type": "Polygon", "coordinates": [ [ [ 1.947374328832845, 48.799824932551815 ], [ 1.947292596578898, 48.799825471460714 ], [ 1.947290505159261, 48.799771746161838 ], [ 1.947326286797497, 48.79977164172675 ], [ 1.947326185222, 48.799787165476786 ], [ 1.947372773616097, 48.799786596760342 ], [ 1.947374328832845, 48.799824932551815 ] ] ] } },
{ "type": "Feature", "properties": { "fid": 63, "piece": "bureau" }, "geometry": { "type": "Polygon", "coordinates": [ [ [ 1.947292811076863, 48.799825333488286 ], [ 1.947229494615184, 48.799826034553547 ], [ 1.947227600823979, 48.799783499927081 ], [ 1.947250885142059, 48.799783705019173 ], [ 1.947251243585159, 48.79979741461942 ], [ 1.947291699039017, 48.799796512191712 ], [ 1.947292811076863, 48.799825333488286 ] ] ] } },
{ "type": "Feature", "properties": { "fid": 64, "piece": "bureau" }, "geometry": { "type": "Polygon", "coordinates": [ [ [ 1.947229497437528, 48.79982589471674 ], [ 1.947227815321942, 48.799783361954773 ], [ 1.947183335217941, 48.799784368770879 ], [ 1.947183617455177, 48.799780874715331 ], [ 1.947155241633965, 48.799781184206545 ], [ 1.94715595563272, 48.799819232868941 ], [ 1.947127365292101, 48.799819680325712 ], [ 1.947126352054475, 48.799827923238112 ], [ 1.947229497437528, 48.79982589471674 ] ] ] } },
{ "type": "Feature", "properties": { "fid": 65, "piece": "palier" }, "geometry": { "type": "Polygon", "coordinates": [ [ [ 1.947127368114718, 48.799819540488919 ], [ 1.94715595281018, 48.799819372705748 ], [ 1.947155238811424, 48.799781324043352 ], [ 1.947126222317744, 48.799781907607404 ], [ 1.947127368114718, 48.799819540488919 ] ] ] } },
{ "type": "Feature", "properties": { "fid": 66, "piece": "degagement" }, "geometry": { "type": "Polygon", "coordinates": [ [ [ 1.947126642846342, 48.799782051173551 ], [ 1.947183408602035, 48.799780733013954 ], [ 1.947183549716027, 48.799784230798643 ], [ 1.947251096817678, 48.799783706883623 ], [ 1.947251458083118, 48.799797276647077 ], [ 1.947291699039017, 48.799796512191712 ], [ 1.947288179479328, 48.799708648064957 ], [ 1.947269535118154, 48.799709323018369 ], [ 1.947272303882297, 48.799771445986728 ], [ 1.947202417075803, 48.799772508751069 ], [ 1.947202377572915, 48.799753487216179 ], [ 1.947125279709066, 48.799755185724948 ], [ 1.947126642846342, 48.799782051173551 ] ] ] } },
{ "type": "Feature", "properties": { "fid": 67, "piece": "sanitaire" }, "geometry": { "type": "Polygon", "coordinates": [ [ [ 1.947202419898217, 48.799772368914255 ], [ 1.947272303882296, 48.799771445986707 ], [ 1.94727161239408, 48.799753257879459 ], [ 1.947202377572915, 48.799753487216179 ], [ 1.947202419898217, 48.799772368914255 ] ] ] } },
{ "type": "Feature", "properties": { "fid": 68, "piece": "bureau" }, "geometry": { "type": "Polygon", "coordinates": [ [ [ 1.94709483790095, 48.799773938742703 ], [ 1.947126388852194, 48.799773657235981 ], [ 1.947127410433448, 48.799827932561449 ], [ 1.947096917828355, 48.799828223392076 ], [ 1.94709483790095, 48.799773938742703 ] ] ] } },
{ "type": "Feature", "properties": { "fid": 69, "piece": "bureau" }, "geometry": { "type": "Polygon", "coordinates": [ [ [ 1.947035495151239, 48.799829500484272 ], [ 1.947096917828355, 48.799828223392076 ], [ 1.947094609289161, 48.799774775898797 ], [ 1.947033615671816, 48.79977577704593 ], [ 1.947035495151239, 48.799829500484272 ] ] ] } },
{ "type": "Feature", "properties": { "fid": 70, "piece": "bureau" }, "geometry": { "type": "Polygon", "coordinates": [ [ [ 1.946966883963039, 48.799830294626247 ], [ 1.947035497974103, 48.799829360647472 ], [ 1.94703340117337, 48.799775915017896 ], [ 1.946964993262049, 48.799777130534068 ], [ 1.946966883963039, 48.799830294626247 ] ] ] } },
{ "type": "Feature", "properties": { "fid": 71, "piece": "degagement" }, "geometry": { "type": "Polygon", "coordinates": [ [ [ 1.946965210583732, 48.799776852725444 ], [ 1.947094820964738, 48.799774777763503 ], [ 1.947094843546355, 48.799773659069103 ], [ 1.947126179999238, 48.79977351553449 ], [ 1.947125784895134, 48.799761623812046 ], [ 1.94710778965284, 48.799761605150174 ], [ 1.947107374843457, 48.79972971303458 ], [ 1.947093181301175, 48.799730147445608 ], [ 1.947093392921839, 48.799751128560949 ], [ 1.94696505265245, 48.799753214711103 ], [ 1.946965210583732, 48.799776852725444 ] ] ] } },
{ "type": "Feature", "properties": { "fid": 72, "piece": "bureau" }, "geometry": { "type": "Polygon", "coordinates": [ [ [ 1.94696547882647, 48.799753078604212 ], [ 1.947004444053677, 48.799752582729376 ], [ 1.947002725425665, 48.799711867840003 ], [ 1.94696248453083, 48.799712632198137 ], [ 1.94696547882647, 48.799753078604212 ] ] ] } },
{ "type": "Feature", "properties": { "fid": 73, "piece": "bureau" }, "geometry": { "type": "Polygon", "coordinates": [ [ [ 1.947004235201135, 48.799752441027692 ], [ 1.94704574335613, 48.799751827681227 ], [ 1.947044033164413, 48.79971069328198 ], [ 1.947002942746874, 48.799711590031272 ], [ 1.947004235201135, 48.799752441027692 ] ] ] } },
{ "type": "Feature", "properties": { "fid": 74, "piece": "bureau" }, "geometry": { "type": "Polygon", "coordinates": [ [ [ 1.947045740533297, 48.799751967518034 ], [ 1.94709339292184, 48.799751128560935 ], [ 1.94709272977833, 48.799710562833262 ], [ 1.94704424483973, 48.799710695146814 ], [ 1.947045740533297, 48.799751967518034 ] ] ] } },
{ "type": "Feature", "properties": { "fid": 75, "piece": "bureau" }, "geometry": { "type": "Polygon", "coordinates": [ [ [ 1.947093181301176, 48.799730147445608 ], [ 1.947125578927531, 48.799729873398 ], [ 1.947125347535691, 48.799709871140024 ], [ 1.947092949921758, 48.799710145187568 ], [ 1.947093181301176, 48.799730147445608 ] ] ] } },
{ "type": "Feature", "properties": { "fid": 76, "piece": "bureau" }, "geometry": { "type": "Polygon", "coordinates": [ [ [ 1.947107789652841, 48.799761605150174 ], [ 1.94712599657066, 48.799761625676723 ], [ 1.947125578927531, 48.799729873398 ], [ 1.94710736637546, 48.799730132545015 ], [ 1.947107789652841, 48.799761605150174 ] ] ] } },
{ "type": "Feature", "properties": { "fid": 77, "piece": "bureau" }, "geometry": { "type": "Polygon", "coordinates": [ [ [ 1.946882459688355, 48.799754445063769 ], [ 1.946944508837983, 48.799753593155508 ], [ 1.946943636958005, 48.799712885725306 ], [ 1.946880955654089, 48.799713592201002 ], [ 1.946882459688355, 48.799754445063769 ] ] ] } },
{ "type": "Feature", "properties": { "fid": 78, "piece": "bureau" }, "geometry": { "type": "Polygon", "coordinates": [ [ [ 1.946841372056956, 48.799755201920668 ], [ 1.946882671363844, 48.79975444692888 ], [ 1.946881164506138, 48.799713733902912 ], [ 1.946839868054843, 48.79971434905741 ], [ 1.946841372056956, 48.799755201920668 ] ] ] } },
{ "type": "Feature", "properties": { "fid": 79, "piece": "bureau" }, "geometry": { "type": "Polygon", "coordinates": [ [ [ 1.946799231693894, 48.799755669763599 ], [ 1.946841372056956, 48.799755201920668 ], [ 1.946840079730168, 48.799714350922592 ], [ 1.946797504755465, 48.79971537438179 ], [ 1.946799231693894, 48.799755669763599 ] ] ] } },
{ "type": "Feature", "properties": { "fid": 80, "piece": "bureau" }, "geometry": { "type": "Polygon", "coordinates": [ [ [ 1.946739502498868, 48.799756961625803 ], [ 1.946775710302608, 48.79975672124943 ], [ 1.946775857127529, 48.799749449735913 ], [ 1.946781369160215, 48.799749078723032 ], [ 1.946781245014534, 48.799744741916967 ], [ 1.946798825370484, 48.799744337387104 ], [ 1.946797933753109, 48.799715098438703 ], [ 1.946737992929174, 48.799716388434938 ], [ 1.946739502498868, 48.799756961625803 ] ] ] } },
{ "type": "Feature", "properties": { "fid": 81, "piece": "bureau" }, "geometry": { "type": "Polygon", "coordinates": [ [ [ 1.946698629362669, 48.799757580462199 ], [ 1.946739505322521, 48.799756821789018 ], [ 1.946738204604502, 48.799716390300304 ], [ 1.946697543175408, 48.799717011001711 ], [ 1.946698629362669, 48.799757580462199 ] ] ] } },
{ "type": "Feature", "properties": { "fid": 82, "piece": "bureau" }, "geometry": { "type": "Polygon", "coordinates": [ [ [ 1.946657764697117, 48.799757779774239 ], [ 1.946698420510938, 48.799757438759976 ], [ 1.946697543175408, 48.799717011001711 ], [ 1.946656678541633, 48.799717210313403 ], [ 1.946657764697117, 48.799757779774239 ] ] ] } },
{ "type": "Feature", "properties": { "fid": 83, "piece": "bureau" }, "geometry": { "type": "Polygon", "coordinates": [ [ [ 1.946617094762857, 48.79975881995864 ], [ 1.946657967900995, 48.799758201150141 ], [ 1.946656675717762, 48.799717350150189 ], [ 1.946616005814999, 48.79971839033427 ], [ 1.946617094762857, 48.79975881995864 ] ] ] } },
{ "type": "Feature", "properties": { "fid": 84, "piece": "bureau" }, "geometry": { "type": "Polygon", "coordinates": [ [ [ 1.946576856650242, 48.799759444350137 ], [ 1.946617094762857, 48.79975881995864 ], [ 1.946616005814999, 48.79971839033427 ], [ 1.946574921032226, 48.799719007262809 ], [ 1.946576856650242, 48.799759444350137 ] ] ] } },
{ "type": "Feature", "properties": { "fid": 85, "piece": "bureau" }, "geometry": { "type": "Polygon", "coordinates": [ [ [ 1.946474921962859, 48.799774909701021 ], [ 1.946562174655297, 48.799773580838071 ], [ 1.946560312610149, 48.799719018368847 ], [ 1.946473054360197, 48.799720626904097 ], [ 1.946474921962859, 48.799774909701021 ] ] ] } },
{ "type": "Feature", "properties": { "fid": 86, "piece": "bureau" }, "geometry": { "type": "Polygon", "coordinates": [ [ [ 1.946417216937601, 48.799738876173926 ], [ 1.946473759691371, 48.799738115832533 ], [ 1.946472839860495, 48.799720764875062 ], [ 1.94641650597634, 48.799721666918742 ], [ 1.946417216937601, 48.799738876173926 ] ] ] } },
{ "type": "Feature", "properties": { "fid": 87, "piece": "bureau" }, "geometry": { "type": "Polygon", "coordinates": [ [ [ 1.94641844130856, 48.799772593633605 ], [ 1.94647520142313, 48.799771555483908 ], [ 1.946473542367233, 48.799738393640297 ], [ 1.946417425788494, 48.799739017876632 ], [ 1.94641844130856, 48.799772593633605 ] ] ] } },
{ "type": "Feature", "properties": { "fid": 88, "piece": "atelier" }, "geometry": { "type": "Polygon", "coordinates": [ [ [ 1.945965305414577, 48.799330761238799 ], [ 1.945979024324263, 48.799699557738805 ], [ 1.946118809090006, 48.799696874252582 ], [ 1.946119543671208, 48.799660516686615 ], [ 1.946216112709809, 48.799659130363089 ], [ 1.946217082897936, 48.799694943512797 ], [ 1.946769425581237, 48.799685266478228 ], [ 1.946770137120281, 48.799650027602389 ], [ 1.946869246222868, 48.799648663134775 ], [ 1.946868523457579, 48.799684461358495 ], [ 1.947285326062005, 48.799676944263148 ], [ 1.947274612208515, 48.799368594718196 ], [ 1.947079770575751, 48.799371913427677 ], [ 1.947079274018328, 48.799312607682509 ], [ 1.947071653765066, 48.799312540551 ], [ 1.947018390863693, 48.799350113701159 ], [ 1.946961526981692, 48.799314367556519 ], [ 1.945965305414577, 48.799330761238799 ] ] ] } },
{ "type": "Feature", "properties": { "fid": 89, "piece": "palier" }, "geometry": { "type": "Polygon", "coordinates": [ [ [ 1.946118807677357, 48.799696944170982 ], [ 1.94621708431046, 48.799694873594404 ], [ 1.94621610847223, 48.799659340118289 ], [ 1.94611953943325, 48.7996607264418 ], [ 1.946118807677357, 48.799696944170982 ] ] ] } },
{ "type": "Feature", "properties": { "fid": 90, "piece": "palier" }, "geometry": { "type": "Polygon", "coordinates": [ [ [ 1.946769426992971, 48.799685196559849 ], [ 1.946868739367676, 48.799684253468421 ], [ 1.946869247634456, 48.799648593216389 ], [ 1.946770135708447, 48.799650097520811 ], [ 1.946769426992971, 48.799685196559849 ] ] ] } },
{ "type": "Feature", "properties": { "fid": 91, "piece": "bureau" }, "geometry": { "type": "Polygon", "coordinates": [ [ [ 1.947550434737774, 48.800073479042467 ], [ 1.947597867270981, 48.800073057530895 ], [ 1.947619796862612, 48.800056467226824 ], [ 1.947620101564006, 48.800041364854366 ], [ 1.947726414036923, 48.800039783371879 ], [ 1.947726984283492, 48.800053494831232 ], [ 1.947751217195284, 48.800069652400694 ], [ 1.947812202680078, 48.800069070397974 ], [ 1.947811603968864, 48.800035778062146 ], [ 1.947793399775934, 48.800035617803246 ], [ 1.947768584246512, 48.799355671653124 ], [ 1.947557237771581, 48.799358566110229 ], [ 1.947581999762126, 48.800041029364571 ], [ 1.947549390268249, 48.800041301671882 ], [ 1.947550434737774, 48.800073479042467 ] ] ] } },
{ "type": "Feature", "properties": { "fid": 92, "piece": "degagement" }, "geometry": { "type": "Polygon", "coordinates": [ [ [ 1.947434024878137, 48.799631190425472 ], [ 1.947567442207186, 48.799629288341897 ], [ 1.947565709036662, 48.799589272640375 ], [ 1.947431902321666, 48.799589492951817 ], [ 1.947434024878137, 48.799631190425472 ] ] ] } },
{ "type": "Feature", "properties": { "fid": 93, "piece": "bureau" }, "geometry": { "type": "Polygon", "coordinates": [ [ [ 1.947359250166412, 48.799706616646048 ], [ 1.947360362292301, 48.799756417194779 ], [ 1.94740950487399, 48.799755171651022 ], [ 1.947406688011303, 48.79970591553657 ], [ 1.947359250166412, 48.799706616646048 ] ] ] } },
{ "type": "Feature", "properties": { "fid": 94, "piece": "bureau" }, "geometry": { "type": "Polygon", "coordinates": [ [ [ 1.947361208994352, 48.799756424651811 ], [ 1.94729047550775, 48.799757480010626 ], [ 1.947288923164866, 48.799708514753405 ], [ 1.947359673517032, 48.799706620374572 ], [ 1.947361208994352, 48.799756424651811 ] ] ] } },
{ "type": "Feature", "properties": { "fid": 95, "piece": "bureau" }, "geometry": { "type": "Polygon", "coordinates": [ [ [ 1.947409346777611, 48.799742023262155 ], [ 1.947438145926919, 48.799741717438856 ], [ 1.947423101342045, 48.79933318880952 ], [ 1.947435395352931, 48.799332457908307 ], [ 1.947434588080005, 48.79930951347729 ], [ 1.947272779065639, 48.799312563953556 ], [ 1.947288076463604, 48.799708507295861 ], [ 1.947406688011305, 48.79970591553657 ], [ 1.947409346777611, 48.799742023262155 ] ] ] } },
{ "type": "Feature", "properties": { "fid": 96, "piece": "bureau" }, "geometry": { "type": "Polygon", "coordinates": [ [ [ 1.947126649954367, 48.799755477518815 ], [ 1.947271509378317, 48.799753117110335 ], [ 1.947269426458022, 48.799709461922859 ], [ 1.9471254477279, 48.799710151745863 ], [ 1.947126649954367, 48.799755477518815 ] ] ] } },
{ "type": "Feature", "properties": { "fid": 97, "piece": "degagement" }, "geometry": { "type": "Polygon", "coordinates": [ [ [ 1.947287653112974, 48.799708503567068 ], [ 1.947287015230136, 48.79967716893352 ], [ 1.946010788324587, 48.799699208474856 ], [ 1.946010183644987, 48.79972913354689 ], [ 1.947287653112974, 48.799708503567068 ] ] ] } },
{ "type": "Feature", "properties": { "fid": 98, "piece": "bureau" }, "geometry": { "type": "Polygon", "coordinates": [ [ [ 1.946897737936607, 48.799831363739607 ], [ 1.946954918634091, 48.79983046892913 ], [ 1.946952361920342, 48.799768347821633 ], [ 1.946895593349062, 48.799769805708308 ], [ 1.946897737936607, 48.799831363739607 ] ] ] } },
{ "type": "Feature", "properties": { "fid": 99, "piece": "bureau" }, "geometry": { "type": "Polygon", "coordinates": [ [ [ 1.946897325877949, 48.799830800662299 ], [ 1.946564385149537, 48.799837097522833 ], [ 1.946562122610072, 48.79976043338101 ], [ 1.946781108027536, 48.799756768814198 ], [ 1.946781401495624, 48.799763205037465 ], [ 1.946799182239335, 48.799763361720025 ], [ 1.946799752411985, 48.799756093937035 ], [ 1.946894210501017, 48.799754408739624 ], [ 1.946897325877949, 48.799830800662299 ] ] ] } },
{ "type": "Feature", "properties": { "fid": 100, "piece": "degagement" }, "geometry": { "type": "Polygon", "coordinates": [ [ [ 1.946955346220308, 48.799830262903889 ], [ 1.946967623416622, 48.799830371071863 ], [ 1.946962780870725, 48.799713683771543 ], [ 1.946944142149749, 48.799714079000559 ], [ 1.946944198382329, 48.799753240765909 ], [ 1.946894626793898, 48.799754762061795 ], [ 1.946895597583918, 48.799769595953123 ], [ 1.946952354862633, 48.799768697413654 ], [ 1.946955346220308, 48.799830262903889 ] ] ] } },
{ "type": "Feature", "properties": { "fid": 101, "piece": "degagement" }, "geometry": { "type": "Polygon", "coordinates": [ [ [ 1.946562121198006, 48.799760503299424 ], [ 1.946576949779468, 48.799760074548423 ], [ 1.946574788365553, 48.799720334779451 ], [ 1.946560812144992, 48.79972049131932 ], [ 1.946562550197265, 48.799760227357176 ], [ 1.946562121198006, 48.799760503299424 ] ] ] } },
{ "type": "Feature", "properties": { "fid": 102, "piece": "palier" }, "geometry": { "type": "Polygon", "coordinates": [ [ [ 1.946476788535523, 48.799803038352067 ], [ 1.946511523115556, 48.799802365484602 ], [ 1.946511545709694, 48.799801246790317 ], [ 1.94653377730296, 48.799801163019715 ], [ 1.946534699700302, 48.799839353387654 ], [ 1.946476680755675, 48.799839821023475 ], [ 1.946476788535523, 48.799803038352067 ] ] ] } },
{ "type": "Feature", "properties": { "fid": 103, "piece": "ascenceur" }, "geometry": { "type": "Polygon", "coordinates": [ [ [ 1.946535125876147, 48.799839217282305 ], [ 1.946564560111696, 48.799838917266676 ], [ 1.946563225637687, 48.799800163820443 ], [ 1.946533571275712, 48.799800881480401 ], [ 1.946535125876147, 48.799839217282305 ] ] ] } },
{ "type": "Feature", "properties": { "fid": 104, "piece": "degagement" }, "geometry": { "type": "Polygon", "coordinates": [ [ [ 1.946477217535581, 48.799802762410145 ], [ 1.946511523115556, 48.799802365484602 ], [ 1.946511548533961, 48.799801106953538 ], [ 1.946563225637687, 48.799800163820443 ], [ 1.946562492168509, 48.799773583636458 ], [ 1.946475236651729, 48.799775052336415 ], [ 1.946477217535581, 48.799802762410145 ] ] ] } },
{ "type": "Feature", "properties": { "fid": 105, "piece": "degagement" }, "geometry": { "type": "Polygon", "coordinates": [ [ [ 1.946429068462887, 48.799796743521391 ], [ 1.946476924104804, 48.799796326186353 ], [ 1.94647488108535, 48.79977169252183 ], [ 1.946380008074236, 48.799772954145467 ], [ 1.946380682304131, 48.799791981278283 ], [ 1.946429184266881, 48.799791010213198 ], [ 1.946429068462887, 48.799796743521391 ] ] ] } },
{ "type": "Feature", "properties": { "fid": 106, "piece": "bureau" }, "geometry": { "type": "Polygon", "coordinates": [ [ [ 1.946476683580037, 48.799839681186697 ], [ 1.946430947481022, 48.7998399773439 ], [ 1.946429282963017, 48.799796605550512 ], [ 1.946476926929164, 48.799796186349575 ], [ 1.946476683580037, 48.799839681186697 ] ] ] } },
{ "type": "Feature", "properties": { "fid": 107, "piece": "local" }, "geometry": { "type": "Polygon", "coordinates": [ [ [ 1.946430944656537, 48.799840117180679 ], [ 1.946383083324852, 48.799840814170857 ], [ 1.946380470628508, 48.799791979412284 ], [ 1.946429395942501, 48.799791012079112 ], [ 1.946430944656537, 48.799840117180679 ] ] ] } },
{ "type": "Feature", "properties": { "fid": 108, "piece": "bureau" }, "geometry": { "type": "Polygon", "coordinates": [ [ [ 1.946383297825283, 48.799840676200077 ], [ 1.946232934546574, 48.79984298700942 ], [ 1.946228962944518, 48.799725188451362 ], [ 1.946417021042011, 48.799722370767441 ], [ 1.946418555619786, 48.799772175056084 ], [ 1.946379584723146, 48.799772950413491 ], [ 1.946383297825283, 48.799840676200077 ] ] ] } },
{ "type": "Feature", "properties": { "fid": 109, "piece": "sanitaire" }, "geometry": { "type": "Polygon", "coordinates": [ [ [ 1.946231095443475, 48.79978730584417 ], [ 1.946232934546574, 48.79984298700942 ], [ 1.946091467290119, 48.799845096349642 ], [ 1.946090717108317, 48.799819355184461 ], [ 1.946144505344435, 48.799818710571024 ], [ 1.946144268896115, 48.799788498361472 ], [ 1.946231095443475, 48.79978730584417 ] ] ] } },
{ "type": "Feature", "properties": { "fid": 110, "piece": "sanitaire" }, "geometry": { "type": "Polygon", "coordinates": [ [ [ 1.946019463602626, 48.799846139757165 ], [ 1.946091896292564, 48.799844820409106 ], [ 1.946090711457524, 48.799819634858004 ], [ 1.946083937834363, 48.799819575129575 ], [ 1.946081827651095, 48.79977731829176 ], [ 1.946017032328164, 48.799777865812331 ], [ 1.946019463602626, 48.799846139757165 ] ] ] } },
{ "type": "Feature", "properties": { "fid": 111, "piece": "degagement" }, "geometry": { "type": "Polygon", "coordinates": [ [ [ 1.946064887956057, 48.799777448642267 ], [ 1.946082245351366, 48.799777601698374 ], [ 1.946081376507545, 48.799757733676429 ], [ 1.946142367296797, 48.799756872851958 ], [ 1.946143845544915, 48.799788494628643 ], [ 1.946161637596149, 48.799788092058918 ], [ 1.946160340150453, 48.799747520728275 ], [ 1.94613113459129, 48.799746983490117 ], [ 1.946130260078788, 48.799727395141552 ], [ 1.94609213591273, 48.799728177871032 ], [ 1.946092581409288, 48.799748042160402 ], [ 1.946063358897736, 48.799748343926389 ], [ 1.946064887956057, 48.799777448642267 ] ] ] } },
{ "type": "Feature", "properties": { "fid": 112, "piece": "vestiaire" }, "geometry": { "type": "Polygon", "coordinates": [ [ [ 1.946017455679269, 48.799777869545629 ], [ 1.946065311307162, 48.799777452375366 ], [ 1.946063353246804, 48.799748623599939 ], [ 1.946092592710838, 48.799747482813267 ], [ 1.94609213591273, 48.799728177871032 ], [ 1.946016728627426, 48.799730030433608 ], [ 1.946017455679269, 48.799777869545629 ] ] ] } },
{ "type": "Feature", "properties": { "fid": 113, "piece": "vestiaire" }, "geometry": { "type": "Polygon", "coordinates": [ [ [ 1.946130716890998, 48.799746700083666 ], [ 1.946160345800864, 48.79974724105471 ], [ 1.946162066597754, 48.799787816118119 ], [ 1.946231101093511, 48.799787026170598 ], [ 1.946229380645171, 48.799725471857478 ], [ 1.946130683429491, 48.799727398874424 ], [ 1.946130716890998, 48.799746700083666 ] ] ] } },
{ "type": "Feature", "properties": { "fid": 114, "piece": "bureau" }, "geometry": { "type": "Polygon", "coordinates": [ [ [ 1.945894744421517, 48.799836648172146 ], [ 1.945984105512773, 48.799835757910095 ], [ 1.945983553181894, 48.799800228169879 ], [ 1.945893322841531, 48.799802229658297 ], [ 1.945894744421517, 48.799836648172146 ] ] ] } },
{ "type": "Feature", "properties": { "fid": 115, "piece": "bureau" }, "geometry": { "type": "Polygon", "coordinates": [ [ [ 1.945893751844671, 48.799801953718465 ], [ 1.945984399884459, 48.799800235636653 ], [ 1.945983006503131, 48.799764418754989 ], [ 1.945891935174537, 48.799766133102075 ], [ 1.945893751844671, 48.799801953718465 ] ] ] } },
{ "type": "Feature", "properties": { "fid": 116, "piece": "bureau" }, "geometry": { "type": "Polygon", "coordinates": [ [ [ 1.945892364177387, 48.799765857162249 ], [ 1.945983000851767, 48.799764698428532 ], [ 1.945981184121644, 48.799728877812321 ], [ 1.945890553161319, 48.79972975687113 ], [ 1.945892364177387, 48.799765857162249 ] ] ] } },
{ "type": "Feature", "properties": { "fid": 117, "piece": "ascenceur" }, "geometry": { "type": "Polygon", "coordinates": [ [ [ 1.945946082477423, 48.799852485717892 ], [ 1.945985465488905, 48.799852273582339 ], [ 1.945984952215916, 48.799835765376862 ], [ 1.945945552262175, 48.79983681653286 ], [ 1.945946082477423, 48.799852485717892 ] ] ] } },
{ "type": "Feature", "properties": { "fid": 118, "piece": "degagement" }, "geometry": { "type": "Polygon", "coordinates": [ [ [ 1.945890976512023, 48.799729760604841 ], [ 1.946010389669125, 48.799729415087143 ], [ 1.946011423350282, 48.799699214074828 ], [ 1.945979660762823, 48.799699493420562 ], [ 1.94597955338669, 48.799704807218426 ], [ 1.945890198171539, 48.799705417803622 ], [ 1.945890976512023, 48.799729760604841 ] ] ] } },
{ "type": "Feature", "properties": { "fid": 119, "piece": "bureau" }, "geometry": { "type": "Polygon", "coordinates": [ [ [ 1.945890615870193, 48.799705701210918 ], [ 1.945979976737197, 48.79970481095183 ], [ 1.945978278690196, 48.79966311718848 ], [ 1.945888076846108, 48.79966372030529 ], [ 1.945890615870193, 48.799705701210918 ] ] ] } },
{ "type": "Feature", "properties": { "fid": 120, "piece": "degagement" }, "geometry": { "type": "Polygon", "coordinates": [ [ [ 1.945888505848135, 48.799663444365457 ], [ 1.945977860991407, 48.799662833781497 ], [ 1.945977398585119, 48.799643808510957 ], [ 1.945887614472557, 48.799644695034424 ], [ 1.945888505848135, 48.799663444365457 ] ] ] } },
{ "type": "Feature", "properties": { "fid": 121, "piece": "salle de pause" }, "geometry": { "type": "Polygon", "coordinates": [ [ [ 1.945888037822571, 48.799644698768155 ], [ 1.945977398585119, 48.799643808510957 ], [ 1.945976338140373, 48.799612470135187 ], [ 1.945886130731974, 48.799613352924133 ], [ 1.945888037822571, 48.799644698768155 ] ] ] } },
{ "type": "Feature", "properties": { "fid": 122, "piece": "bureau" }, "geometry": { "type": "Polygon", "coordinates": [ [ [ 1.945884511889154, 48.799567743725696 ], [ 1.945974730521483, 48.799566301590723 ], [ 1.945973229776612, 48.799535798500187 ], [ 1.945883423242391, 48.79953780371504 ], [ 1.945884511889154, 48.799567743725696 ] ] ] } },
{ "type": "Feature", "properties": { "fid": 123, "piece": "bureau" }, "geometry": { "type": "Polygon", "coordinates": [ [ [ 1.945884269940682, 48.799537811182553 ], [ 1.945973224125221, 48.799536078173809 ], [ 1.945972468354818, 48.799510616674482 ], [ 1.94588307956099, 48.799512905296169 ], [ 1.945884269940682, 48.799537811182553 ] ] ] } },
{ "type": "Feature", "properties": { "fid": 124, "piece": "bureau" }, "geometry": { "type": "Polygon", "coordinates": [ [ [ 1.945883514213675, 48.799512349682686 ], [ 1.945972468354818, 48.799510616674482 ], [ 1.945970651640776, 48.799474796050077 ], [ 1.945880427514711, 48.799476517855716 ], [ 1.945883514213675, 48.799512349682686 ] ] ] } },
{ "type": "Feature", "properties": { "fid": 125, "piece": "bureau" }, "geometry": { "type": "Polygon", "coordinates": [ [ [ 1.945881697560657, 48.799476529056989 ], [ 1.945971080640815, 48.799474520109875 ], [ 1.945969664671731, 48.799439821912308 ], [ 1.945879451909893, 48.799440984369987 ], [ 1.945881697560657, 48.799476529056989 ] ] ] } },
{ "type": "Feature", "properties": { "fid": 126, "piece": "bureau" }, "geometry": { "type": "Polygon", "coordinates": [ [ [ 1.945879875258253, 48.799440988103754 ], [ 1.945969664671731, 48.799439821912308 ], [ 1.945968271310146, 48.79940400501907 ], [ 1.945878470654518, 48.799405730556792 ], [ 1.945879875258253, 48.799440988103754 ] ] ] } },
{ "type": "Feature", "properties": { "fid": 127, "piece": "bureau" }, "geometry": { "type": "Polygon", "coordinates": [ [ [ 1.945878894002591, 48.799405734290559 ], [ 1.94596784796208, 48.799404001285623 ], [ 1.945966387293766, 48.799350561217445 ], [ 1.945876592381965, 48.799352007080188 ], [ 1.945878894002591, 48.799405734290559 ] ] ] } },
{ "type": "Feature", "properties": { "fid": 128, "piece": "escalier" }, "geometry": { "type": "Polygon", "coordinates": [ [ [ 1.945794221502909, 48.79950988378647 ], [ 1.945830217465041, 48.799509641829431 ], [ 1.94582526501455, 48.799377568665697 ], [ 1.94578925783881, 48.799378369968544 ], [ 1.945794221502909, 48.79950988378647 ] ] ] } },
{ "type": "Feature", "properties": { "fid": 129, "piece": "salle de reunion" }, "geometry": { "type": "Polygon", "coordinates": [ [ [ 1.94587702138149, 48.799351731140298 ], [ 1.945966392945172, 48.799350281543795 ], [ 1.945965219484783, 48.799324536633122 ], [ 1.945876276964492, 48.799325710288912 ], [ 1.94587702138149, 48.799351731140298 ] ] ] } },
{ "type": "Feature", "properties": { "fid": 130, "piece": "bureau" }, "geometry": { "type": "Polygon", "coordinates": [ [ [ 1.94596595315147, 48.799330137573314 ], [ 1.94610105750321, 48.79932853173348 ], [ 1.946098799953228, 48.799314525652015 ], [ 1.946109107206248, 48.799307343727754 ], [ 1.94578804605808, 48.799312624256068 ], [ 1.945813954458233, 48.799329636186158 ], [ 1.945780469860173, 48.799352278169295 ], [ 1.945793113765813, 48.79935518692858 ], [ 1.945793441023759, 48.799359945114666 ], [ 1.945789596980354, 48.799361589549875 ], [ 1.945789686839013, 48.799378094028988 ], [ 1.945825682710224, 48.799377852073285 ], [ 1.945831069815018, 48.799509369623685 ], [ 1.94574720716354, 48.799510587990348 ], [ 1.945745649430495, 48.799503860886794 ], [ 1.945741890164408, 48.799501310216101 ], [ 1.945736860852234, 48.799498748342486 ], [ 1.945729692185795, 48.799497286491636 ], [ 1.945723765302515, 48.799497234211366 ], [ 1.945716980416116, 48.799497733809375 ], [ 1.945711002657658, 48.799500198590955 ], [ 1.945707152948504, 48.799502122696893 ], [ 1.945704550674329, 48.799505176700301 ], [ 1.945703224099365, 48.799507962233221 ], [ 1.94570272726357, 48.799511594255712 ], [ 1.945655289572502, 48.799512294689066 ], [ 1.945658082825364, 48.79935315666291 ], [ 1.945623781006711, 48.799332434248889 ], [ 1.945649549306283, 48.799314479539163 ], [ 1.945467402538166, 48.799318187330819 ], [ 1.945479114913106, 48.799325283757554 ], [ 1.94545937518931, 48.799338256598588 ], [ 1.945448498200651, 48.799331726987866 ], [ 1.945468213853806, 48.799864494409171 ], [ 1.945478515648235, 48.799857592216291 ], [ 1.945499005453603, 48.799870360546372 ], [ 1.945487851301587, 48.799877534944166 ], [ 1.94598935427425, 48.799869371001627 ], [ 1.945978070710919, 48.799861998688186 ], [ 1.945986650773708, 48.799856479885491 ], [ 1.945985888840605, 48.799852277315701 ], [ 1.94594608812899, 48.799852206044349 ], [ 1.945945986916889, 48.799836260919299 ], [ 1.945894309766245, 48.799837203785479 ], [ 1.94588571303408, 48.799613069516795 ], [ 1.945975926093382, 48.799611907054569 ], [ 1.945974724870093, 48.799566581264301 ], [ 1.945884094191636, 48.799567460318315 ], [ 1.945876276964489, 48.799325710288883 ], [ 1.945965225136192, 48.799324256959437 ], [ 1.94596595315147, 48.799330137573314 ] ] ] } },
{ "type": "Feature", "properties": { "fid": 131, "piece": "atelier" }, "geometry": { "type": "Polygon", "coordinates": [ [ [ 1.946961737243797, 48.799314439339966 ], [ 1.947019035765251, 48.799349629866839 ], [ 1.94707228737471, 48.799312616063794 ], [ 1.946961737243797, 48.799314439339966 ] ] ] } },
{ "type": "Feature", "properties": { "fid": 132, "piece": "reprographie" }, "geometry": { "type": "Polygon", "coordinates": [ [ [ 1.947080404186126, 48.799371988940415 ], [ 1.947274828115635, 48.799368386827361 ], [ 1.947273411264555, 48.799312709383663 ], [ 1.947079489926013, 48.799312399792029 ], [ 1.947080404186126, 48.799371988940415 ] ] ] } },
{ "type": "Feature", "properties": { "fid": 133, "piece": "coffre" }, "geometry": { "type": "Polygon", "coordinates": [ [ [ 1.947435604204949, 48.799332599609322 ], [ 1.947481337031764, 48.799332442904415 ], [ 1.947481438509537, 48.799306429518751 ], [ 1.947434384871592, 48.799309092102568 ], [ 1.947435604204949, 48.799332599609322 ] ] ] } },
{ "type": "Feature", "properties": { "fid": 134, "piece": "degagement" }, "geometry": { "type": "Polygon", "coordinates": [ [ [ 1.947438726077203, 48.799429691129149 ], [ 1.947427290027386, 48.79942987013979 ], [ 1.947424777919468, 48.799365511630647 ], [ 1.947435784963794, 48.799365608565722 ], [ 1.947438726077203, 48.799429691129149 ] ] ] } },
{ "type": "Feature", "properties": { "fid": 135, "piece": "bureau" }, "geometry": { "type": "Polygon", "coordinates": [ [ [ 1.947424777919468, 48.799365511630647 ], [ 1.947483216854269, 48.799365187099362 ], [ 1.947481342675047, 48.79933216323068 ], [ 1.947422892490035, 48.799333047108512 ], [ 1.947424777919468, 48.799365511630647 ] ] ] } },
{ "type": "Feature", "properties": { "fid": 136, "piece": "bureau" }, "geometry": { "type": "Polygon", "coordinates": [ [ [ 1.947437252697831, 48.79939778968474 ], [ 1.947482996868356, 48.799397073631795 ], [ 1.947482364515268, 48.799365459316931 ], [ 1.947435796250858, 48.79936504921826 ], [ 1.947437252697831, 48.79939778968474 ] ] ] } },
{ "type": "Feature", "properties": { "fid": 137, "piece": "bureau" }, "geometry": { "type": "Polygon", "coordinates": [ [ [ 1.947439155069102, 48.799429415183674 ], [ 1.947483194587266, 48.799429243565093 ], [ 1.947482996868356, 48.799397073631795 ], [ 1.947437670402426, 48.799398073086721 ], [ 1.947439155069102, 48.799429415183674 ] ] ] } },
{ "type": "Feature", "properties": { "fid": 138, "piece": "bureau" }, "geometry": { "type": "Polygon", "coordinates": [ [ [ 1.947427916704292, 48.799461764126839 ], [ 1.947485102630816, 48.799460589388723 ], [ 1.947483200230552, 48.799428963891394 ], [ 1.947427290027387, 48.79942987013979 ], [ 1.947427916704292, 48.799461764126839 ] ] ] } },
{ "type": "Feature", "properties": { "fid": 139, "piece": "degagement" }, "geometry": { "type": "Polygon", "coordinates": [ [ [ 1.947431907843116, 48.799557744397625 ], [ 1.947444184976279, 48.799557852516678 ], [ 1.947441667197837, 48.799493773688873 ], [ 1.947428966730863, 48.799493661841268 ], [ 1.947431907843116, 48.799557744397625 ] ] ] } },
{ "type": "Feature", "properties": { "fid": 140, "piece": "bureau" }, "geometry": { "type": "Polygon", "coordinates": [ [ [ 1.947429384436181, 48.799493945243235 ], [ 1.947485723700161, 48.799492763048306 ], [ 1.947485096987539, 48.799460869062415 ], [ 1.947428340052932, 48.799461767855114 ], [ 1.947429384436181, 48.799493945243235 ] ] ] } },
{ "type": "Feature", "properties": { "fid": 141, "piece": "bureau" }, "geometry": { "type": "Polygon", "coordinates": [ [ [ 1.947443146226129, 48.799525395456818 ], [ 1.947486339126994, 48.799525216380651 ], [ 1.947485729343439, 48.799492483374607 ], [ 1.94744209619025, 48.799493497743406 ], [ 1.947443146226129, 48.799525395456818 ] ] ] } },
{ "type": "Feature", "properties": { "fid": 142, "piece": "bureau" }, "geometry": { "type": "Polygon", "coordinates": [ [ [ 1.947445037318623, 48.799557580299442 ], [ 1.947486542491731, 48.799557106636655 ], [ 1.947485921421115, 48.799524932978905 ], [ 1.947443146226129, 48.799525395456818 ], [ 1.947445037318623, 48.799557580299442 ] ] ] } },
{ "type": "Feature", "properties": { "fid": 143, "piece": "bureau" }, "geometry": { "type": "Polygon", "coordinates": [ [ [ 1.947433392510875, 48.799589086490244 ], [ 1.947486311220472, 48.799589552511016 ], [ 1.947486119142315, 48.79955710290858 ], [ 1.947432331192535, 48.799557748125878 ], [ 1.947433392510875, 48.799589086490244 ] ] ] } }
]
}
