{
"type": "FeatureCollection",
"name": "hall1",
"crs": { "type": "name", "properties": { "name": "urn:ogc:def:crs:OGC:1.3:CRS84" } },
"features": [
{ "type": "Feature", "properties": { "fid": 1, "ID": "1J02", "Nom": null }, "geometry": { "type": "Polygon", "coordinates": [ [ [ 2.287566738328317, 48.827860751058978 ], [ 2.287567367173818, 48.827886743292886 ], [ 2.287469954591118, 48.827886162948978 ], [ 2.287470300879972, 48.827860826236318 ], [ 2.287566738328317, 48.827860751058978 ] ] ] } },
{ "type": "Feature", "properties": { "fid": 2, "ID": "1H02", "Nom": null }, "geometry": { "type": "Polygon", "coordinates": [ [ [ 2.287601788211075, 48.827888247764555 ], [ 2.287700175888348, 48.827889483520963 ], [ 2.287702489995504, 48.82786415852884 ], [ 2.287602125558319, 48.827863560710917 ], [ 2.287601788211075, 48.827888247764555 ] ] ] } },
{ "type": "Feature", "properties": { "fid": 3, "ID": "1G02", "Nom": "JCDecaux" }, "geometry": { "type": "Polygon", "coordinates": [ [ [ 2.28773262012413, 48.827891625893166 ], [ 2.287898910314282, 48.827892616168114 ], [ 2.287902227066233, 48.827793879665037 ], [ 2.28773790511843, 48.827792901115131 ], [ 2.28773262012413, 48.827891625893166 ] ] ] } },
{ "type": "Feature", "properties": { "fid": 4, "ID": "1G08", "Nom": "MBDA" }, "geometry": { "type": "Polygon", "coordinates": [ [ [ 2.287736309977521, 48.827765603700946 ], [ 2.287903565981478, 48.827767899148547 ], [ 2.287906483398867, 48.827698397309192 ], [ 2.287740202703861, 48.827696757385198 ], [ 2.287736309977521, 48.827765603700946 ] ] ] } },
{ "type": "Feature", "properties": { "fid": 5, "ID": "1H06", "Nom": null }, "geometry": { "type": "Polygon", "coordinates": [ [ [ 2.287547334253668, 48.827840494385242 ], [ 2.287701816701365, 48.827841414591802 ], [ 2.287703466387638, 48.82779269600119 ], [ 2.287549001840681, 48.827790476478015 ], [ 2.287547334253668, 48.827840494385242 ] ] ] } },
{ "type": "Feature", "properties": { "fid": 6, "ID": "1J04", "Nom": null }, "geometry": { "type": "Polygon", "coordinates": [ [ [ 2.287471586737121, 48.82783874368215 ], [ 2.287513897214097, 48.82783899575989 ], [ 2.287514322736324, 48.827812360093766 ], [ 2.287472253832399, 48.82781243431144 ], [ 2.287471586737121, 48.82783874368215 ] ] ] } },
{ "type": "Feature", "properties": { "fid": 7, "ID": "1J06", "Nom": null }, "geometry": { "type": "Polygon", "coordinates": [ [ [ 2.287472252722501, 48.82781251551885 ], [ 2.287514199740814, 48.827812359360998 ], [ 2.287515196499429, 48.827784427672938 ], [ 2.287473654233301, 48.827784220779378 ], [ 2.287472252722501, 48.82781251551885 ] ] ] } },
{ "type": "Feature", "properties": { "fid": 8, "ID": "1J08", "Nom": null }, "geometry": { "type": "Polygon", "coordinates": [ [ [ 2.287473653678354, 48.827784261383094 ], [ 2.287515320604702, 48.827784347198289 ], [ 2.287516957212542, 48.827759099384608 ], [ 2.287474646800391, 48.827758847307933 ], [ 2.287473653678354, 48.827784261383094 ] ] ] } },
{ "type": "Feature", "properties": { "fid": 9, "ID": "1J10", "Nom": null }, "geometry": { "type": "Polygon", "coordinates": [ [ [ 2.28747397360701, 48.827736103367471 ], [ 2.287518251925998, 48.827736367168548 ], [ 2.287520841349524, 48.827690902734993 ], [ 2.287477547030918, 48.827690644797308 ], [ 2.28747397360701, 48.827736103367471 ] ] ] } },
{ "type": "Feature", "properties": { "fid": 10, "ID": "1H12", "Nom": null }, "geometry": { "type": "Polygon", "coordinates": [ [ [ 2.287554580150331, 48.827670312938452 ], [ 2.287669703636413, 48.827670998709557 ], [ 2.287670538043352, 48.827609930721408 ], [ 2.287555423570203, 48.827608595291593 ], [ 2.287554580150331, 48.827670312938452 ] ] ] } },
{ "type": "Feature", "properties": { "fid": 11, "ID": "1H11", "Nom": null }, "geometry": { "type": "Polygon", "coordinates": [ [ [ 2.287785784461279, 48.827673639208029 ], [ 2.287751345809078, 48.827673434107858 ], [ 2.287729876175017, 48.827660311993952 ], [ 2.287731348311303, 48.82762458658442 ], [ 2.287755149752642, 48.827611084380713 ], [ 2.287786636482716, 48.827611271900253 ], [ 2.287785784461279, 48.827673639208029 ] ] ] } },
{ "type": "Feature", "properties": { "fid": 12, "ID": "1G12", "Nom": "Reply" }, "geometry": { "type": "Polygon", "coordinates": [ [ [ 2.28778776125948, 48.827673001268295 ], [ 2.287907777940971, 48.827675665087682 ], [ 2.287910597737246, 48.827613309496826 ], [ 2.287787629318235, 48.827610628100651 ], [ 2.28778776125948, 48.827673001268295 ] ] ] } },
{ "type": "Feature", "properties": { "fid": 13, "ID": "1H08", "Nom": null }, "geometry": { "type": "Polygon", "coordinates": [ [ [ 2.287709220569884, 48.827731657321976 ], [ 2.287707757291631, 48.827766733068479 ], [ 2.287553301699561, 48.827763863891384 ], [ 2.287553789997272, 48.827728132625566 ], [ 2.287709220569884, 48.827731657321976 ] ] ] } },
{ "type": "Feature", "properties": { "fid": 14, "ID": "1H16", "Nom": null }, "geometry": { "type": "Polygon", "coordinates": [ [ [ 2.287558775748579, 48.827581570984648 ], [ 2.287644863349015, 48.827582733514618 ], [ 2.287648884897693, 48.82750446712754 ], [ 2.287560825070889, 48.827503617706746 ], [ 2.287558771309556, 48.827581895814404 ], [ 2.287558775748579, 48.827581570984648 ] ] ] } },
{ "type": "Feature", "properties": { "fid": 15, "ID": "1J18", "Nom": null }, "geometry": { "type": "Polygon", "coordinates": [ [ [ 2.28748240344302, 48.827589562249251 ], [ 2.287524713717823, 48.827589814323211 ], [ 2.287527994872492, 48.827529735475899 ], [ 2.287483725607922, 48.827528822018891 ], [ 2.28748240344302, 48.827589562249251 ] ] ] } },
{ "type": "Feature", "properties": { "fid": 16, "ID": "1H22", "Nom": null }, "geometry": { "type": "Polygon", "coordinates": [ [ [ 2.28756259842082, 48.827481862905181 ], [ 2.287649669814579, 48.82748303129349 ], [ 2.287651088739579, 48.827451203836638 ], [ 2.287562545902055, 48.827449701827014 ], [ 2.28756259842082, 48.827481862905181 ] ] ] } },
{ "type": "Feature", "properties": { "fid": 17, "ID": "1H28", "Nom": null }, "geometry": { "type": "Polygon", "coordinates": [ [ [ 2.287563033441692, 48.827450029587624 ], [ 2.287651580718221, 48.827451206767122 ], [ 2.287653084657721, 48.82737714850569 ], [ 2.287567985791372, 48.827375667013285 ], [ 2.287563033441692, 48.827450029587624 ] ] ] } },
{ "type": "Feature", "properties": { "fid": 18, "ID": "1J22", "Nom": null }, "geometry": { "type": "Polygon", "coordinates": [ [ [ 2.28748647850973, 48.827507397911049 ], [ 2.28753026021618, 48.827507983606282 ], [ 2.287530664182688, 48.82747842409799 ], [ 2.287486882501058, 48.827477838402871 ], [ 2.28748647850973, 48.827507397911049 ] ] ] } },
{ "type": "Feature", "properties": { "fid": 19, "ID": "1J24", "Nom": null }, "geometry": { "type": "Polygon", "coordinates": [ [ [ 2.287486882501058, 48.827477838402871 ], [ 2.287530664182688, 48.82747842409799 ], [ 2.287531077027107, 48.827448214929355 ], [ 2.28748778734944, 48.827447632165509 ], [ 2.287486882501058, 48.827477838402871 ] ] ] } },
{ "type": "Feature", "properties": { "fid": 20, "ID": "1J26", "Nom": null }, "geometry": { "type": "Polygon", "coordinates": [ [ [ 2.287490066024648, 48.827424905805756 ], [ 2.287533360122639, 48.827425163739001 ], [ 2.287536703404978, 48.827360537265406 ], [ 2.287493409360638, 48.827360279333362 ], [ 2.287490066024648, 48.827424905805756 ] ] ] } },
{ "type": "Feature", "properties": { "fid": 21, "ID": "1H21", "Nom": null }, "geometry": { "type": "Polygon", "coordinates": [ [ [ 2.287683115506236, 48.827483880221806 ], [ 2.287835123692915, 48.827485760093992 ], [ 2.287835673916891, 48.827445481201138 ], [ 2.287683683600565, 48.827442302010454 ], [ 2.287683115506236, 48.827483880221806 ] ] ] } },
{ "type": "Feature", "properties": { "fid": 22, "ID": "1H25", "Nom": null }, "geometry": { "type": "Polygon", "coordinates": [ [ [ 2.287684175579125, 48.827442304940796 ], [ 2.287836165895489, 48.827445484130855 ], [ 2.287839021263047, 48.827380529890455 ], [ 2.287686556910766, 48.827376048454312 ], [ 2.287684175579125, 48.827442304940796 ] ] ] } },
{ "type": "Feature", "properties": { "fid": 23, "ID": "1G28", "Nom": null }, "geometry": { "type": "Polygon", "coordinates": [ [ [ 2.287835128130209, 48.827485435264187 ], [ 2.287915311830184, 48.827486562442701 ], [ 2.28792164694478, 48.827382971032549 ], [ 2.287839025700307, 48.827380205060642 ], [ 2.287835128130209, 48.827485435264187 ] ] ] } },
{ "type": "Feature", "properties": { "fid": 24, "ID": null, "Nom": "Pitch Studio" }, "geometry": { "type": "Polygon", "coordinates": [ [ [ 2.287792757864257, 48.827093406295511 ], [ 2.287791466542396, 48.827187931788686 ], [ 2.287706167617952, 48.827237126781327 ], [ 2.287555130796995, 48.827236227096101 ], [ 2.287560075761358, 48.827090396074972 ], [ 2.287792757864257, 48.827093406295511 ] ] ] } },
{ "type": "Feature", "properties": { "fid": 25, "ID": "1H41", "Nom": null }, "geometry": { "type": "Polygon", "coordinates": [ [ [ 2.287810006904798, 48.827163353124291 ], [ 2.287952161332711, 48.827166148740787 ], [ 2.287952529565104, 48.827139187861086 ], [ 2.28781086274895, 48.82713672000466 ], [ 2.287810006904798, 48.827163353124291 ] ] ] } },
{ "type": "Feature", "properties": { "fid": 26, "ID": "1G48", "Nom": null }, "geometry": { "type": "Polygon", "coordinates": [ [ [ 2.287971831498647, 48.827166915568839 ], [ 2.288067270403281, 48.827167808619123 ], [ 2.288068112808646, 48.827142149987388 ], [ 2.287972190848054, 48.827140604348848 ], [ 2.287971831498647, 48.827166915568839 ] ] ] } },
{ "type": "Feature", "properties": { "fid": 27, "ID": "1G40", "Nom": null }, "geometry": { "type": "Polygon", "coordinates": [ [ [ 2.287903171754238, 48.827186647846787 ], [ 2.288008937757266, 48.827187927291462 ], [ 2.288007909001899, 48.827227228775754 ], [ 2.28790213848231, 48.82722627416009 ], [ 2.287903171754238, 48.827186647846787 ] ] ] } },
{ "type": "Feature", "properties": { "fid": 28, "ID": "1G36", "Nom": null }, "geometry": { "type": "Polygon", "coordinates": [ [ [ 2.287902626021992, 48.827226601919385 ], [ 2.288007904565704, 48.827227553605631 ], [ 2.288006286235265, 48.827273998416068 ], [ 2.28790102090839, 48.827272072238912 ], [ 2.287902626021992, 48.827226601919385 ] ] ] } },
{ "type": "Feature", "properties": { "fid": 29, "ID": "1G32", "Nom": null }, "geometry": { "type": "Polygon", "coordinates": [ [ [ 2.28783825141269, 48.827292814120575 ], [ 2.288004521949992, 48.827295103568545 ], [ 2.288001711155755, 48.827356809519642 ], [ 2.287835936836798, 48.827354198167832 ], [ 2.28783825141269, 48.827292814120575 ] ] ] } },
{ "type": "Feature", "properties": { "fid": 30, "ID": "1F40", "Nom": "India" }, "geometry": { "type": "Polygon", "coordinates": [ [ [ 2.288043371653799, 48.827188457147408 ], [ 2.288275056966214, 48.82719243506115 ], [ 2.288269635578287, 48.82730122964098 ], [ 2.288174351004732, 48.827361085787686 ], [ 2.288033188861048, 48.82735764663397 ], [ 2.288043371653799, 48.827188457147408 ] ] ] } },
{ "type": "Feature", "properties": { "fid": 31, "ID": "1F39", "Nom": "India" }, "geometry": { "type": "Polygon", "coordinates": [ [ [ 2.288382724387263, 48.827198598335031 ], [ 2.288526851280274, 48.827201080148342 ], [ 2.288587763221383, 48.827244323537109 ], [ 2.288578499651222, 48.827418391362301 ], [ 2.288371899772629, 48.827414888173209 ], [ 2.288382724387263, 48.827198598335031 ] ] ] } },
{ "type": "Feature", "properties": { "fid": 32, "ID": "1F42", "Nom": null }, "geometry": { "type": "Polygon", "coordinates": [ [ [ 2.288144336305331, 48.827090951576885 ], [ 2.288187129283828, 48.82709185600487 ], [ 2.28827587500773, 48.827150533470231 ], [ 2.288275569025792, 48.827172946732325 ], [ 2.288141268436828, 48.827171497675558 ], [ 2.288144336305331, 48.827090951576885 ] ] ] } },
{ "type": "Feature", "properties": { "fid": 34, "ID": "1F41", "Nom": null }, "geometry": { "type": "Polygon", "coordinates": [ [ [ 2.288386446781506, 48.827102794322734 ], [ 2.288482955608183, 48.82710442202719 ], [ 2.288481144350961, 48.827178681236632 ], [ 2.28838262672447, 48.82717809505337 ], [ 2.288386446781506, 48.827102794322734 ] ] ] } },
{ "type": "Feature", "properties": { "fid": 35, "ID": null, "Nom": "Discovery Stage" }, "geometry": { "type": "Polygon", "coordinates": [ [ [ 2.288523610191878, 48.827106770849454 ], [ 2.288823528542985, 48.827110134982846 ], [ 2.288820672081784, 48.827173326492158 ], [ 2.288710860791402, 48.827240359179164 ], [ 2.288625914973045, 48.827239063811085 ], [ 2.288520397637854, 48.827166799810627 ], [ 2.288523610191878, 48.827106770849454 ] ] ] } },
{ "type": "Feature", "properties": { "fid": 36, "ID": "1D42", "Nom": null }, "geometry": { "type": "Polygon", "coordinates": [ [ [ 2.288864179554282, 48.827112747036701 ], [ 2.288959897885078, 48.827113842917989 ], [ 2.288957681266519, 48.827188626457314 ], [ 2.288858779127914, 48.827186984905353 ], [ 2.288864179554282, 48.827112747036701 ] ] ] } },
{ "type": "Feature", "properties": { "fid": 37, "ID": "1D40", "Nom": "India" }, "geometry": { "type": "Polygon", "coordinates": [ [ [ 2.288955378162711, 48.827210665808188 ], [ 2.288944838058032, 48.827429927865786 ], [ 2.288738986935321, 48.827426438005332 ], [ 2.288747611371675, 48.827247041793932 ], [ 2.288809227258456, 48.827207984155038 ], [ 2.288955378162711, 48.827210665808188 ] ] ] } },
{ "type": "Feature", "properties": { "fid": 38, "ID": "1E28", "Nom": "Innovation Gallery" }, "geometry": { "type": "Polygon", "coordinates": [ [ [ 2.288624858499113, 48.827264890834584 ], [ 2.288706512415411, 48.827266282818321 ], [ 2.288700224853089, 48.827425301163551 ], [ 2.288617884414555, 48.827423905093475 ], [ 2.288624858499113, 48.827264890834584 ] ] ] } },
{ "type": "Feature", "properties": { "fid": 39, "ID": "1E14", "Nom": "Innovation Gallery" }, "geometry": { "type": "Polygon", "coordinates": [ [ [ 2.288616858082078, 48.827448822251036 ], [ 2.288699198559938, 48.8274502183218 ], [ 2.288691829012461, 48.827638231815044 ], [ 2.288609488237855, 48.827636835739447 ], [ 2.288616858082078, 48.827448822251036 ] ] ] } },
{ "type": "Feature", "properties": { "fid": 40, "ID": "1F13", "Nom": null }, "geometry": { "type": "Polygon", "coordinates": [ [ [ 2.288363832307535, 48.827633108453306 ], [ 2.288567637759411, 48.827635680484462 ], [ 2.288572114189956, 48.827508825064243 ], [ 2.288366268965761, 48.827504881449087 ], [ 2.288363832307535, 48.827633108453306 ] ] ] } },
{ "type": "Feature", "properties": { "fid": 41, "ID": "1D14", "Nom": "Essilor Luxotica" }, "geometry": { "type": "Polygon", "coordinates": [ [ [ 2.288729549474648, 48.827640268763659 ], [ 2.288936773993563, 48.827643766800563 ], [ 2.288939444370379, 48.827548621146668 ], [ 2.288734959147408, 48.827545592553911 ], [ 2.288729549474648, 48.827640268763659 ] ] ] } },
{ "type": "Feature", "properties": { "fid": 42, "ID": "1D12", "Nom": "L'Oréal Groupe" }, "geometry": { "type": "Polygon", "coordinates": [ [ [ 2.288729197103927, 48.827666096225741 ], [ 2.288935049172258, 48.827669586102282 ], [ 2.288928848781582, 48.827822260816028 ], [ 2.288834742259569, 48.827878344996719 ], [ 2.288720139791701, 48.827877210298773 ], [ 2.288729197103927, 48.827666096225741 ] ] ] } },
{ "type": "Feature", "properties": { "fid": 43, "ID": "1E04", "Nom": "Vusion" }, "geometry": { "type": "Polygon", "coordinates": [ [ [ 2.288361427111555, 48.827658470549927 ], [ 2.288567272941803, 48.827662414172899 ], [ 2.288558221157977, 48.827873075121104 ], [ 2.28844637000908, 48.827871503377878 ], [ 2.288355212671941, 48.827812051462026 ], [ 2.288361427111555, 48.827658470549927 ] ] ] } },
{ "type": "Feature", "properties": { "fid": 44, "ID": "1E04", "Nom": "Innovation Gallery" }, "geometry": { "type": "Polygon", "coordinates": [ [ [ 2.288607781803692, 48.827661295696551 ], [ 2.288690122616885, 48.827662691773291 ], [ 2.288682171863285, 48.827893297878589 ], [ 2.288596399288542, 48.82789188138478 ], [ 2.288607781803692, 48.827661295696551 ] ] ] } },
{ "type": "Feature", "properties": { "fid": 45, "ID": "1D01", "Nom": "Sanofi" }, "geometry": { "type": "Polygon", "coordinates": [ [ [ 2.289036625422532, 48.827820635835756 ], [ 2.28933853242953, 48.827826508612205 ], [ 2.289335825706595, 48.827924372931193 ], [ 2.289032533214713, 48.827919398215229 ], [ 2.289036625422532, 48.827820635835756 ] ] ] } },
{ "type": "Feature", "properties": { "fid": 46, "ID": "1D07", "Nom": "Samsung" }, "geometry": { "type": "Polygon", "coordinates": [ [ [ 2.289036983821285, 48.827794355263009 ], [ 2.289342315891308, 48.827800701542586 ], [ 2.289345763786583, 48.827648463605584 ], [ 2.289135812651581, 48.827643590620049 ], [ 2.289039610768171, 48.827702381413225 ], [ 2.289036983821285, 48.827794355263009 ] ] ] } },
{ "type": "Feature", "properties": { "fid": 47, "ID": "1C07", "Nom": null }, "geometry": { "type": "Polygon", "coordinates": [ [ [ 2.289380048849071, 48.827801832059052 ], [ 2.2895440138123, 48.827806884581896 ], [ 2.28954701122557, 48.827738023581439 ], [ 2.289383027949807, 48.827734330402507 ], [ 2.289380048849071, 48.827801832059052 ] ] ] } },
{ "type": "Feature", "properties": { "fid": 48, "ID": "1C11", "Nom": "Hong Kong Tech Pavillon" }, "geometry": { "type": "Polygon", "coordinates": [ [ [ 2.289384029216686, 48.827711225698224 ], [ 2.289615249068535, 48.827716677735701 ], [ 2.289618135246617, 48.827655972769392 ], [ 2.289386210858598, 48.827651875999585 ], [ 2.289384029216686, 48.827711225698224 ] ] ] } },
{ "type": "Feature", "properties": { "fid": 49, "ID": "1C05", "Nom": "AWS & NBA, CLoud Court Challenge" }, "geometry": { "type": "Polygon", "coordinates": [ [ [ 2.289376031409512, 48.827895157092286 ], [ 2.289541387749992, 48.827898858434203 ], [ 2.289543018789373, 48.827829536172196 ], [ 2.289379035226053, 48.827825842988098 ], [ 2.289376031409512, 48.827895157092286 ] ] ] } },
{ "type": "Feature", "properties": { "fid": 50, "ID": "1B01", "Nom": null }, "geometry": { "type": "Polygon", "coordinates": [ [ [ 2.289571825760702, 48.827931666051605 ], [ 2.289634957357114, 48.827932494212625 ], [ 2.289635333977318, 48.827904854300769 ], [ 2.289571503785319, 48.827904928289769 ], [ 2.289571825760702, 48.827931666051605 ] ] ] } },
{ "type": "Feature", "properties": { "fid": 51, "ID": "1A02", "Nom": null }, "geometry": { "type": "Polygon", "coordinates": [ [ [ 2.289634963531219, 48.827932041099324 ], [ 2.289675454058441, 48.82793228160152 ], [ 2.289675812135934, 48.827906001029461 ], [ 2.289636020257078, 48.827904858377195 ], [ 2.289634963531219, 48.827932041099324 ] ] ] } },
{ "type": "Feature", "properties": { "fid": 52, "ID": "1A01", "Nom": null }, "geometry": { "type": "Polygon", "coordinates": [ [ [ 2.289707659836677, 48.827936098084663 ], [ 2.289803040437211, 48.827937570838223 ], [ 2.28980341696834, 48.827909930925955 ], [ 2.289707362485493, 48.827907547869998 ], [ 2.289707659836677, 48.827936098084663 ] ] ] } },
{ "type": "Feature", "properties": { "fid": 53, "ID": "1A03", "Nom": null }, "geometry": { "type": "Polygon", "coordinates": [ [ [ 2.28976320424233, 48.827889300367552 ], [ 2.289805747403053, 48.827890006165987 ], [ 2.28980703242526, 48.82784605824758 ], [ 2.289763116742407, 48.827845344298169 ], [ 2.28976320424233, 48.827889300367552 ] ] ] } },
{ "type": "Feature", "properties": { "fid": 54, "ID": "1A05", "Nom": null }, "geometry": { "type": "Polygon", "coordinates": [ [ [ 2.289763116742407, 48.827845344298169 ], [ 2.289807724876853, 48.827845609209689 ], [ 2.289808095232247, 48.827818422408498 ], [ 2.289764841159432, 48.827819524988534 ], [ 2.289763116742407, 48.827845344298169 ] ] ] } },
{ "type": "Feature", "properties": { "fid": 55, "ID": "1A09", "Nom": null }, "geometry": { "type": "Polygon", "coordinates": [ [ [ 2.289767202469547, 48.827797334660914 ], [ 2.289809739382707, 48.827798493571386 ], [ 2.289811154022897, 48.827745030268225 ], [ 2.289768604807482, 48.827744777584989 ], [ 2.289767202469547, 48.827797334660914 ] ] ] } },
{ "type": "Feature", "properties": { "fid": 56, "ID": "1A11", "Nom": null }, "geometry": { "type": "Polygon", "coordinates": [ [ [ 2.289770298353949, 48.827721223839966 ], [ 2.289813533827509, 48.827721480598015 ], [ 2.289813922696556, 48.827692934453545 ], [ 2.28977206597351, 48.827692232733519 ], [ 2.289770298353949, 48.827721223839966 ] ] ] } },
{ "type": "Feature", "properties": { "fid": 57, "ID": "1A13", "Nom": null }, "geometry": { "type": "Polygon", "coordinates": [ [ [ 2.289772752250483, 48.827692236809156 ], [ 2.289814608973542, 48.827692938528955 ], [ 2.289815004014295, 48.827663939270373 ], [ 2.289772448692167, 48.827664139701888 ], [ 2.289772752250483, 48.827692236809156 ] ] ] } },
{ "type": "Feature", "properties": { "fid": 58, "ID": "1B13", "Nom": null }, "geometry": { "type": "Polygon", "coordinates": [ [ [ 2.289647510274912, 48.827716416215218 ], [ 2.289694164783194, 48.827717599624954 ], [ 2.289696315204624, 48.827660515488034 ], [ 2.289650328502089, 48.82766069549573 ], [ 2.289647510274912, 48.827716416215218 ] ] ] } },
{ "type": "Feature", "properties": { "fid": 59, "ID": "1A12", "Nom": null }, "geometry": { "type": "Polygon", "coordinates": [ [ [ 2.289694851060495, 48.827717603701032 ], [ 2.289738086530681, 48.827717860486352 ], [ 2.289739137025262, 48.827691130871514 ], [ 2.289695221473841, 48.827690416897092 ], [ 2.289694851060495, 48.827717603701032 ] ] ] } },
{ "type": "Feature", "properties": { "fid": 60, "ID": "1A14", "Nom": null }, "geometry": { "type": "Polygon", "coordinates": [ [ [ 2.289695221473841, 48.827690416897092 ], [ 2.289739137025262, 48.827691130871514 ], [ 2.289738852004577, 48.827661674423872 ], [ 2.289696309031084, 48.827660968601485 ], [ 2.289695221473841, 48.827690416897092 ] ] ] } },
{ "type": "Feature", "properties": { "fid": 61, "ID": "1B15", "Nom": "Africa Tech" }, "geometry": { "type": "Polygon", "coordinates": [ [ [ 2.289652015925337, 48.827637594864015 ], [ 2.289816697537173, 48.827640385522955 ], [ 2.28982144365041, 48.827543892734809 ], [ 2.289654703518193, 48.827541089853248 ], [ 2.289652702201582, 48.827637598940335 ], [ 2.289652015925337, 48.827637594864015 ] ] ] } },
{ "type": "Feature", "properties": { "fid": 62, "ID": "1B02", "Nom": null }, "geometry": { "type": "Polygon", "coordinates": [ [ [ 2.28948266008103, 48.827625260055513 ], [ 2.289619902948579, 48.827626981663499 ], [ 2.289623703835479, 48.827549515570908 ], [ 2.289486461171728, 48.82754779396717 ], [ 2.28948266008103, 48.827625260055513 ] ] ] } },
{ "type": "Feature", "properties": { "fid": 63, "ID": "1A21", "Nom": null }, "geometry": { "type": "Polygon", "coordinates": [ [ [ 2.289779870995695, 48.827522347797583 ], [ 2.289822413857203, 48.82752305359034 ], [ 2.289825936678182, 48.827465977591913 ], [ 2.289782015142456, 48.827465716762724 ], [ 2.289779870995695, 48.827522347797583 ] ] ] } },
{ "type": "Feature", "properties": { "fid": 64, "ID": "1B21", "Nom": null }, "geometry": { "type": "Polygon", "coordinates": [ [ [ 2.289657744963398, 48.827519356712024 ], [ 2.289749007151807, 48.827520805051435 ], [ 2.289751188370268, 48.827461455336035 ], [ 2.289661298833505, 48.827460015150784 ], [ 2.289657744963398, 48.827519356712024 ] ] ] } },
{ "type": "Feature", "properties": { "fid": 65, "ID": "1B27", "Nom": null }, "geometry": { "type": "Polygon", "coordinates": [ [ [ 2.289661298833505, 48.827460015150784 ], [ 2.289751188370268, 48.827461455336035 ], [ 2.289751669866984, 48.827426112482485 ], [ 2.289662472838393, 48.827424223260309 ], [ 2.289661298833505, 48.827460015150784 ] ] ] } },
{ "type": "Feature", "properties": { "fid": 66, "ID": "1B22", "Nom": null }, "geometry": { "type": "Polygon", "coordinates": [ [ [ 2.28951078955546, 48.827525280996632 ], [ 2.289625385092784, 48.827526868050782 ], [ 2.289627393576989, 48.827480205515648 ], [ 2.289512124218267, 48.827477708159279 ], [ 2.28951078955546, 48.827525280996632 ] ] ] } },
{ "type": "Feature", "properties": { "fid": 67, "ID": "1B28", "Nom": null }, "geometry": { "type": "Polygon", "coordinates": [ [ [ 2.289512124218267, 48.827477708159279 ], [ 2.28962807367705, 48.827480662705604 ], [ 2.289628901006999, 48.827419945496857 ], [ 2.289515672076203, 48.827418819713671 ], [ 2.289512124218267, 48.827477708159279 ] ] ] } },
{ "type": "Feature", "properties": { "fid": 68, "ID": "1B31", "Nom": null }, "geometry": { "type": "Polygon", "coordinates": [ [ [ 2.289664920607118, 48.827395689337571 ], [ 2.289708155810195, 48.827395946133798 ], [ 2.289712215830271, 48.827299449252948 ], [ 2.289668294435407, 48.827299188381915 ], [ 2.289664920607118, 48.827395689337571 ] ] ] } },
{ "type": "Feature", "properties": { "fid": 69, "ID": "1B37", "Nom": null }, "geometry": { "type": "Polygon", "coordinates": [ [ [ 2.289669833669615, 48.827286962468179 ], [ 2.28971306878255, 48.827287219262644 ], [ 2.289716220275507, 48.827207030386091 ], [ 2.289673677673314, 48.827206324555362 ], [ 2.289669833669615, 48.827286962468179 ] ] ] } },
{ "type": "Feature", "properties": { "fid": 70, "ID": "1B41", "Nom": null }, "geometry": { "type": "Polygon", "coordinates": [ [ [ 2.289536460610841, 48.827202790554033 ], [ 2.289675062561795, 48.827205426480546 ], [ 2.289675408287164, 48.827180052118692 ], [ 2.289538197468576, 48.827176065005681 ], [ 2.289536460610841, 48.827202790554033 ] ] ] } },
{ "type": "Feature", "properties": { "fid": 71, "ID": "1C39", "Nom": null }, "geometry": { "type": "Polygon", "coordinates": [ [ [ 2.289468378588692, 48.827263108209294 ], [ 2.289468959082722, 48.827220515533348 ], [ 2.2893296893614, 48.827216515949118 ], [ 2.289325646513885, 48.827261353801362 ], [ 2.289468378588692, 48.827263108209294 ] ] ] } },
{ "type": "Feature", "properties": { "fid": 72, "ID": "1C31", "Nom": null }, "geometry": { "type": "Polygon", "coordinates": [ [ [ 2.289326332785152, 48.827261357879593 ], [ 2.289400450082572, 48.827261798301969 ], [ 2.289393224420811, 48.827389090583395 ], [ 2.289319811745771, 48.827387294894308 ], [ 2.289326332785152, 48.827261357879593 ] ] ] } },
{ "type": "Feature", "properties": { "fid": 73, "ID": "1C40", "Nom": null }, "geometry": { "type": "Polygon", "coordinates": [ [ [ 2.289296068275343, 48.827215863000021 ], [ 2.289295401162453, 48.827264799265144 ], [ 2.289183526584532, 48.82726504066472 ], [ 2.289186277326097, 48.827214304183009 ], [ 2.289296068275343, 48.827215863000021 ] ] ] } },
{ "type": "Feature", "properties": { "fid": 74, "ID": "1C32", "Nom": "Kised" }, "geometry": { "type": "Polygon", "coordinates": [ [ [ 2.289184212855838, 48.82726504474374 ], [ 2.28929608743376, 48.82726480334351 ], [ 2.289289640445392, 48.827385302994095 ], [ 2.289179855317511, 48.827383291057934 ], [ 2.289184212855838, 48.82726504474374 ] ] ] } },
{ "type": "Feature", "properties": { "fid": 75, "ID": "1D39", "Nom": "Région Auvergne-Rhône-Alpes" }, "geometry": { "type": "Polygon", "coordinates": [ [ [ 2.289186277326097, 48.827214304183009 ], [ 2.289179175222653, 48.827382833865371 ], [ 2.289146920398628, 48.827382642146063 ], [ 2.289058551458925, 48.827320035262595 ], [ 2.289062099416683, 48.827210847137785 ], [ 2.289186277326097, 48.827214304183009 ] ] ] } },
{ "type": "Feature", "properties": { "fid": 76, "ID": "1C42", "Nom": null }, "geometry": { "type": "Polygon", "coordinates": [ [ [ 2.289305944440417, 48.82717105981277 ], [ 2.28936016595319, 48.827170928873777 ], [ 2.289359807721634, 48.827197209462106 ], [ 2.289305598535289, 48.82719643417375 ], [ 2.289305944440417, 48.82717105981277 ] ] ] } },
{ "type": "Feature", "properties": { "fid": 77, "ID": "1C44", "Nom": null }, "geometry": { "type": "Polygon", "coordinates": [ [ [ 2.289305598535289, 48.82719643417375 ], [ 2.289230801238727, 48.827195536500227 ], [ 2.289233731078081, 48.827131659719733 ], [ 2.289275599698093, 48.827131455401329 ], [ 2.289275056109946, 48.827171329398197 ], [ 2.289305944440417, 48.82717105981277 ], [ 2.289305598535289, 48.82719643417375 ] ] ] } },
{ "type": "Feature", "properties": { "fid": 78, "ID": "1C41", "Nom": null }, "geometry": { "type": "Polygon", "coordinates": [ [ [ 2.289199257511993, 48.827193536419387 ], [ 2.289064068431366, 48.827192279680709 ], [ 2.289064383559153, 48.827169170888247 ], [ 2.289159848736372, 48.827114000876946 ], [ 2.28920101871762, 48.827114698732686 ], [ 2.289199257511993, 48.827193536419387 ] ] ] } },
{ "type": "Feature", "properties": { "fid": 79, "ID": "1F08", "Nom": "Meta" }, "geometry": { "type": "Polygon", "coordinates": [ [ [ 2.288081278384495, 48.827617379112738 ], [ 2.288161566473458, 48.827618310184057 ], [ 2.288252642831863, 48.827683652731125 ], [ 2.288246583107829, 48.827775606143291 ], [ 2.288075025998645, 48.827773678695642 ], [ 2.288081278384495, 48.827617379112738 ] ] ] } },
{ "type": "Feature", "properties": { "fid": 80, "ID": "1G09", "Nom": null }, "geometry": { "type": "Polygon", "coordinates": [ [ [ 2.288081278384495, 48.827617379112738 ], [ 2.288074345908381, 48.827773221496969 ], [ 2.28805238501543, 48.827773090762754 ], [ 2.288057945005467, 48.827617240208887 ], [ 2.288081278384495, 48.827617379112738 ] ] ] } },
{ "type": "Feature", "properties": { "fid": 81, "ID": "1F02", "Nom": "Crédit Agricole" }, "geometry": { "type": "Polygon", "coordinates": [ [ [ 2.287941572456655, 48.827795994835547 ], [ 2.288247615425808, 48.827800535543005 ], [ 2.288246180236809, 48.827905657820274 ], [ 2.287937416287792, 48.82789928831199 ], [ 2.287941572456655, 48.827795994835547 ] ] ] } },
{ "type": "Feature", "properties": { "fid": 82, "ID": null, "Nom": "Services" }, "geometry": { "type": "Polygon", "coordinates": [ [ [ 2.289388695846462, 48.827620623407746 ], [ 2.2894531934397, 48.827621912934028 ], [ 2.289460114812688, 48.827416223887212 ], [ 2.289396977668106, 48.827415848747009 ], [ 2.289388695846462, 48.827620623407746 ] ] ] } },
{ "type": "Feature", "properties": { "fid": 83, "ID": null, "Nom": "Restauration" }, "geometry": { "type": "Polygon", "coordinates": [ [ [ 2.289393230596953, 48.827388637469895 ], [ 2.289461857892216, 48.827389045231548 ], [ 2.28946408266068, 48.827326523719648 ], [ 2.289396852696358, 48.827324311660682 ], [ 2.289393230596953, 48.827388637469895 ] ] ] } },
{ "type": "Feature", "properties": { "fid": 86, "ID": null, "Nom": "Restauration" }, "geometry": { "type": "Polygon", "coordinates": [ [ [ 2.289377632223951, 48.827198674829653 ], [ 2.289518299142438, 48.827200870057936 ], [ 2.289519331214224, 48.827175499773531 ], [ 2.289378689069114, 48.82717149209202 ], [ 2.289377632223951, 48.827198674829653 ] ] ] } },
{ "type": "Feature", "properties": { "fid": 87, "ID": null, "Nom": "Restauration" }, "geometry": { "type": "Polygon", "coordinates": [ [ [ 2.287900687654077, 48.827271909734556 ], [ 2.287840295780633, 48.827271550117992 ], [ 2.287842825778834, 48.827186826067866 ], [ 2.28790322374322, 48.827186732569658 ], [ 2.287900687654077, 48.827271909734556 ] ] ] } },
{ "type": "Feature", "properties": { "fid": 88, "ID": null, "Nom": "Restauration" }, "geometry": { "type": "Polygon", "coordinates": [ [ [ 2.287553693741683, 48.82772797798058 ], [ 2.287709447730682, 48.827731171505128 ], [ 2.28771132793091, 48.827694024390041 ], [ 2.287552797984787, 48.827693080080849 ], [ 2.287554386211117, 48.827727528955656 ], [ 2.287553693741683, 48.82772797798058 ] ] ] } },
{ "type": "Feature", "properties": { "fid": 89, "ID": null, "Nom": "Restauration" }, "geometry": { "type": "Polygon", "coordinates": [ [ [ 2.287943640913082, 48.827770177594111 ], [ 2.288019811567653, 48.827771084243587 ], [ 2.288025334526509, 48.827617952371014 ], [ 2.287949837993988, 48.827617956037699 ], [ 2.287943640913082, 48.827770177594111 ] ] ] } },
{ "type": "Feature", "properties": { "fid": 92, "ID": null, "Nom": "Escaliers" }, "geometry": { "type": "Polygon", "coordinates": [ [ [ 2.287993757599312, 48.827040450887871 ], [ 2.288082947723344, 48.827042794468845 ], [ 2.288087436580053, 48.827015632165455 ], [ 2.288257618659323, 48.827017551427943 ], [ 2.288261082041997, 48.826864407188609 ], [ 2.288095055182182, 48.826859793760519 ], [ 2.288088216197394, 48.826958539851162 ], [ 2.287990766258406, 48.826957959698326 ], [ 2.287993757599312, 48.827040450887871 ] ] ] } },
{ "type": "Feature", "properties": { "fid": 93, "ID": null, "Nom": "Escaliers" }, "geometry": { "type": "Polygon", "coordinates": [ [ [ 2.289271305125999, 48.827068895132811 ], [ 2.289364637674119, 48.827069449774349 ], [ 2.289367146656386, 48.826986085017715 ], [ 2.289273838966004, 48.82698371792344 ], [ 2.289276558110652, 48.826884947296357 ], [ 2.289107761316396, 48.826882131415118 ], [ 2.289096040485599, 48.827037039177128 ], [ 2.289270340281869, 48.827038981475546 ], [ 2.289271305125999, 48.827068895132811 ] ] ] } },
{ "type": "Feature", "properties": { "fid": 94, "ID": null, "Nom": "Escaliers" }, "geometry": { "type": "Polygon", "coordinates": [ [ [ 2.287973732378346, 48.827568848453716 ], [ 2.288247067504565, 48.827574773695567 ], [ 2.28825456058725, 48.827383549871776 ], [ 2.287979569775825, 48.827379763866098 ], [ 2.287973732378346, 48.827568848453716 ] ] ] } },
{ "type": "Feature", "properties": { "fid": 95, "ID": null, "Nom": "Escaliers" }, "geometry": { "type": "Polygon", "coordinates": [ [ [ 2.289052383194263, 48.827595681968603 ], [ 2.289333913896479, 48.827597355279771 ], [ 2.289339482728572, 48.82742761081284 ], [ 2.289059668195664, 48.827419500461488 ], [ 2.289052383194263, 48.827595681968603 ] ] ] } },
{ "type": "Feature", "properties": { "fid": 96, "ID": "3J34", "Nom": null }, "geometry": { "type": "Polygon", "coordinates": [ [ [ 2.287559399880769, 48.827312384695077 ], [ 2.287599349530721, 48.827326981504633 ], [ 2.287601407117909, 48.827298828376748 ], [ 2.287559399880769, 48.827312384695077 ] ] ] } },
{ "type": "Feature", "properties": { "fid": 97, "ID": "3J38", "Nom": null }, "geometry": { "type": "Polygon", "coordinates": [ [ [ 2.287563356621829, 48.827267675007128 ], [ 2.287602447229561, 48.827283923486256 ], [ 2.287604519905178, 48.827254665922169 ], [ 2.287563356621829, 48.827267675007128 ] ] ] } },
{ "type": "Feature", "properties": { "fid": 98, "ID": "3J39", "Nom": null }, "geometry": { "type": "Polygon", "coordinates": [ [ [ 2.287623018157995, 48.827247596701596 ], [ 2.287657934459611, 48.827263268034827 ], [ 2.287663329949523, 48.827235687049125 ], [ 2.287623018157995, 48.827247596701596 ] ] ] } },
{ "type": "Feature", "properties": { "fid": 99, "ID": "3J35", "Nom": null }, "geometry": { "type": "Polygon", "coordinates": [ [ [ 2.287620764395464, 48.827290107486498 ], [ 2.287659847492582, 48.827306908164012 ], [ 2.287661912591606, 48.82727820281707 ], [ 2.287620764395464, 48.827290107486498 ] ] ] } },
{ "type": "Feature", "properties": { "fid": 100, "ID": "3J31", "Nom": null }, "geometry": { "type": "Polygon", "coordinates": [ [ [ 2.287617636528291, 48.827335374375075 ], [ 2.287655905922034, 48.827350513418622 ], [ 2.287657149743733, 48.827320698656038 ], [ 2.287617636528291, 48.827335374375075 ] ] ] } },
{ "type": "Feature", "properties": { "fid": 101, "ID": "1H34", "Nom": null }, "geometry": { "type": "Polygon", "coordinates": [ [ [ 2.287684538755088, 48.827336325143619 ], [ 2.287721964251876, 48.827352011401892 ], [ 2.287724044407774, 48.827322201619999 ], [ 2.287684538755088, 48.827336325143619 ] ] ] } },
{ "type": "Feature", "properties": { "fid": 102, "ID": "1H32", "Nom": null }, "geometry": { "type": "Polygon", "coordinates": [ [ [ 2.28775058952341, 48.827338375328587 ], [ 2.287790539246807, 48.827352972073903 ], [ 2.287793440647677, 48.827324271706765 ], [ 2.28775058952341, 48.827338375328587 ] ] ] } },
{ "type": "Feature", "properties": { "fid": 103, "ID": "1H36", "Nom": null }, "geometry": { "type": "Polygon", "coordinates": [ [ [ 2.287754531013849, 48.827294770070345 ], [ 2.287791142761903, 48.82730879467384 ], [ 2.287792371417439, 48.827280084343769 ], [ 2.287754531013849, 48.827294770070345 ] ] ] } },
{ "type": "Feature", "properties": { "fid": 104, "ID": "1H38", "Nom": null }, "geometry": { "type": "Polygon", "coordinates": [ [ [ 2.287686815102723, 48.827292157706729 ], [ 2.287724240568488, 48.82730784396491 ], [ 2.28772631317671, 48.827278586399331 ], [ 2.287686815102723, 48.827292157706729 ] ] ] } },
{ "type": "Feature", "properties": { "fid": 105, "ID": "1H42", "Nom": null }, "geometry": { "type": "Polygon", "coordinates": [ [ [ 2.287688224895698, 48.827250194156562 ], [ 2.287727345707647, 48.82726423372501 ], [ 2.287728566852679, 48.827236075611971 ], [ 2.287688224895698, 48.827250194156562 ] ] ] } },
{ "type": "Feature", "properties": { "fid": 106, "ID": "1H40", "Nom": null }, "geometry": { "type": "Polygon", "coordinates": [ [ [ 2.287755134558783, 48.827250592668179 ], [ 2.287792560015268, 48.82726627890554 ], [ 2.287795468954076, 48.827237026318578 ], [ 2.287755134558783, 48.827250592668179 ] ] ] } },
{ "type": "Feature", "properties": { "fid": 107, "ID": "1H44", "Nom": null }, "geometry": { "type": "Polygon", "coordinates": [ [ [ 2.287757388210041, 48.827208081879256 ], [ 2.287797330291648, 48.827223230841561 ], [ 2.287798566485597, 48.827193968291688 ], [ 2.287757388210041, 48.827208081879256 ] ] ] } },
{ "type": "Feature", "properties": { "fid": 108, "ID": "1H15", "Nom": null }, "geometry": { "type": "Polygon", "coordinates": [ [ [ 2.287735239529455, 48.827528262166439 ], [ 2.287701565717208, 48.827544077214263 ], [ 2.287696954892279, 48.827514227585461 ], [ 2.287735239529455, 48.827528262166439 ] ] ] } },
{ "type": "Feature", "properties": { "fid": 109, "ID": "1H17", "Nom": null }, "geometry": { "type": "Polygon", "coordinates": [ [ [ 2.287735239529455, 48.827528262166439 ], [ 2.287775174305791, 48.827543963349243 ], [ 2.287776418063898, 48.82751414859051 ], [ 2.287735239529455, 48.827528262166439 ] ] ] } },
{ "type": "Feature", "properties": { "fid": 110, "ID": "1G18", "Nom": null }, "geometry": { "type": "Polygon", "coordinates": [ [ [ 2.287822832622473, 48.827545351692649 ], [ 2.287860673188701, 48.827530665947727 ], [ 2.287821567228205, 48.82751552199143 ], [ 2.287822832622473, 48.827545351692649 ] ] ] } },
{ "type": "Feature", "properties": { "fid": 111, "ID": "1G16", "Nom": null }, "geometry": { "type": "Polygon", "coordinates": [ [ [ 2.287862353482507, 48.827530123691169 ], [ 2.287900600461846, 48.827546919306002 ], [ 2.287901037944406, 48.827514890696264 ], [ 2.287862353482507, 48.827530123691169 ] ] ] } },
{ "type": "Feature", "properties": { "fid": 112, "ID": "1G10", "Nom": null }, "geometry": { "type": "Polygon", "coordinates": [ [ [ 2.287871183997991, 48.827557237127955 ], [ 2.287870761582996, 48.827588161301627 ], [ 2.287833328328392, 48.827573027310663 ], [ 2.287871183997991, 48.827557237127955 ] ] ] } },
{ "type": "Feature", "properties": { "fid": 113, "ID": "1G14", "Nom": null }, "geometry": { "type": "Polygon", "coordinates": [ [ [ 2.287829153992087, 48.827572450190125 ], [ 2.287788811802058, 48.827586568764389 ], [ 2.287791720760841, 48.827557316185882 ], [ 2.287829153992087, 48.827572450190125 ] ] ] } },
{ "type": "Feature", "properties": { "fid": 114, "ID": null, "Nom": null }, "geometry": { "type": "Polygon", "coordinates": [ [ [ 2.28747651758623, 48.827669756925502 ], [ 2.287520845593571, 48.82767002102203 ], [ 2.287523333405268, 48.827610391515776 ], [ 2.287479826730606, 48.827611236837974 ], [ 2.28747651758623, 48.827669756925502 ] ] ] } },
{ "type": "Feature", "properties": { "fid": 115, "ID": "1F25", "Nom": null }, "geometry": { "type": "Polygon", "coordinates": [ [ [ 2.288397554786561, 48.827444643248626 ], [ 2.288418469221006, 48.827472894476266 ], [ 2.28837261806067, 48.827470998948982 ], [ 2.288397554786561, 48.827444643248626 ] ] ] } },
{ "type": "Feature", "properties": { "fid": 116, "ID": "1F23", "Nom": null }, "geometry": { "type": "Polygon", "coordinates": [ [ [ 2.288464305621162, 48.827475871697473 ], [ 2.288438564511447, 48.827501140825561 ], [ 2.288417642672537, 48.8274734304579 ], [ 2.288464305621162, 48.827475871697473 ] ] ] } },
{ "type": "Feature", "properties": { "fid": 117, "ID": "1E26", "Nom": null }, "geometry": { "type": "Polygon", "coordinates": [ [ [ 2.288524119522131, 48.827475145759635 ], [ 2.288479928833237, 48.827471637453073 ], [ 2.288504016814017, 48.827447440279826 ], [ 2.288524119522131, 48.827475145759635 ] ] ] } },
{ "type": "Feature", "properties": { "fid": 118, "ID": "1E24", "Nom": null }, "geometry": { "type": "Polygon", "coordinates": [ [ [ 2.288525750473554, 48.827475696362185 ], [ 2.28854586058503, 48.827502860981923 ], [ 2.288571609024236, 48.827477050975006 ], [ 2.288525750473554, 48.827475696362185 ] ] ] } },
{ "type": "Feature", "properties": { "fid": 119, "ID": "1E25", "Nom": null }, "geometry": { "type": "Polygon", "coordinates": [ [ [ 2.288791263653727, 48.827469703067287 ], [ 2.288750098737161, 48.827484603442429 ], [ 2.288752135523798, 48.827455406975425 ], [ 2.288791263653727, 48.827469703067287 ] ] ] } },
{ "type": "Feature", "properties": { "fid": 120, "ID": "1E25", "Nom": null }, "geometry": { "type": "Polygon", "coordinates": [ [ [ 2.288792045928153, 48.827472412217666 ], [ 2.288832812414755, 48.827486718038813 ], [ 2.288832399035019, 48.827456966100833 ], [ 2.288792045928153, 48.827472412217666 ] ] ] } },
{ "type": "Feature", "properties": { "fid": 121, "ID": "1E21", "Nom": null }, "geometry": { "type": "Polygon", "coordinates": [ [ [ 2.288750246433455, 48.827533826186212 ], [ 2.288788946509496, 48.82751945205262 ], [ 2.288749818342865, 48.827505155960644 ], [ 2.288750246433455, 48.827533826186212 ] ] ] } },
{ "type": "Feature", "properties": { "fid": 122, "ID": "1E21", "Nom": null }, "geometry": { "type": "Polygon", "coordinates": [ [ [ 2.288791389253733, 48.827520548378857 ], [ 2.288830510065348, 48.827535385312736 ], [ 2.28883009668654, 48.827505633376056 ], [ 2.288791389253733, 48.827520548378857 ] ] ] } },
{ "type": "Feature", "properties": { "fid": 123, "ID": "1D20", "Nom": null }, "geometry": { "type": "Polygon", "coordinates": [ [ [ 2.288902427107606, 48.827548253647883 ], [ 2.288941946319632, 48.827533884335793 ], [ 2.288901201897899, 48.827517955985229 ], [ 2.288902427107606, 48.827548253647883 ] ] ] } },
{ "type": "Feature", "properties": { "fid": 124, "ID": "1D24", "Nom": null }, "geometry": { "type": "Polygon", "coordinates": [ [ [ 2.288864545957084, 48.827502592831692 ], [ 2.288902847609073, 48.827517424871104 ], [ 2.288906522644479, 48.827488238143928 ], [ 2.288864545957084, 48.827502592831692 ] ] ] } },
{ "type": "Feature", "properties": { "fid": 125, "ID": "1D26", "Nom": null }, "geometry": { "type": "Polygon", "coordinates": [ [ [ 2.288901629777069, 48.827486586351831 ], [ 2.288945259527433, 48.827471159680364 ], [ 2.288905304810983, 48.827457399623889 ], [ 2.288901629777069, 48.827486586351831 ] ] ] } },
{ "type": "Feature", "properties": { "fid": 126, "ID": "1B32", "Nom": null }, "geometry": { "type": "Polygon", "coordinates": [ [ [ 2.289540219634079, 48.827366515735847 ], [ 2.289516095317444, 48.827393417398753 ], [ 2.289495180320096, 48.827365166361069 ], [ 2.289540219634079, 48.827366515735847 ] ] ] } },
{ "type": "Feature", "properties": { "fid": 127, "ID": "1B32", "Nom": null }, "geometry": { "type": "Polygon", "coordinates": [ [ [ 2.289631936598459, 48.827369224166219 ], [ 2.289606181367533, 48.8273955752597 ], [ 2.289587701704273, 48.827368961403785 ], [ 2.289631936598459, 48.827369224166219 ] ] ] } },
{ "type": "Feature", "properties": { "fid": 128, "ID": "1B32", "Nom": null }, "geometry": { "type": "Polygon", "coordinates": [ [ [ 2.289585273690619, 48.827366783381983 ], [ 2.289542677128059, 48.827366530335176 ], [ 2.289567583731311, 48.827342337811878 ], [ 2.289585273690619, 48.827366783381983 ] ] ] } },
{ "type": "Feature", "properties": { "fid": 129, "ID": "1B34", "Nom": null }, "geometry": { "type": "Polygon", "coordinates": [ [ [ 2.289630009719105, 48.827330267946373 ], [ 2.28958494832378, 48.827330541172962 ], [ 2.289607404768935, 48.827305793186248 ], [ 2.289630009719105, 48.827330267946373 ] ] ] } },
{ "type": "Feature", "properties": { "fid": 130, "ID": "1B36", "Nom": null }, "geometry": { "type": "Polygon", "coordinates": [ [ [ 2.289546469722824, 48.827328689890493 ], [ 2.289502227492491, 48.82732896795234 ], [ 2.28952552525209, 48.827302602280007 ], [ 2.289546469722824, 48.827328689890493 ] ] ] } },
{ "type": "Feature", "properties": { "fid": 131, "ID": "1B36", "Nom": null }, "geometry": { "type": "Polygon", "coordinates": [ [ [ 2.289550468685071, 48.827275705479437 ], [ 2.289524720829899, 48.827301515701713 ], [ 2.289502957217739, 48.827275423220073 ], [ 2.289550468685071, 48.827275705479437 ] ] ] } },
{ "type": "Feature", "properties": { "fid": 132, "ID": "1B34", "Nom": null }, "geometry": { "type": "Polygon", "coordinates": [ [ [ 2.289633152585285, 48.827279982946294 ], [ 2.289609072575793, 48.827303639494673 ], [ 2.289587286810288, 48.827279169596132 ], [ 2.289633152585285, 48.827279982946294 ] ] ] } },
{ "type": "Feature", "properties": { "fid": 133, "ID": "1B38", "Nom": null }, "geometry": { "type": "Polygon", "coordinates": [ [ [ 2.289593315754045, 48.827257569422741 ], [ 2.289556674533141, 48.827241124765976 ], [ 2.289594532897106, 48.827228368069406 ], [ 2.289593315754045, 48.827257569422741 ] ] ] } },
{ "type": "Feature", "properties": { "fid": 134, "ID": "1B38", "Nom": null }, "geometry": { "type": "Polygon", "coordinates": [ [ [ 2.28951469085289, 48.827256020541007 ], [ 2.289554187563394, 48.827243273590589 ], [ 2.289516727202418, 48.827226824055018 ], [ 2.28951469085289, 48.827256020541007 ] ] ] } },
{ "type": "Feature", "properties": { "fid": 135, "ID": null, "Nom": null }, "geometry": { "type": "Polygon", "coordinates": [ [ [ 2.289397440841721, 48.827323477264983 ], [ 2.289464575431027, 48.827326580654372 ], [ 2.289468729273837, 48.827262238272127 ], [ 2.289399107790139, 48.827261283706264 ], [ 2.289397440841721, 48.827323477264983 ] ] ] } },
{ "type": "Feature", "properties": { "fid": 136, "ID": "1B03", "Nom": null }, "geometry": { "type": "Polygon", "coordinates": [ [ [ 2.289611316765398, 48.827882987889645 ], [ 2.289572828774786, 48.827869995038988 ], [ 2.289614119010574, 48.827854683916669 ], [ 2.289611316765398, 48.827882987889645 ] ] ] } },
{ "type": "Feature", "properties": { "fid": 137, "ID": "1A04", "Nom": null }, "geometry": { "type": "Polygon", "coordinates": [ [ [ 2.28972551740928, 48.827881671787232 ], [ 2.28968203362259, 48.827880615759454 ], [ 2.289702300158192, 48.827856404332017 ], [ 2.28972551740928, 48.827881671787232 ] ] ] } },
{ "type": "Feature", "properties": { "fid": 138, "ID": "1A06", "Nom": null }, "geometry": { "type": "Polygon", "coordinates": [ [ [ 2.289726833356007, 48.827829426067325 ], [ 2.289704145039664, 48.827854021997659 ], [ 2.289682750955383, 48.827827967602289 ], [ 2.289726833356007, 48.827829426067325 ] ] ] } },
{ "type": "Feature", "properties": { "fid": 139, "ID": "1B05", "Nom": null }, "geometry": { "type": "Polygon", "coordinates": [ [ [ 2.289653591511719, 48.827839760865139 ], [ 2.28961474484212, 48.827853092106331 ], [ 2.289612708914783, 48.827825158275488 ], [ 2.289653591511719, 48.827839760865139 ] ] ] } },
{ "type": "Feature", "properties": { "fid": 140, "ID": "1A08", "Nom": null }, "geometry": { "type": "Polygon", "coordinates": [ [ [ 2.289684995657876, 48.827802325068177 ], [ 2.289727493147077, 48.827804253664318 ], [ 2.289706915668048, 48.827777312399185 ], [ 2.289684995657876, 48.827802325068177 ] ] ] } },
{ "type": "Feature", "properties": { "fid": 141, "ID": "1A01", "Nom": null }, "geometry": { "type": "Polygon", "coordinates": [ [ [ 2.289730745259141, 48.827751892019293 ], [ 2.289705663531896, 48.827776047819349 ], [ 2.289686332501253, 48.827750790143632 ], [ 2.289730745259141, 48.827751892019293 ] ] ] } },
{ "type": "Feature", "properties": { "fid": 142, "ID": "1B09", "Nom": null }, "geometry": { "type": "Polygon", "coordinates": [ [ [ 2.289613464120983, 48.827741976367527 ], [ 2.289621972124205, 48.827769684053102 ], [ 2.289578308182791, 48.827760205631591 ], [ 2.289613464120983, 48.827741976367527 ] ] ] } },
{ "type": "Feature", "properties": { "fid": 143, "ID": "1B09", "Nom": null }, "geometry": { "type": "Polygon", "coordinates": [ [ [ 2.289667545684929, 48.827778754753254 ], [ 2.289632355484018, 48.827799498115212 ], [ 2.289621960705101, 48.827770522080648 ], [ 2.289667545684929, 48.827778754753254 ] ] ] } }
]
}
