{
"type": "FeatureCollection",
"name": "hall2",
"crs": { "type": "name", "properties": { "name": "urn:ogc:def:crs:OGC:1.3:CRS84" } },
"features": [
{ "type": "Feature", "properties": { "fid": 1, "ID": null, "Nom": "Business Redefined Area" }, "geometry": { "type": "Polygon", "coordinates": [ [ [ 2.287474611232454, 48.82788584490855 ], [ 2.287633126746443, 48.827887408600695 ], [ 2.287633922228563, 48.827829192660452 ], [ 2.287564223109744, 48.827781086058671 ], [ 2.287477013592157, 48.827778708393815 ], [ 2.287474611232454, 48.82788584490855 ] ] ] } },
{ "type": "Feature", "properties": { "fid": 2, "ID": "2H01", "Nom": null }, "geometry": { "type": "Polygon", "coordinates": [ [ [ 2.287735310795936, 48.827892352811787 ], [ 2.287838492097765, 48.827892967291817 ], [ 2.287838898184566, 48.827863240003019 ], [ 2.287735708480204, 48.827863244841843 ], [ 2.287735310795936, 48.827892352811787 ] ] ] } },
{ "type": "Feature", "properties": { "fid": 3, "ID": "2G02", "Nom": null }, "geometry": { "type": "Polygon", "coordinates": [ [ [ 2.287872268984091, 48.827892549056521 ], [ 2.287987644442172, 48.827893236018923 ], [ 2.287987999693734, 48.827867224640826 ], [ 2.287873579224037, 48.827865304627203 ], [ 2.287872268984091, 48.827892549056521 ] ] ] } },
{ "type": "Feature", "properties": { "fid": 4, "ID": "2G01", "Nom": null }, "geometry": { "type": "Polygon", "coordinates": [ [ [ 2.288022207095983, 48.827903971059179 ], [ 2.288105690170434, 48.827904468035975 ], [ 2.288106180674604, 48.827868547561145 ], [ 2.288022689199714, 48.827868669903211 ], [ 2.288022207095983, 48.827903971059179 ] ] ] } },
{ "type": "Feature", "properties": { "fid": 5, "ID": "2F01", "Nom": "Adobe" }, "geometry": { "type": "Polygon", "coordinates": [ [ [ 2.287938606530098, 48.827843394542008 ], [ 2.288242479816499, 48.827848300286192 ], [ 2.288245218808121, 48.827716391007378 ], [ 2.287940382904997, 48.827713337640432 ], [ 2.287938606530098, 48.827843394542008 ] ] ] } },
{ "type": "Feature", "properties": { "fid": 6, "ID": "2G10", "Nom": "Région Hauts-de-France" }, "geometry": { "type": "Polygon", "coordinates": [ [ [ 2.287903917043266, 48.827841949255195 ], [ 2.287907577981141, 48.827711284205812 ], [ 2.28781283911514, 48.827710720059407 ], [ 2.287811122745905, 48.827767691783855 ], [ 2.287735143969859, 48.827767239294324 ], [ 2.287733199056435, 48.827840932615231 ], [ 2.287903917043266, 48.827841949255195 ] ] ] } },
{ "type": "Feature", "properties": { "fid": 7, "ID": "2H09", "Nom": null }, "geometry": { "type": "Polygon", "coordinates": [ [ [ 2.287736081979433, 48.827767244880896 ], [ 2.287812060755494, 48.827767697369893 ], [ 2.287812830654718, 48.827711339378027 ], [ 2.287737781508028, 48.827711511794725 ], [ 2.287736081979433, 48.827767244880896 ] ] ] } },
{ "type": "Feature", "properties": { "fid": 8, "ID": "2J14", "Nom": null }, "geometry": { "type": "Polygon", "coordinates": [ [ [ 2.28747884806897, 48.827680732806421 ], [ 2.287520867398938, 48.827680289667555 ], [ 2.287522770540607, 48.827617887778331 ], [ 2.287481801506022, 48.827618337175167 ], [ 2.28747884806897, 48.827680732806421 ] ] ] } },
{ "type": "Feature", "properties": { "fid": 9, "ID": "2H14", "Nom": null }, "geometry": { "type": "Polygon", "coordinates": [ [ [ 2.287552355836336, 48.827681864219265 ], [ 2.287637425792302, 48.827682370978771 ], [ 2.287639290894319, 48.827622742783255 ], [ 2.287552120545314, 48.827622223511781 ], [ 2.287552355836336, 48.827681864219265 ] ] ] } },
{ "type": "Feature", "properties": { "fid": 10, "ID": "2H13", "Nom": null }, "geometry": { "type": "Polygon", "coordinates": [ [ [ 2.287761100389931, 48.827624855253404 ], [ 2.287760304620506, 48.827683102857847 ], [ 2.287667882937433, 48.827682552396453 ], [ 2.287668678810108, 48.827624304792593 ], [ 2.287761100389931, 48.827624855253404 ] ] ] } },
{ "type": "Feature", "properties": { "fid": 11, "ID": "2G14", "Nom": "Manpower Group" }, "geometry": { "type": "Polygon", "coordinates": [ [ [ 2.287761364340358, 48.827682415688827 ], [ 2.287908379895285, 48.827684678122068 ], [ 2.287910244687486, 48.827625049922489 ], [ 2.287761100391048, 48.827624855253404 ], [ 2.287761364340358, 48.827682415688827 ] ] ] } },
{ "type": "Feature", "properties": { "fid": 12, "ID": "2J16", "Nom": null }, "geometry": { "type": "Polygon", "coordinates": [ [ [ 2.287482275363136, 48.827583665981507 ], [ 2.287523234893882, 48.827583910008407 ], [ 2.287526112459993, 48.827527061762062 ], [ 2.287484102730668, 48.827526811478897 ], [ 2.287482275363136, 48.827583665981507 ] ] ] } },
{ "type": "Feature", "properties": { "fid": 13, "ID": "2H16", "Nom": "Core42" }, "geometry": { "type": "Polygon", "coordinates": [ [ [ 2.287558933726932, 48.827584816162215 ], [ 2.287641903035756, 48.82758531040534 ], [ 2.287646020214789, 48.827514599933359 ], [ 2.287559900289513, 48.827514086923316 ], [ 2.287558933726932, 48.827584816162215 ] ] ] } },
{ "type": "Feature", "properties": { "fid": 14, "ID": "2H15", "Nom": null }, "geometry": { "type": "Polygon", "coordinates": [ [ [ 2.287824636097014, 48.827587092212312 ], [ 2.287673410368631, 48.827585498077511 ], [ 2.287674348352214, 48.827516849109564 ], [ 2.28782768384023, 48.827517762327815 ], [ 2.287824636097014, 48.827587092212312 ] ] ] } },
{ "type": "Feature", "properties": { "fid": 15, "ID": null, "Nom": "Restauration" }, "geometry": { "type": "Polygon", "coordinates": [ [ [ 2.287859210077175, 48.827516563103146 ], [ 2.287915913731783, 48.827517594228055 ], [ 2.287914966594888, 48.827586936621771 ], [ 2.287856162375953, 48.827585892988537 ], [ 2.287859210077175, 48.827516563103146 ] ] ] } },
{ "type": "Feature", "properties": { "fid": 16, "ID": "2J20", "Nom": null }, "geometry": { "type": "Polygon", "coordinates": [ [ [ 2.287486449620948, 48.827508794971372 ], [ 2.287528459335766, 48.827509045253741 ], [ 2.287530362462098, 48.827446643354847 ], [ 2.287487302555944, 48.827446386815936 ], [ 2.287486449620948, 48.827508794971372 ] ] ] } },
{ "type": "Feature", "properties": { "fid": 17, "ID": "2J26", "Nom": null }, "geometry": { "type": "Polygon", "coordinates": [ [ [ 2.287487302555944, 48.827446386815936 ], [ 2.287530362462098, 48.827446643354847 ], [ 2.287531782285369, 48.827419606076454 ], [ 2.287487939459259, 48.827418998133126 ], [ 2.287487302555944, 48.827446386815936 ] ] ] } },
{ "type": "Feature", "properties": { "fid": 18, "ID": "2J28", "Nom": null }, "geometry": { "type": "Polygon", "coordinates": [ [ [ 2.287487934720744, 48.827419344845126 ], [ 2.287530994604563, 48.827419601383831 ], [ 2.28753184674088, 48.827419693145494 ], [ 2.287533221060015, 48.827391181949373 ], [ 2.287488323278796, 48.827390914461368 ], [ 2.287487934720744, 48.827419344845126 ] ] ] } },
{ "type": "Feature", "properties": { "fid": 19, "ID": "2H24", "Nom": null }, "geometry": { "type": "Polygon", "coordinates": [ [ [ 2.287604506470135, 48.82746364189282 ], [ 2.287648091512104, 48.82746390151744 ], [ 2.287648475245702, 48.827435817846293 ], [ 2.287605420085647, 48.827435214637894 ], [ 2.287604506470135, 48.82746364189282 ] ] ] } },
{ "type": "Feature", "properties": { "fid": 20, "ID": "2H25", "Nom": null }, "geometry": { "type": "Polygon", "coordinates": [ [ [ 2.287604511207879, 48.827463295180841 ], [ 2.287563551771514, 48.827463051181759 ], [ 2.28756446067134, 48.827434970639139 ], [ 2.287605420085647, 48.827435214637894 ], [ 2.287604511207879, 48.827463295180841 ] ] ] } },
{ "type": "Feature", "properties": { "fid": 21, "ID": "2H26", "Nom": null }, "geometry": { "type": "Polygon", "coordinates": [ [ [ 2.287606074117654, 48.827435391904039 ], [ 2.287648475245702, 48.827435817846293 ], [ 2.287649911588587, 48.827407567074395 ], [ 2.287606317118104, 48.827408000874236 ], [ 2.287606074117654, 48.827435391904039 ] ] ] } },
{ "type": "Feature", "properties": { "fid": 22, "ID": "2H27", "Nom": null }, "geometry": { "type": "Polygon", "coordinates": [ [ [ 2.287605945206346, 48.827435217766002 ], [ 2.287564985792034, 48.827434973767424 ], [ 2.287565355356188, 48.8274079302318 ], [ 2.287606324224617, 48.827407480806045 ], [ 2.287605945206346, 48.827435217766002 ] ] ] } },
{ "type": "Feature", "properties": { "fid": 23, "ID": "2H30", "Nom": null }, "geometry": { "type": "Polygon", "coordinates": [ [ [ 2.287565749196504, 48.827407932578012 ], [ 2.287650305428771, 48.827407569420188 ], [ 2.287651491053246, 48.827378450303414 ], [ 2.287566423962054, 48.827377770197785 ], [ 2.287565749196504, 48.827407932578012 ] ] ] } },
{ "type": "Feature", "properties": { "fid": 24, "ID": "2J30", "Nom": null }, "geometry": { "type": "Polygon", "coordinates": [ [ [ 2.287494246008045, 48.827375433122718 ], [ 2.287535730495342, 48.827375680273974 ], [ 2.28753806396412, 48.827320215736485 ], [ 2.287496049662962, 48.827320312169512 ], [ 2.287494246008045, 48.827375433122718 ] ] ] } },
{ "type": "Feature", "properties": { "fid": 25, "ID": "2J36", "Nom": null }, "geometry": { "type": "Polygon", "coordinates": [ [ [ 2.287496574782497, 48.827320315298067 ], [ 2.287538593821826, 48.827319872152842 ], [ 2.28753918609252, 48.827276533148797 ], [ 2.287498756660711, 48.82727594554386 ], [ 2.287496574782497, 48.827320315298067 ] ] ] } },
{ "type": "Feature", "properties": { "fid": 26, "ID": "2H32", "Nom": null }, "geometry": { "type": "Polygon", "coordinates": [ [ [ 2.287569655625399, 48.827352650782316 ], [ 2.287655240689429, 48.827353854081572 ], [ 2.287664194312353, 48.827198221036063 ], [ 2.287576504292506, 48.827197351942203 ], [ 2.287569655625399, 48.827352650782316 ] ] ] } },
{ "type": "Feature", "properties": { "fid": 27, "ID": "2H31", "Nom": "Seoul Business Agency" }, "geometry": { "type": "Polygon", "coordinates": [ [ [ 2.287688290081892, 48.827356478117629 ], [ 2.28792614099429, 48.827359975017515 ], [ 2.287931795770353, 48.827253559433089 ], [ 2.287692379460829, 48.827249359736896 ], [ 2.287688290081892, 48.827356478117629 ] ] ] } },
{ "type": "Feature", "properties": { "fid": 28, "ID": "2J44", "Nom": null }, "geometry": { "type": "Polygon", "coordinates": [ [ [ 2.287505396198775, 48.827174390197769 ], [ 2.287548451142277, 48.827174993442313 ], [ 2.287549223450235, 48.827118479373361 ], [ 2.287507734429172, 48.827118578938816 ], [ 2.287505396198775, 48.827174390197769 ] ] ] } },
{ "type": "Feature", "properties": { "fid": 29, "ID": "2H48", "Nom": null }, "geometry": { "type": "Polygon", "coordinates": [ [ [ 2.287581046365995, 48.827172413699003 ], [ 2.287668211225907, 48.827173279661693 ], [ 2.287671784989264, 48.827065464712128 ], [ 2.28758619092261, 48.82706495484863 ], [ 2.287581046365995, 48.827172413699003 ] ] ] } },
{ "type": "Feature", "properties": { "fid": 30, "ID": "2J38", "Nom": null }, "geometry": { "type": "Polygon", "coordinates": [ [ [ 2.287511855654627, 48.827086009901862 ], [ 2.287553335173661, 48.827086603759142 ], [ 2.287554717070904, 48.827062340168688 ], [ 2.287513237571158, 48.827061746311855 ], [ 2.287511855654627, 48.827086009901862 ] ] ] } },
{ "type": "Feature", "properties": { "fid": 31, "ID": "2J50", "Nom": null }, "geometry": { "type": "Polygon", "coordinates": [ [ [ 2.287513564669375, 48.827061762465981 ], [ 2.287554859702191, 48.827062320144734 ], [ 2.287556804128423, 48.827024904645569 ], [ 2.287514545604728, 48.827024524783333 ], [ 2.287513564669375, 48.827061762465981 ] ] ] } },
{ "type": "Feature", "properties": { "fid": 32, "ID": "2J52", "Nom": null }, "geometry": { "type": "Polygon", "coordinates": [ [ [ 2.287517356633847, 48.827008802633991 ], [ 2.287559831603327, 48.827009367341027 ], [ 2.287560214883064, 48.826981320105205 ], [ 2.287518207668686, 48.826981069846255 ], [ 2.287517356633847, 48.827008802633991 ] ] ] } },
{ "type": "Feature", "properties": { "fid": 33, "ID": "2J54", "Nom": null }, "geometry": { "type": "Polygon", "coordinates": [ [ [ 2.287518679659857, 48.826981072658228 ], [ 2.287560214883064, 48.826981320105205 ], [ 2.287561168102339, 48.826946108053271 ], [ 2.287520104898031, 48.826945863418608 ], [ 2.287518679659857, 48.826981072658228 ] ] ] } },
{ "type": "Feature", "properties": { "fid": 34, "ID": "2J56", "Nom": null }, "geometry": { "type": "Polygon", "coordinates": [ [ [ 2.287521763627225, 48.826928108604349 ], [ 2.287564242789645, 48.826928361673843 ], [ 2.287564804928765, 48.826887225724747 ], [ 2.287523269780497, 48.826886978279362 ], [ 2.287521763627225, 48.826928108604349 ] ] ] } },
{ "type": "Feature", "properties": { "fid": 35, "ID": "2J58", "Nom": null }, "geometry": { "type": "Polygon", "coordinates": [ [ [ 2.287523741770817, 48.826886981091306 ], [ 2.287565276919088, 48.826887228536542 ], [ 2.28756612792645, 48.826859495745445 ], [ 2.287525064790337, 48.82685925111246 ], [ 2.287523741770817, 48.826886981091306 ] ] ] } },
{ "type": "Feature", "properties": { "fid": 36, "ID": "2J60", "Nom": null }, "geometry": { "type": "Polygon", "coordinates": [ [ [ 2.287525536780405, 48.826859253924397 ], [ 2.28756612792645, 48.826859495745445 ], [ 2.287566532494756, 48.826829890325854 ], [ 2.287526413361558, 48.826829651316906 ], [ 2.287525536780405, 48.826859253924397 ] ] ] } },
{ "type": "Feature", "properties": { "fid": 37, "ID": "2H58", "Nom": null }, "geometry": { "type": "Polygon", "coordinates": [ [ [ 2.287598013893482, 48.826909551512351 ], [ 2.287683907654473, 48.826910686476772 ], [ 2.287685865016857, 48.82683652273338 ], [ 2.287599958602773, 48.826836322678304 ], [ 2.287598013893482, 48.826909551512351 ] ] ] } },
{ "type": "Feature", "properties": { "fid": 38, "ID": "2H56", "Nom": null }, "geometry": { "type": "Polygon", "coordinates": [ [ [ 2.287638311263995, 48.826931296191198 ], [ 2.287681262420309, 48.826931552030658 ], [ 2.287678361065004, 48.827005710144981 ], [ 2.287635414105825, 48.827005142668582 ], [ 2.287638311263995, 48.826931296191198 ] ] ] } },
{ "type": "Feature", "properties": { "fid": 39, "ID": "2J55", "Nom": null }, "geometry": { "type": "Polygon", "coordinates": [ [ [ 2.287638783254723, 48.826931299002716 ], [ 2.287597248070992, 48.826931051583031 ], [ 2.287595142230158, 48.826981528174436 ], [ 2.287636201204701, 48.826982084419313 ], [ 2.287638783254723, 48.826931299002716 ] ] ] } },
{ "type": "Feature", "properties": { "fid": 40, "ID": "2H50", "Nom": null }, "geometry": { "type": "Polygon", "coordinates": [ [ [ 2.287635414105825, 48.827005142668582 ], [ 2.287634550358277, 48.827033810364391 ], [ 2.287677025349399, 48.827034375029783 ], [ 2.287678365322961, 48.827005398509051 ], [ 2.287635414105825, 48.827005142668582 ] ] ] } },
{ "type": "Feature", "properties": { "fid": 41, "ID": "2J62", "Nom": null }, "geometry": { "type": "Polygon", "coordinates": [ [ [ 2.287689101856765, 48.826798818037432 ], [ 2.28764728540761, 48.826798875728372 ], [ 2.287648704948347, 48.826762992188968 ], [ 2.287690985949044, 48.826762937264746 ], [ 2.287689101856765, 48.826798818037432 ] ] ] } },
{ "type": "Feature", "properties": { "fid": 42, "ID": "2J64", "Nom": null }, "geometry": { "type": "Polygon", "coordinates": [ [ [ 2.287649169528671, 48.826762994956326 ], [ 2.28769145052937, 48.826762940031905 ], [ 2.287690978190526, 48.826729499376086 ], [ 2.287649626376997, 48.826729559835002 ], [ 2.287649169528671, 48.826762994956326 ] ] ] } },
{ "type": "Feature", "properties": { "fid": 43, "ID": "2J68", "Nom": null }, "geometry": { "type": "Polygon", "coordinates": [ [ [ 2.287650090957023, 48.826729562602324 ], [ 2.287691446961573, 48.826729195399018 ], [ 2.287692397699302, 48.82669361583396 ], [ 2.287650120946084, 48.826693364014481 ], [ 2.287650090957023, 48.826729562602324 ] ] ] } },
{ "type": "Feature", "properties": { "fid": 44, "ID": null, "Nom": null }, "geometry": { "type": "Polygon", "coordinates": [ [ [ 2.28764728540761, 48.826798875728372 ], [ 2.287527879799882, 48.826798777950771 ], [ 2.28753324880244, 48.826643891486725 ], [ 2.287651729088165, 48.826643676980048 ], [ 2.28764728540761, 48.826798875728372 ] ] ] } },
{ "type": "Feature", "properties": { "fid": 45, "ID": "2H47", "Nom": null }, "geometry": { "type": "Polygon", "coordinates": [ [ [ 2.287708783095024, 48.827066207286151 ], [ 2.287945522053395, 48.827069310266673 ], [ 2.287942363486084, 48.827175397100042 ], [ 2.287703090672955, 48.827170021457725 ], [ 2.287708783095024, 48.827066207286151 ] ] ] } },
{ "type": "Feature", "properties": { "fid": 46, "ID": "2H55", "Nom": null }, "geometry": { "type": "Polygon", "coordinates": [ [ [ 2.28770806725789, 48.827034938344518 ], [ 2.287779619398325, 48.827035889510718 ], [ 2.287785774167701, 48.826934598152633 ], [ 2.287713427064249, 48.826933642254346 ], [ 2.28770806725789, 48.827034938344518 ] ] ] } },
{ "type": "Feature", "properties": { "fid": 47, "ID": "2G50", "Nom": null }, "geometry": { "type": "Polygon", "coordinates": [ [ [ 2.287779626570141, 48.827035364537871 ], [ 2.287948954933352, 48.827038472916371 ], [ 2.287950381005392, 48.826992280035761 ], [ 2.287782650169444, 48.826988656156708 ], [ 2.287779626570141, 48.827035364537871 ] ] ] } },
{ "type": "Feature", "properties": { "fid": 48, "ID": "2G54", "Nom": null }, "geometry": { "type": "Polygon", "coordinates": [ [ [ 2.287782657341222, 48.826988131183818 ], [ 2.287951176108226, 48.826992284769858 ], [ 2.287954307102003, 48.826937701788644 ], [ 2.287784971894014, 48.826935118390338 ], [ 2.287782657341222, 48.826988131183818 ] ] ] } },
{ "type": "Feature", "properties": { "fid": 49, "ID": "2H57", "Nom": "Infobip" }, "geometry": { "type": "Polygon", "coordinates": [ [ [ 2.287716923058974, 48.82691056238837 ], [ 2.287866387814263, 48.826912502545085 ], [ 2.287868960430663, 48.826840590719634 ], [ 2.287721078910002, 48.826839185010257 ], [ 2.287716923058974, 48.82691056238837 ] ] ] } },
{ "type": "Feature", "properties": { "fid": 50, "ID": "2H62", "Nom": null }, "geometry": { "type": "Polygon", "coordinates": [ [ [ 2.287723178348303, 48.826801921400481 ], [ 2.287839255765618, 48.826803137717633 ], [ 2.287840008739056, 48.826748015552603 ], [ 2.28772393144445, 48.826746799236147 ], [ 2.287723178348303, 48.826801921400481 ] ] ] } },
{ "type": "Feature", "properties": { "fid": 51, "ID": "2H66", "Nom": null }, "geometry": { "type": "Polygon", "coordinates": [ [ [ 2.28772393144445, 48.826746799236147 ], [ 2.287840796666996, 48.826748545260465 ], [ 2.287841241278648, 48.826715996933203 ], [ 2.287724361784389, 48.826715300855305 ], [ 2.28772393144445, 48.826746799236147 ] ] ] } },
{ "type": "Feature", "properties": { "fid": 52, "ID": "2H70", "Nom": null }, "geometry": { "type": "Polygon", "coordinates": [ [ [ 2.287724361784389, 48.826715300855305 ], [ 2.287841248449799, 48.826715471960185 ], [ 2.287841944050772, 48.826664549575263 ], [ 2.287726647695154, 48.826664387942259 ], [ 2.287724361784389, 48.826715300855305 ] ] ] } },
{ "type": "Feature", "properties": { "fid": 53, "ID": "2G62", "Nom": null }, "geometry": { "type": "Polygon", "coordinates": [ [ [ 2.28787184052156, 48.82680438178793 ], [ 2.287962474748189, 48.82680544647458 ], [ 2.287967497810427, 48.826670547343149 ], [ 2.287876863818208, 48.826669482660186 ], [ 2.28787184052156, 48.82680438178793 ] ] ] } },
{ "type": "Feature", "properties": { "fid": 54, "ID": "2F68", "Nom": "BPIFrance" }, "geometry": { "type": "Polygon", "coordinates": [ [ [ 2.287998448549838, 48.826733208491 ], [ 2.288304511466904, 48.826738705419707 ], [ 2.288305321279297, 48.826679383464025 ], [ 2.288001622495752, 48.826675475657602 ], [ 2.287998448549838, 48.826733208491 ] ] ] } },
{ "type": "Feature", "properties": { "fid": 55, "ID": "2F71", "Nom": null }, "geometry": { "type": "Polygon", "coordinates": [ [ [ 2.288071097113872, 48.826653838606724 ], [ 2.288127541881535, 48.826654699631298 ], [ 2.288127893126098, 48.826628975950406 ], [ 2.288072236314757, 48.826628644632358 ], [ 2.288071097113872, 48.826653838606724 ] ] ] } },
{ "type": "Feature", "properties": { "fid": 56, "ID": "2F73", "Nom": null }, "geometry": { "type": "Polygon", "coordinates": [ [ [ 2.288128344147488, 48.826654179391177 ], [ 2.288182403623329, 48.826655026191048 ], [ 2.288181952575797, 48.826629822750498 ], [ 2.288127885957845, 48.826629500923488 ], [ 2.288128344147488, 48.826654179391177 ] ] ] } },
{ "type": "Feature", "properties": { "fid": 57, "ID": "2F74", "Nom": null }, "geometry": { "type": "Polygon", "coordinates": [ [ [ 2.288183205888742, 48.826654505950522 ], [ 2.288235682337537, 48.826654818288127 ], [ 2.288235202595562, 48.826631714740124 ], [ 2.288182740505424, 48.826630352456178 ], [ 2.288183205888742, 48.826654505950522 ] ] ] } },
{ "type": "Feature", "properties": { "fid": 58, "ID": "2F72", "Nom": null }, "geometry": { "type": "Polygon", "coordinates": [ [ [ 2.288235682337537, 48.826654818288127 ], [ 2.288306438868181, 48.826655764407242 ], [ 2.288306747025771, 48.826633190564394 ], [ 2.288235202595562, 48.826631714740124 ], [ 2.288235682337537, 48.826654818288127 ] ] ] } },
{ "type": "Feature", "properties": { "fid": 59, "ID": "2H71", "Nom": null }, "geometry": { "type": "Polygon", "coordinates": [ [ [ 2.287803242432412, 48.826645418532266 ], [ 2.287928051235786, 48.826647736795131 ], [ 2.287928409748991, 48.826621488141562 ], [ 2.287803601008437, 48.82661916987901 ], [ 2.287803242432412, 48.826645418532266 ] ] ] } },
{ "type": "Feature", "properties": { "fid": 60, "ID": "2G74", "Nom": null }, "geometry": { "type": "Polygon", "coordinates": [ [ [ 2.287928846333364, 48.826647741529406 ], [ 2.287982117871417, 48.826648058712507 ], [ 2.287983264284883, 48.826622339765748 ], [ 2.287927614651814, 48.826621483407315 ], [ 2.287928846333364, 48.826647741529406 ] ] ] } },
{ "type": "Feature", "properties": { "fid": 61, "ID": "2G72", "Nom": null }, "geometry": { "type": "Polygon", "coordinates": [ [ [ 2.287982920138721, 48.826647538473303 ], [ 2.288037781872074, 48.826647865099396 ], [ 2.28803811165341, 48.826623716337842 ], [ 2.287983264284883, 48.826622339765748 ], [ 2.287982920138721, 48.826647538473303 ] ] ] } },
{ "type": "Feature", "properties": { "fid": 62, "ID": null, "Nom": null }, "geometry": { "type": "Polygon", "coordinates": [ [ [ 2.287536659399819, 48.826631230259522 ], [ 2.2877704180095, 48.826632622668107 ], [ 2.287770978391294, 48.826533398019528 ], [ 2.287536439479097, 48.826530950928856 ], [ 2.287536659399819, 48.826631230259522 ] ] ] } },
{ "type": "Feature", "properties": { "fid": 63, "ID": null, "Nom": null }, "geometry": { "type": "Polygon", "coordinates": [ [ [ 2.287803998557001, 48.826619172246538 ], [ 2.288038509202019, 48.826623718704603 ], [ 2.288038789477198, 48.826544968005855 ], [ 2.287804315043874, 48.826537796682473 ], [ 2.287803998557001, 48.826619172246538 ] ] ] } },
{ "type": "Feature", "properties": { "fid": 64, "ID": null, "Nom": null }, "geometry": { "type": "Polygon", "coordinates": [ [ [ 2.288073436129509, 48.826628126759203 ], [ 2.288307144574467, 48.826633192930252 ], [ 2.288308993137049, 48.826556026614405 ], [ 2.288074511448046, 48.826549380793978 ], [ 2.288073436129509, 48.826628126759203 ] ] ] } },
{ "type": "Feature", "properties": { "fid": 65, "ID": "2H19", "Nom": null }, "geometry": { "type": "Polygon", "coordinates": [ [ [ 2.287678776067405, 48.827491002337219 ], [ 2.287761460379353, 48.827492019816155 ], [ 2.287768532270345, 48.827381808699435 ], [ 2.287683448461181, 48.827381826963062 ], [ 2.287678776067405, 48.827491002337219 ] ] ] } },
{ "type": "Feature", "properties": { "fid": 66, "ID": "2G20", "Nom": null }, "geometry": { "type": "Polygon", "coordinates": [ [ [ 2.287761460379353, 48.827492019816155 ], [ 2.287917287687124, 48.827493997790988 ], [ 2.287921206685716, 48.827439944542071 ], [ 2.287764598773787, 48.827436911891546 ], [ 2.287761460379353, 48.827492019816155 ] ] ] } },
{ "type": "Feature", "properties": { "fid": 67, "ID": "2G30", "Nom": null }, "geometry": { "type": "Polygon", "coordinates": [ [ [ 2.287765393883386, 48.827436916626866 ], [ 2.287921206685716, 48.827439944542071 ], [ 2.287925132846583, 48.827385366317671 ], [ 2.287768532270345, 48.827381808699435 ], [ 2.287765393883386, 48.827436916626866 ] ] ] } },
{ "type": "Feature", "properties": { "fid": 68, "ID": null, "Nom": "Meetings Agora" }, "geometry": { "type": "Polygon", "coordinates": [ [ [ 2.287982287768962, 48.827071561203972 ], [ 2.288194943967717, 48.827072827128852 ], [ 2.288280694271705, 48.827138346333754 ], [ 2.288269245436203, 48.827303834045672 ], [ 2.288169952838501, 48.827364784773643 ], [ 2.287963929973739, 48.827358357599508 ], [ 2.287982287768962, 48.827071561203972 ] ] ] } },
{ "type": "Feature", "properties": { "fid": 69, "ID": "2F15", "Nom": "Engie" }, "geometry": { "type": "Polygon", "coordinates": [ [ [ 2.288362362642528, 48.827599094866564 ], [ 2.288631443705949, 48.827602429316748 ], [ 2.288637451429456, 48.82745077780492 ], [ 2.288367070277061, 48.827446568842504 ], [ 2.288362362642528, 48.827599094866564 ] ] ] } },
{ "type": "Feature", "properties": { "fid": 70, "ID": "2F29", "Nom": "CMA CGM" }, "geometry": { "type": "Polygon", "coordinates": [ [ [ 2.288372676005773, 48.827420598668404 ], [ 2.288641779801005, 48.827422199667957 ], [ 2.288643932160431, 48.827360670780045 ], [ 2.288374864174607, 48.827356469643171 ], [ 2.288372676005773, 48.827420598668404 ] ] ] } },
{ "type": "Feature", "properties": { "fid": 71, "ID": "2F37", "Nom": "SNCF Groupe" }, "geometry": { "type": "Polygon", "coordinates": [ [ [ 2.288374864174607, 48.827356469643171 ], [ 2.288643943986585, 48.827359804065999 ], [ 2.288649809733511, 48.827218553090724 ], [ 2.288383379703544, 48.82721350087467 ], [ 2.288374864174607, 48.827356469643171 ] ] ] } },
{ "type": "Feature", "properties": { "fid": 72, "ID": "2D16", "Nom": "Orange" }, "geometry": { "type": "Polygon", "coordinates": [ [ [ 2.28867212576692, 48.827603538083771 ], [ 2.288938581460732, 48.827606856227021 ], [ 2.288954083985186, 48.827336511703848 ], [ 2.288686316972832, 48.82733318578655 ], [ 2.28867212576692, 48.827603538083771 ] ] ] } },
{ "type": "Feature", "properties": { "fid": 73, "ID": "2D36", "Nom": "PWC" }, "geometry": { "type": "Polygon", "coordinates": [ [ [ 2.288689344434693, 48.827303733123003 ], [ 2.288957111295969, 48.827307059033615 ], [ 2.288967481668816, 48.827124229166408 ], [ 2.288698391226793, 48.827121762185058 ], [ 2.288689344434693, 48.827303733123003 ] ] ] } },
{ "type": "Feature", "properties": { "fid": 74, "ID": "2F39", "Nom": "La Poste Groupe" }, "geometry": { "type": "Polygon", "coordinates": [ [ [ 2.288387637212412, 48.827190123025851 ], [ 2.288656716166663, 48.827193457420414 ], [ 2.28866552653919, 48.827028820753455 ], [ 2.28839515940306, 48.827023745138646 ], [ 2.288387637212412, 48.827190123025851 ] ] ] } },
{ "type": "Feature", "properties": { "fid": 75, "ID": "2F59", "Nom": "Microsoft" }, "geometry": { "type": "Polygon", "coordinates": [ [ [ 2.288398139690802, 48.82699775933159 ], [ 2.288668530343792, 48.827001101511065 ], [ 2.28867569684556, 48.826860725011855 ], [ 2.288407944124556, 48.826856531755425 ], [ 2.288398139690802, 48.82699775933159 ] ] ] } },
{ "type": "Feature", "properties": { "fid": 76, "ID": "2D48", "Nom": "Groupr Caisse des Dépôts" }, "geometry": { "type": "Polygon", "coordinates": [ [ [ 2.28870404405592, 48.82709232513087 ], [ 2.288971821652989, 48.827094784294871 ], [ 2.288974410971079, 48.827001186952032 ], [ 2.288706657504679, 48.826996994364933 ], [ 2.28870404405592, 48.82709232513087 ] ] ] } },
{ "type": "Feature", "properties": { "fid": 77, "ID": "2E59", "Nom": "Publicis Groupe" }, "geometry": { "type": "Polygon", "coordinates": [ [ [ 2.288709294711233, 48.826996143265688 ], [ 2.288803784800364, 48.826998438799862 ], [ 2.288809555487281, 48.826864121486906 ], [ 2.288712416616764, 48.826863543770948 ], [ 2.288709294711233, 48.826996143265688 ] ] ] } },
{ "type": "Feature", "properties": { "fid": 78, "ID": "2D60", "Nom": "SAP" }, "geometry": { "type": "Polygon", "coordinates": [ [ [ 2.288805085667806, 48.826999313320698 ], [ 2.288975735482566, 48.827000328042288 ], [ 2.288978856710694, 48.82686772854111 ], [ 2.288809543663993, 48.826864988201365 ], [ 2.288805085667806, 48.826999313320698 ] ] ] } },
{ "type": "Feature", "properties": { "fid": 79, "ID": null, "Nom": "Stage One" }, "geometry": { "type": "Polygon", "coordinates": [ [ [ 2.288409753668947, 48.826820137559999 ], [ 2.288985940244255, 48.82682963212654 ], [ 2.288989710915348, 48.826553150167392 ], [ 2.288417465432901, 48.82654367904901 ], [ 2.288409753668947, 48.826820137559999 ] ] ] } },
{ "type": "Feature", "properties": { "fid": 80, "ID": "2D71", "Nom": null }, "geometry": { "type": "Polygon", "coordinates": [ [ [ 2.289095728356718, 48.826648693392336 ], [ 2.289202067422615, 48.826648458697655 ], [ 2.289201671562467, 48.826677493638371 ], [ 2.289095344255843, 48.82667686161804 ], [ 2.289095728356718, 48.826648693392336 ] ] ] } },
{ "type": "Feature", "properties": { "fid": 81, "ID": "2C76", "Nom": null }, "geometry": { "type": "Polygon", "coordinates": [ [ [ 2.289202333812232, 48.826677064182114 ], [ 2.289256810148896, 48.826677387958064 ], [ 2.289257200070436, 48.826648786374513 ], [ 2.289201405173211, 48.826648888153919 ], [ 2.289202333812232, 48.826677064182114 ] ] ] } },
{ "type": "Feature", "properties": { "fid": 82, "ID": "2C74", "Nom": null }, "geometry": { "type": "Polygon", "coordinates": [ [ [ 2.289258128739609, 48.826676962402296 ], [ 2.289311292393688, 48.826677278351916 ], [ 2.289313639493636, 48.826649555184176 ], [ 2.289257200070436, 48.826648786374506 ], [ 2.289258128739609, 48.826676962402296 ] ] ] } },
{ "type": "Feature", "properties": { "fid": 83, "ID": "2C72", "Nom": null }, "geometry": { "type": "Polygon", "coordinates": [ [ [ 2.289311948735099, 48.826677282252369 ], [ 2.289367069600114, 48.826678476593209 ], [ 2.289368103988293, 48.826650745624136 ], [ 2.289313639493636, 48.826649555184176 ], [ 2.289311948735099, 48.826677282252369 ] ] ] } },
{ "type": "Feature", "properties": { "fid": 84, "ID": null, "Nom": null }, "geometry": { "type": "Polygon", "coordinates": [ [ [ 2.289096384697756, 48.826648697293948 ], [ 2.289368103988293, 48.826650745624136 ], [ 2.289367878190291, 48.826571000070942 ], [ 2.289097466086223, 48.826569392900737 ], [ 2.289096384697756, 48.826648697293948 ] ] ] } },
{ "type": "Feature", "properties": { "fid": 85, "ID": "2D67", "Nom": "IBM" }, "geometry": { "type": "Polygon", "coordinates": [ [ [ 2.289095644416923, 48.826756160777826 ], [ 2.289310543731541, 48.826757767304933 ], [ 2.289311899524796, 48.826694889787142 ], [ 2.289096978023378, 48.826694929348314 ], [ 2.289095644416923, 48.826756160777826 ] ] ] } },
{ "type": "Feature", "properties": { "fid": 86, "ID": "2C68", "Nom": null }, "geometry": { "type": "Polygon", "coordinates": [ [ [ 2.289311042348267, 48.826757770268074 ], [ 2.289390322408491, 48.826758241382024 ], [ 2.289391664643564, 48.826696351514933 ], [ 2.289311895036966, 48.826695219004343 ], [ 2.289311042348267, 48.826757770268074 ] ] ] } },
{ "type": "Feature", "properties": { "fid": 87, "ID": "2C61", "Nom": null }, "geometry": { "type": "Polygon", "coordinates": [ [ [ 2.289430026677205, 48.826698884165474 ], [ 2.289526762701736, 48.826699129663297 ], [ 2.289526899766816, 48.826835437422183 ], [ 2.289427185245871, 48.826834186497102 ], [ 2.289430026677205, 48.826698884165474 ] ] ] } },
{ "type": "Feature", "properties": { "fid": 88, "ID": null, "Nom": "Investor Lounge" }, "geometry": { "type": "Polygon", "coordinates": [ [ [ 2.289398814202441, 48.826574244521701 ], [ 2.289845591181709, 48.82657558146969 ], [ 2.289845198231622, 48.826677644731859 ], [ 2.28939640796475, 48.826677612800175 ], [ 2.289398814202441, 48.826574244521701 ] ] ] } },
{ "type": "Feature", "properties": { "fid": 89, "ID": null, "Nom": "Founders Arena" }, "geometry": { "type": "Polygon", "coordinates": [ [ [ 2.289689621074453, 48.826677379258278 ], [ 2.289845198231622, 48.826677644731859 ], [ 2.289846962872534, 48.826840960144423 ], [ 2.289687414229567, 48.826839354112025 ], [ 2.289689621074453, 48.826677379258278 ] ] ] } },
{ "type": "Feature", "properties": { "fid": 90, "ID": null, "Nom": "2B61" }, "geometry": { "type": "Polygon", "coordinates": [ [ [ 2.28956167032058, 48.826699007798283 ], [ 2.289656407395559, 48.826699570560002 ], [ 2.289657515120622, 48.826837859545016 ], [ 2.289555797149331, 48.8268372553147 ], [ 2.28956167032058, 48.826699007798283 ] ] ] } },
{ "type": "Feature", "properties": { "fid": 91, "ID": "2B60", "Nom": null }, "geometry": { "type": "Polygon", "coordinates": [ [ [ 2.289588230378191, 48.826872347828413 ], [ 2.289588231699632, 48.826945439956226 ], [ 2.289508452734428, 48.826944966011219 ], [ 2.289511443231808, 48.826871891657269 ], [ 2.289588230378191, 48.826872347828413 ] ] ] } },
{ "type": "Feature", "properties": { "fid": 92, "ID": "2B59", "Nom": null }, "geometry": { "type": "Polygon", "coordinates": [ [ [ 2.289619020443501, 48.826954841675047 ], [ 2.28977059153934, 48.826956400419135 ], [ 2.289771721746416, 48.826873437699994 ], [ 2.28962014191994, 48.826872537391502 ], [ 2.289619020443501, 48.826954841675047 ] ] ] } },
{ "type": "Feature", "properties": { "fid": 93, "ID": "2A59", "Nom": null }, "geometry": { "type": "Polygon", "coordinates": [ [ [ 2.289799644346602, 48.826873603525314 ], [ 2.289843522718681, 48.82687386409485 ], [ 2.28984203386547, 48.826983164184725 ], [ 2.289798155401409, 48.826982903614699 ], [ 2.289799644346602, 48.826873603525314 ] ] ] } },
{ "type": "Feature", "properties": { "fid": 94, "ID": "2A47", "Nom": null }, "geometry": { "type": "Polygon", "coordinates": [ [ [ 2.289797868375112, 48.827003973510202 ], [ 2.289838755142221, 48.827004216314705 ], [ 2.289838487742643, 48.827097061459433 ], [ 2.289794600213109, 48.827097459322303 ], [ 2.289797868375112, 48.827003973510202 ] ] ] } },
{ "type": "Feature", "properties": { "fid": 95, "ID": "2B50", "Nom": "Région Centra-Val de Loire" }, "geometry": { "type": "Polygon", "coordinates": [ [ [ 2.289422376247694, 48.826967501659006 ], [ 2.289585914224766, 48.826969131740881 ], [ 2.289584532496158, 48.827070530608232 ], [ 2.289418999722229, 48.82706888867385 ], [ 2.289422376247694, 48.826967501659006 ] ] ] } },
{ "type": "Feature", "properties": { "fid": 96, "ID": "2B55", "Nom": null }, "geometry": { "type": "Polygon", "coordinates": [ [ [ 2.289617736107303, 48.826975905646933 ], [ 2.289767312788928, 48.826977452547673 ], [ 2.289766649011509, 48.827026176680505 ], [ 2.289616074951522, 48.827024623855273 ], [ 2.289617736107303, 48.826975905646933 ] ] ] } },
{ "type": "Feature", "properties": { "fid": 97, "ID": "2B49", "Nom": null }, "geometry": { "type": "Polygon", "coordinates": [ [ [ 2.289616074951522, 48.827024623855273 ], [ 2.289767646250148, 48.827026182602992 ], [ 2.289767009382351, 48.827072931431211 ], [ 2.289614431736445, 48.827072025193154 ], [ 2.289616074951522, 48.827024623855273 ] ] ] } },
{ "type": "Feature", "properties": { "fid": 98, "ID": "2B41", "Nom": "Foxconn" }, "geometry": { "type": "Polygon", "coordinates": [ [ [ 2.289612096323985, 48.827097033843977 ], [ 2.289762679563018, 48.827097928239937 ], [ 2.289760166381561, 48.827209197686791 ], [ 2.289607606281008, 48.827206974571922 ], [ 2.289612096323985, 48.827097033843977 ] ] ] } },
{ "type": "Feature", "properties": { "fid": 99, "ID": "2A41", "Nom": null }, "geometry": { "type": "Polygon", "coordinates": [ [ [ 2.289793333883641, 48.827117206425051 ], [ 2.289833223499139, 48.827117443309149 ], [ 2.289829973331831, 48.82720961224453 ], [ 2.289789086403681, 48.827209369437071 ], [ 2.289793333883641, 48.827117206425051 ] ] ] } },
{ "type": "Feature", "properties": { "fid": 100, "ID": null, "Nom": "Taiwan Tech Arena" }, "geometry": { "type": "Polygon", "coordinates": [ [ [ 2.289416646267351, 48.827095214189221 ], [ 2.289580184644852, 48.827096844278763 ], [ 2.289571150570453, 48.827320676325542 ], [ 2.289404628733115, 48.827318370013465 ], [ 2.289416646267351, 48.827095214189221 ] ] ] } },
{ "type": "Feature", "properties": { "fid": 101, "ID": "2B30", "Nom": "Freshworks" }, "geometry": { "type": "Polygon", "coordinates": [ [ [ 2.289403326352108, 48.827340750844222 ], [ 2.289566847554293, 48.827343697819636 ], [ 2.289565249147301, 48.82738780697342 ], [ 2.289400712612088, 48.82738617093834 ], [ 2.289403326352108, 48.827340750844222 ] ] ] } },
{ "type": "Feature", "properties": { "fid": 102, "ID": "2B28", "Nom": "CIC" }, "geometry": { "type": "Polygon", "coordinates": [ [ [ 2.289397370862369, 48.827411832086398 ], [ 2.289561907478464, 48.827413468126018 ], [ 2.289560444937432, 48.827520792858095 ], [ 2.289392898289036, 48.827520455907624 ], [ 2.289397370862369, 48.827411832086398 ] ] ] } },
{ "type": "Feature", "properties": { "fid": 103, "ID": "2B16", "Nom": null }, "geometry": { "type": "Polygon", "coordinates": [ [ [ 2.289479326843882, 48.827545333457948 ], [ 2.289555126706043, 48.82754512529128 ], [ 2.289557131453691, 48.827617570789904 ], [ 2.289478348710158, 48.827617102749343 ], [ 2.289479326843882, 48.827545333457948 ] ] ] } },
{ "type": "Feature", "properties": { "fid": 104, "ID": "2B13", "Nom": null }, "geometry": { "type": "Polygon", "coordinates": [ [ [ 2.28944695833511, 48.827651816066812 ], [ 2.289490828386829, 48.827652735199358 ], [ 2.289490982122516, 48.827714633901998 ], [ 2.289447103044582, 48.827714373203328 ], [ 2.28944695833511, 48.827651816066812 ] ] ] } },
{ "type": "Feature", "properties": { "fid": 105, "ID": "2B09", "Nom": null }, "geometry": { "type": "Polygon", "coordinates": [ [ [ 2.28944578272362, 48.827738070894206 ], [ 2.289488655595658, 48.827738984102325 ], [ 2.289487480051189, 48.827825238923403 ], [ 2.289445577439614, 48.827826306941283 ], [ 2.28944578272362, 48.827738070894206 ] ] ] } },
{ "type": "Feature", "properties": { "fid": 106, "ID": "2B03", "Nom": null }, "geometry": { "type": "Polygon", "coordinates": [ [ [ 2.289446583667674, 48.827825654432743 ], [ 2.289487480051189, 48.827825238923403 ], [ 2.289483896026504, 48.827868677773829 ], [ 2.289446997601944, 48.827868458548885 ], [ 2.289446583667674, 48.827825654432743 ] ] ] } },
{ "type": "Feature", "properties": { "fid": 107, "ID": "2D09", "Nom": "Japan" }, "geometry": { "type": "Polygon", "coordinates": [ [ [ 2.289045004079463, 48.827727128667902 ], [ 2.289410923769024, 48.827734571339541 ], [ 2.28941008122845, 48.827869556179927 ], [ 2.289040153614816, 48.82786340665983 ], [ 2.289045004079463, 48.827727128667902 ] ] ] } },
{ "type": "Feature", "properties": { "fid": 108, "ID": "2B01", "Nom": null }, "geometry": { "type": "Polygon", "coordinates": [ [ [ 2.289337955769268, 48.827892833137689 ], [ 2.289451624911633, 48.827894825522037 ], [ 2.289451247999168, 48.827922479736266 ], [ 2.289337569820976, 48.827921145785261 ], [ 2.289337955769268, 48.827892833137689 ] ] ] } },
{ "type": "Feature", "properties": { "fid": 109, "ID": "2C01", "Nom": null }, "geometry": { "type": "Polygon", "coordinates": [ [ [ 2.289190397916561, 48.827889322254826 ], [ 2.289304058069668, 48.827891973213127 ], [ 2.289303699030896, 48.827918310559632 ], [ 2.28919002086557, 48.827916976468366 ], [ 2.289190397916561, 48.827889322254826 ] ] ] } },
{ "type": "Feature", "properties": { "fid": 110, "ID": "2D01", "Nom": null }, "geometry": { "type": "Polygon", "coordinates": [ [ [ 2.289037844829407, 48.827886439980851 ], [ 2.289157497476742, 48.82788846821601 ], [ 2.289157120408306, 48.827916122429436 ], [ 2.289037440759511, 48.827916069494869 ], [ 2.289037844829407, 48.827886439980851 ] ] ] } },
{ "type": "Feature", "properties": { "fid": 111, "ID": null, "Nom": "Red Stage" }, "geometry": { "type": "Polygon", "coordinates": [ [ [ 2.289483160183204, 48.827922669335742 ], [ 2.289809200039982, 48.827929215353173 ], [ 2.289813110760335, 48.827642138228981 ], [ 2.289492032029061, 48.827637597146051 ], [ 2.289483160183204, 48.827922669335742 ] ] ] } },
{ "type": "Feature", "properties": { "fid": 112, "ID": null, "Nom": "TechLeader Loundge" }, "geometry": { "type": "Polygon", "coordinates": [ [ [ 2.289588473047901, 48.827623024870029 ], [ 2.289811839122411, 48.827625668499337 ], [ 2.289814432938747, 48.827508473187315 ], [ 2.289592082558528, 48.827504518618689 ], [ 2.289588473047901, 48.827623024870029 ] ] ] } },
{ "type": "Feature", "properties": { "fid": 113, "ID": null, "Nom": "Exec Arena" }, "geometry": { "type": "Polygon", "coordinates": [ [ [ 2.289592082558528, 48.827504518618689 ], [ 2.289814432938747, 48.827508473187315 ], [ 2.289819604243566, 48.827348491496124 ], [ 2.289599258006819, 48.827343890350321 ], [ 2.289592082558528, 48.827504518618689 ] ] ] } },
{ "type": "Feature", "properties": { "fid": 114, "ID": null, "Nom": "CMO Loundge" }, "geometry": { "type": "Polygon", "coordinates": [ [ [ 2.289600255251517, 48.827343896274193 ], [ 2.289820601488378, 48.827348497418178 ], [ 2.28982924151117, 48.827226728570295 ], [ 2.289604870930519, 48.827224737482794 ], [ 2.289600255251517, 48.827343896274193 ] ] ] } },
{ "type": "Feature", "properties": { "fid": 115, "ID": "2D01", "Nom": "Région Ile-de-France" }, "geometry": { "type": "Polygon", "coordinates": [ [ [ 2.288668222500768, 48.827638626346406 ], [ 2.288936464859394, 48.827641538526329 ], [ 2.288935261461764, 48.82772976865072 ], [ 2.288665006177401, 48.827728161472393 ], [ 2.288668222500768, 48.827638626346406 ] ] ] } },
{ "type": "Feature", "properties": { "fid": 116, "ID": "2D10", "Nom": "BNP Paribas" }, "geometry": { "type": "Polygon", "coordinates": [ [ [ 2.288667000681283, 48.827728173335721 ], [ 2.288935270442359, 48.827729110216957 ], [ 2.288934085001934, 48.827816023467101 ], [ 2.288838537541208, 48.827874719163404 ], [ 2.288662041419634, 48.827872352515861 ], [ 2.288667000681283, 48.827728173335721 ] ] ] } },
{ "type": "Feature", "properties": { "fid": 117, "ID": "2F13", "Nom": "Amazon Web Services" }, "geometry": { "type": "Polygon", "coordinates": [ [ [ 2.288360117130121, 48.827633500901534 ], [ 2.288628332491799, 48.827638389073847 ], [ 2.288621207884682, 48.827868158707439 ], [ 2.288443705553811, 48.827866444239241 ], [ 2.288352785028799, 48.827805322426173 ], [ 2.288360117130121, 48.827633500901534 ] ] ] } },
{ "type": "Feature", "properties": { "fid": 120, "ID": null, "Nom": null }, "geometry": { "type": "Polygon", "coordinates": [ [ [ 2.28790069606928, 48.82691433181801 ], [ 2.287956523316085, 48.826915981204159 ], [ 2.287960486243684, 48.826844888127241 ], [ 2.287903643851011, 48.826844549673183 ], [ 2.28790069606928, 48.82691433181801 ] ] ] } },
{ "type": "Feature", "properties": { "fid": 123, "ID": null, "Nom": null }, "geometry": { "type": "Polygon", "coordinates": [ [ [ 2.289389067919655, 48.827618547739689 ], [ 2.289446899441672, 48.827619549846453 ], [ 2.289448928711769, 48.8275438358773 ], [ 2.289387063405508, 48.827546102238301 ], [ 2.289389067919655, 48.827618547739689 ] ] ] } },
{ "type": "Feature", "properties": { "fid": 126, "ID": null, "Nom": null }, "geometry": { "type": "Polygon", "coordinates": [ [ [ 2.28942269932275, 48.826943798026761 ], [ 2.28947954183348, 48.826944135758779 ], [ 2.289480528926497, 48.826871707990037 ], [ 2.289422689259089, 48.826871364333108 ], [ 2.28942269932275, 48.826943798026761 ] ] ] } },
{ "type": "Feature", "properties": { "fid": 129, "ID": null, "Nom": "Business Club" }, "geometry": { "type": "Polygon", "coordinates": [ [ [ 2.289075568685431, 48.827204471466302 ], [ 2.289371731610705, 48.827207548658912 ], [ 2.289375251835956, 48.827095626711674 ], [ 2.289170853566614, 48.827091778020687 ], [ 2.289075280763581, 48.827152449246327 ], [ 2.289075568685431, 48.827204471466302 ] ] ] } },
{ "type": "Feature", "properties": { "fid": 130, "ID": "2J06", "Nom": null }, "geometry": { "type": "Polygon", "coordinates": [ [ [ 2.287479683076393, 48.8277636444043 ], [ 2.287525999691831, 48.827764758441923 ], [ 2.287503513747204, 48.827738224467872 ], [ 2.287479683076393, 48.8277636444043 ] ] ] } },
{ "type": "Feature", "properties": { "fid": 131, "ID": "2J05", "Nom": null }, "geometry": { "type": "Polygon", "coordinates": [ [ [ 2.287590726337126, 48.82776556308373 ], [ 2.287546313612839, 48.827764460413405 ], [ 2.287568869263935, 48.827739451916187 ], [ 2.287590726337126, 48.82776556308373 ] ] ] } },
{ "type": "Feature", "properties": { "fid": 132, "ID": "2J08", "Nom": null }, "geometry": { "type": "Polygon", "coordinates": [ [ [ 2.287527984751605, 48.827712389293268 ], [ 2.28750418846395, 48.82773529515304 ], [ 2.287481656729153, 48.827712113283745 ], [ 2.287527984751605, 48.827712389293268 ] ] ] } },
{ "type": "Feature", "properties": { "fid": 133, "ID": "2J07", "Nom": null }, "geometry": { "type": "Polygon", "coordinates": [ [ [ 2.287592711331913, 48.827713193934045 ], [ 2.287569526798892, 48.827737779642042 ], [ 2.287547652569317, 48.827712925511044 ], [ 2.287592711331913, 48.827713193934045 ] ] ] } },
{ "type": "Feature", "properties": { "fid": 134, "ID": "2H08", "Nom": null }, "geometry": { "type": "Polygon", "coordinates": [ [ [ 2.287654641751234, 48.827732839035455 ], [ 2.287629553345672, 48.827757413414176 ], [ 2.287609600148505, 48.827731313594732 ], [ 2.287654641751234, 48.827732839035455 ] ] ] } },
{ "type": "Feature", "properties": { "fid": 135, "ID": "2H10", "Nom": null }, "geometry": { "type": "Polygon", "coordinates": [ [ [ 2.287697802364467, 48.827732677064695 ], [ 2.287656551368697, 48.827732431362236 ], [ 2.287677220237388, 48.827706154462305 ], [ 2.287697802364467, 48.827732677064695 ] ] ] } },
{ "type": "Feature", "properties": { "fid": 136, "ID": "2H06", "Nom": null }, "geometry": { "type": "Polygon", "coordinates": [ [ [ 2.287653217019356, 48.827790659143162 ], [ 2.287607523558094, 48.827790386962569 ], [ 2.287630708096591, 48.827765801248354 ], [ 2.287653217019356, 48.827790659143162 ] ] ] } },
{ "type": "Feature", "properties": { "fid": 137, "ID": "2H06", "Nom": null }, "geometry": { "type": "Polygon", "coordinates": [ [ [ 2.287655120913586, 48.827790670483623 ], [ 2.287700797200363, 48.827792199687032 ], [ 2.287676989501826, 48.827815943606915 ], [ 2.287655120913586, 48.827790670483623 ] ] ] } },
{ "type": "Feature", "properties": { "fid": 138, "ID": "2H04", "Nom": null }, "geometry": { "type": "Polygon", "coordinates": [ [ [ 2.287652661657339, 48.827831303468329 ], [ 2.287699618693513, 48.827832002205163 ], [ 2.287675141992813, 48.82785825642577 ], [ 2.287652661657339, 48.827831303468329 ] ] ] } },
{ "type": "Feature", "properties": { "fid": 139, "ID": "2H02", "Nom": null }, "geometry": { "type": "Polygon", "coordinates": [ [ [ 2.287695095271375, 48.827884356231358 ], [ 2.287651945983359, 48.827883680173848 ], [ 2.287674501635365, 48.827858671659371 ], [ 2.287695095271375, 48.827884356231358 ] ] ] } },
{ "type": "Feature", "properties": { "fid": 140, "ID": "2G11", "Nom": null }, "geometry": { "type": "Polygon", "coordinates": [ [ [ 2.287987583706124, 48.827659393127561 ], [ 2.287978927203369, 48.827689093982912 ], [ 2.287943674064058, 48.827667931698933 ], [ 2.287987583706124, 48.827659393127561 ] ] ] } },
{ "type": "Feature", "properties": { "fid": 141, "ID": "2G15", "Nom": null }, "geometry": { "type": "Polygon", "coordinates": [ [ [ 2.288024397959152, 48.827659193254867 ], [ 2.287978836234324, 48.827649283900115 ], [ 2.288017823323653, 48.827629401718845 ], [ 2.288024397959152, 48.827659193254867 ] ] ] } },
{ "type": "Feature", "properties": { "fid": 142, "ID": "2G13", "Nom": null }, "geometry": { "type": "Polygon", "coordinates": [ [ [ 2.288066106145175, 48.827672432034234 ], [ 2.288029703341764, 48.827688977233343 ], [ 2.288023757606931, 48.827659608490372 ], [ 2.288066106145175, 48.827672432034234 ] ] ] } },
{ "type": "Feature", "properties": { "fid": 143, "ID": "2F14", "Nom": null }, "geometry": { "type": "Polygon", "coordinates": [ [ [ 2.288107534468499, 48.827659688169582 ], [ 2.288062584468877, 48.827651458679462 ], [ 2.28809776375086, 48.827631553804153 ], [ 2.288107534468499, 48.827659688169582 ] ] ] } },
{ "type": "Feature", "properties": { "fid": 144, "ID": "2F14", "Nom": null }, "geometry": { "type": "Polygon", "coordinates": [ [ [ 2.288149236954653, 48.827673345933682 ], [ 2.288113457363868, 48.827690732963305 ], [ 2.288105613413775, 48.82766093387751 ], [ 2.288149236954653, 48.827673345933682 ] ] ] } },
{ "type": "Feature", "properties": { "fid": 145, "ID": "2F12", "Nom": null }, "geometry": { "type": "Polygon", "coordinates": [ [ [ 2.288204826954669, 48.827692533961638 ], [ 2.288241252587542, 48.827674312654295 ], [ 2.288195696529287, 48.827663984368584 ], [ 2.288204826954669, 48.827692533961638 ] ] ] } },
{ "type": "Feature", "properties": { "fid": 146, "ID": "2F12", "Nom": null }, "geometry": { "type": "Polygon", "coordinates": [ [ [ 2.288197000115058, 48.827661477840692 ], [ 2.288152719057628, 48.827650738079285 ], [ 2.288189127516351, 48.827633773828381 ], [ 2.288197000115058, 48.827661477840692 ] ] ] } },
{ "type": "Feature", "properties": { "fid": 147, "ID": "2G43", "Nom": null }, "geometry": { "type": "Polygon", "coordinates": [ [ [ 2.287782162727872, 48.827202245821759 ], [ 2.287735829432745, 48.827202388924484 ], [ 2.287760969041121, 48.827174043386179 ], [ 2.287782162727872, 48.827202245821759 ] ] ] } },
{ "type": "Feature", "properties": { "fid": 148, "ID": "2H41", "Nom": null }, "geometry": { "type": "Polygon", "coordinates": [ [ [ 2.287828473127127, 48.827203778756711 ], [ 2.28780273898529, 48.827229187431897 ], [ 2.287782157003596, 48.827202664835674 ], [ 2.287828473127127, 48.827203778756711 ] ] ] } },
{ "type": "Feature", "properties": { "fid": 149, "ID": "2G42", "Nom": null }, "geometry": { "type": "Polygon", "coordinates": [ [ [ 2.287842429137484, 48.827204280913016 ], [ 2.287886841390832, 48.827205383473952 ], [ 2.287866911170502, 48.827177607628926 ], [ 2.287842429137484, 48.827204280913016 ] ] ] } },
{ "type": "Feature", "properties": { "fid": 150, "ID": "2G40", "Nom": null }, "geometry": { "type": "Polygon", "coordinates": [ [ [ 2.287933780697218, 48.827207339160942 ], [ 2.28790741198031, 48.827232744079886 ], [ 2.287888745263738, 48.827205394810719 ], [ 2.287933780697218, 48.827207339160942 ] ] ] } },
{ "type": "Feature", "properties": { "fid": 151, "ID": null, "Nom": "Restauration" }, "geometry": { "type": "Polygon", "coordinates": [ [ [ 2.287634364279374, 48.827033746312146 ], [ 2.287589306103784, 48.827033477904656 ], [ 2.287591291072124, 48.82698110872083 ], [ 2.287636337751617, 48.826982215155503 ], [ 2.287634364279374, 48.827033746312146 ] ] ] } },
{ "type": "Feature", "properties": { "fid": 152, "ID": "2G61", "Nom": null }, "geometry": { "type": "Polygon", "coordinates": [ [ [ 2.288082796055883, 48.826798816394117 ], [ 2.288047657384786, 48.82681578818142 ], [ 2.28803980215962, 48.826786827096235 ], [ 2.288082796055883, 48.826798816394117 ] ] ] } },
{ "type": "Feature", "properties": { "fid": 153, "ID": "2G65", "Nom": null }, "geometry": { "type": "Polygon", "coordinates": [ [ [ 2.288040442500993, 48.826786411860262 ], [ 2.287997420012203, 48.826776517617347 ], [ 2.288035108593118, 48.826758722928673 ], [ 2.288040442500993, 48.826786411860262 ] ] ] } },
{ "type": "Feature", "properties": { "fid": 154, "ID": "2G67", "Nom": null }, "geometry": { "type": "Polygon", "coordinates": [ [ [ 2.288127985624617, 48.826789447292256 ], [ 2.288086232354975, 48.826779560636595 ], [ 2.288123286288858, 48.826761762142283 ], [ 2.288127985624617, 48.826789447292256 ] ] ] } },
{ "type": "Feature", "properties": { "fid": 155, "ID": "2G63", "Nom": null }, "geometry": { "type": "Polygon", "coordinates": [ [ [ 2.288172243061034, 48.826801863127343 ], [ 2.288135852341946, 48.826817570343479 ], [ 2.288128608800981, 48.826790289098028 ], [ 2.288172243061034, 48.826801863127343 ] ] ] } },
{ "type": "Feature", "properties": { "fid": 156, "ID": "2F62", "Nom": null }, "geometry": { "type": "Polygon", "coordinates": [ [ [ 2.288237345714458, 48.826821526829967 ], [ 2.288205872169123, 48.826802482339609 ], [ 2.288248506080226, 48.82679435512545 ], [ 2.288237345714458, 48.826821526829967 ] ] ] } },
{ "type": "Feature", "properties": { "fid": 157, "ID": "2F64", "Nom": null }, "geometry": { "type": "Polygon", "coordinates": [ [ [ 2.28829180319794, 48.826784136602441 ], [ 2.288250421379137, 48.826793528428325 ], [ 2.288256510500634, 48.826765907492181 ], [ 2.28829180319794, 48.826784136602441 ] ] ] } },
{ "type": "Feature", "properties": { "fid": 158, "ID": "2F66", "Nom": null }, "geometry": { "type": "Polygon", "coordinates": [ [ [ 2.288203545362729, 48.826786963710148 ], [ 2.288156583539815, 48.826786684184562 ], [ 2.288181030889882, 48.826762524910741 ], [ 2.288203545362729, 48.826786963710148 ] ] ] } },
{ "type": "Feature", "properties": { "fid": 159, "ID": "2D63", "Nom": null }, "geometry": { "type": "Polygon", "coordinates": [ [ [ 2.289153196014183, 48.826796802731714 ], [ 2.289112386111075, 48.826810807783126 ], [ 2.2891165994877, 48.82678108041577 ], [ 2.289153196014183, 48.826796802731714 ] ] ] } },
{ "type": "Feature", "properties": { "fid": 160, "ID": "2D65", "Nom": null }, "geometry": { "type": "Polygon", "coordinates": [ [ [ 2.289153196014183, 48.826796802731714 ], [ 2.289191107505245, 48.826809180467379 ], [ 2.289193388414776, 48.826781536851819 ], [ 2.289153196014183, 48.826796802731714 ] ] ] } },
{ "type": "Feature", "properties": { "fid": 161, "ID": "2C64", "Nom": null }, "geometry": { "type": "Polygon", "coordinates": [ [ [ 2.289213810991792, 48.826819791610156 ], [ 2.289249098347841, 48.826838439451173 ], [ 2.289255832989871, 48.826809984208737 ], [ 2.289213810991792, 48.826819791610156 ] ] ] } },
{ "type": "Feature", "properties": { "fid": 162, "ID": "2C64", "Nom": null }, "geometry": { "type": "Polygon", "coordinates": [ [ [ 2.289298472455477, 48.826801437606214 ], [ 2.289256479034228, 48.826809149952162 ], [ 2.28926320795612, 48.826781113722717 ], [ 2.289298472455477, 48.826801437606214 ] ] ] } },
{ "type": "Feature", "properties": { "fid": 163, "ID": "2C62", "Nom": null }, "geometry": { "type": "Polygon", "coordinates": [ [ [ 2.289339854711096, 48.826838559755636 ], [ 2.28930774613304, 48.826819511784322 ], [ 2.289348481739108, 48.826810953849858 ], [ 2.289339854711096, 48.826838559755636 ] ] ] } },
{ "type": "Feature", "properties": { "fid": 164, "ID": "2C66", "Nom": null }, "geometry": { "type": "Polygon", "coordinates": [ [ [ 2.289391132612921, 48.826801569186095 ], [ 2.289348504585687, 48.826809277793394 ], [ 2.289357766223524, 48.826781675657408 ], [ 2.289391767232417, 48.826801572957031 ], [ 2.289391132612921, 48.826801569186095 ] ] ] } },
{ "type": "Feature", "properties": { "fid": 165, "ID": "2C30", "Nom": null }, "geometry": { "type": "Polygon", "coordinates": [ [ [ 2.289355044319448, 48.827377126629138 ], [ 2.289311889717719, 48.827376870184153 ], [ 2.289335725030196, 48.82735103085998 ], [ 2.289355044319448, 48.827377126629138 ] ] ] } },
{ "type": "Feature", "properties": { "fid": 166, "ID": "2C30", "Nom": null }, "geometry": { "type": "Polygon", "coordinates": [ [ [ 2.289337005706149, 48.827350200374617 ], [ 2.289311974803248, 48.827324070659763 ], [ 2.289361492754632, 48.827323107774141 ], [ 2.289337005706149, 48.827350200374617 ] ] ] } },
{ "type": "Feature", "properties": { "fid": 167, "ID": "2C34", "Nom": null }, "geometry": { "type": "Polygon", "coordinates": [ [ [ 2.289316771325464, 48.827298118195692 ], [ 2.289360560487572, 48.827298378410056 ], [ 2.289339314501999, 48.827273947382089 ], [ 2.289316771325464, 48.827298118195692 ] ] ] } },
{ "type": "Feature", "properties": { "fid": 168, "ID": "2C36", "Nom": null }, "geometry": { "type": "Polygon", "coordinates": [ [ [ 2.289295136356622, 48.82725566578889 ], [ 2.289268768278649, 48.827281071006873 ], [ 2.289315730552851, 48.827281350095561 ], [ 2.289295124932377, 48.827256503816763 ], [ 2.289295136356622, 48.82725566578889 ] ] ] } },
{ "type": "Feature", "properties": { "fid": 169, "ID": "2C36", "Nom": null }, "geometry": { "type": "Polygon", "coordinates": [ [ [ 2.289295793830107, 48.827253993504542 ], [ 2.289320892631839, 48.827228580737334 ], [ 2.28927457074211, 48.827227886408217 ], [ 2.289295793830107, 48.827253993504542 ] ] ] } },
{ "type": "Feature", "properties": { "fid": 170, "ID": "2C32", "Nom": null }, "geometry": { "type": "Polygon", "coordinates": [ [ [ 2.289247363466622, 48.827361400986952 ], [ 2.289289254514797, 48.827361230898383 ], [ 2.289269323487737, 48.827333455290933 ], [ 2.289247363466622, 48.827361400986952 ] ] ] } },
{ "type": "Feature", "properties": { "fid": 171, "ID": "2C32", "Nom": null }, "geometry": { "type": "Polygon", "coordinates": [ [ [ 2.289269334912414, 48.827332617263096 ], [ 2.289248740718793, 48.82730693294959 ], [ 2.28929379913925, 48.827307200731767 ], [ 2.289269334912414, 48.827332617263096 ] ] ] } },
{ "type": "Feature", "properties": { "fid": 172, "ID": "2D31", "Nom": null }, "geometry": { "type": "Polygon", "coordinates": [ [ [ 2.289181139522976, 48.827377350253322 ], [ 2.289226198003947, 48.827377618060964 ], [ 2.289203717073859, 48.827350665383513 ], [ 2.289181139522976, 48.827377350253322 ] ] ] } },
{ "type": "Feature", "properties": { "fid": 173, "ID": "2D31", "Nom": null }, "geometry": { "type": "Polygon", "coordinates": [ [ [ 2.289204363125749, 48.827349831127634 ], [ 2.289183780383385, 48.82732330877549 ], [ 2.289230090931381, 48.827324841167524 ], [ 2.289204363125749, 48.827349831127634 ] ] ] } },
{ "type": "Feature", "properties": { "fid": 174, "ID": "2D33", "Nom": null }, "geometry": { "type": "Polygon", "coordinates": [ [ [ 2.289111639144669, 48.827354308556046 ], [ 2.289157972571024, 48.827354164920344 ], [ 2.28913421100772, 48.827328042712743 ], [ 2.289111639144669, 48.827354308556046 ] ] ] } },
{ "type": "Feature", "properties": { "fid": 175, "ID": "2D33", "Nom": null }, "geometry": { "type": "Polygon", "coordinates": [ [ [ 2.289134216721143, 48.827327623698835 ], [ 2.289114880420041, 48.827302784934609 ], [ 2.289160556322184, 48.82730431358118 ], [ 2.289134216721143, 48.827327623698835 ] ] ] } },
{ "type": "Feature", "properties": { "fid": 176, "ID": "2D35", "Nom": null }, "geometry": { "type": "Polygon", "coordinates": [ [ [ 2.289114886133617, 48.827302365920687 ], [ 2.289070468057755, 48.827301682829805 ], [ 2.28909047856272, 48.827277077958605 ], [ 2.289114886133617, 48.827302365920687 ] ] ] } },
{ "type": "Feature", "properties": { "fid": 177, "ID": "2D37", "Nom": null }, "geometry": { "type": "Polygon", "coordinates": [ [ [ 2.289143792798404, 48.827276975826166 ], [ 2.289192658944062, 48.827277266279943 ], [ 2.28916634175915, 48.827252386030722 ], [ 2.289143792798404, 48.827276975826166 ] ] ] } },
{ "type": "Feature", "properties": { "fid": 178, "ID": "2D37", "Nom": null }, "geometry": { "type": "Polygon", "coordinates": [ [ [ 2.28916635889862, 48.827251128988898 ], [ 2.289144484111983, 48.827226275139189 ], [ 2.289192715585469, 48.827226561820709 ], [ 2.28916635889862, 48.827251128988898 ] ] ] } },
{ "type": "Feature", "properties": { "fid": 179, "ID": "2D11", "Nom": null }, "geometry": { "type": "Polygon", "coordinates": [ [ [ 2.289076819571579, 48.827706818641175 ], [ 2.289086703401467, 48.827678317807717 ], [ 2.289043337125485, 48.827686418913061 ], [ 2.289076819571579, 48.827706818641175 ] ] ] } },
{ "type": "Feature", "properties": { "fid": 180, "ID": "2D11", "Nom": null }, "geometry": { "type": "Polygon", "coordinates": [ [ [ 2.289120470786415, 48.827677821957813 ], [ 2.289079480331565, 48.827666433089242 ], [ 2.289116640452828, 48.827649239600525 ], [ 2.289120470786415, 48.827677821957813 ] ] ] } },
{ "type": "Feature", "properties": { "fid": 181, "ID": "2D13", "Nom": null }, "geometry": { "type": "Polygon", "coordinates": [ [ [ 2.289129566299502, 48.827707132186603 ], [ 2.289163571127585, 48.827689223352984 ], [ 2.289122552161743, 48.827679924055928 ], [ 2.289129566299502, 48.827707132186603 ] ] ] } },
{ "type": "Feature", "properties": { "fid": 182, "ID": "2D15", "Nom": null }, "geometry": { "type": "Polygon", "coordinates": [ [ [ 2.28916385603723, 48.827668327786675 ], [ 2.289205891949595, 48.827680419415181 ], [ 2.289199989688072, 48.827649038445003 ], [ 2.28916385603723, 48.827668327786675 ] ] ] } },
{ "type": "Feature", "properties": { "fid": 183, "ID": "2D15", "Nom": null }, "geometry": { "type": "Polygon", "coordinates": [ [ [ 2.289248992311593, 48.827691820779542 ], [ 2.289211822707279, 48.827709710827584 ], [ 2.289206927890806, 48.827681818722944 ], [ 2.289248992311593, 48.827691820779542 ] ] ] } },
{ "type": "Feature", "properties": { "fid": 184, "ID": "2D14", "Nom": null }, "geometry": { "type": "Polygon", "coordinates": [ [ [ 2.289284090004091, 48.827671132105444 ], [ 2.289241740714987, 48.827682025627659 ], [ 2.289248497632936, 48.827650719895495 ], [ 2.289284090004091, 48.827671132105444 ] ] ] } },
{ "type": "Feature", "properties": { "fid": 185, "ID": "2B12", "Nom": null }, "geometry": { "type": "Polygon", "coordinates": [ [ [ 2.289329956397534, 48.8277118060414 ], [ 2.289298564727343, 48.827692811960397 ], [ 2.28933773022177, 48.827683292649489 ], [ 2.289329956397534, 48.8277118060414 ] ] ] } },
{ "type": "Feature", "properties": { "fid": 186, "ID": "2B10", "Nom": null }, "geometry": { "type": "Polygon", "coordinates": [ [ [ 2.289365566763218, 48.827653505323497 ], [ 2.289371488113338, 48.827683493247612 ], [ 2.289330507093954, 48.827671407946234 ], [ 2.289365566763218, 48.827653505323497 ] ] ] } },
{ "type": "Feature", "properties": { "fid": 187, "ID": "2B10", "Nom": null }, "geometry": { "type": "Polygon", "coordinates": [ [ [ 2.289416707876406, 48.827694210569675 ], [ 2.289379538327939, 48.827712100669821 ], [ 2.289372543047454, 48.827683499516127 ], [ 2.289416707876406, 48.827694210569675 ] ] ] } },
{ "type": "Feature", "properties": { "fid": 188, "ID": null, "Nom": "Escaliers" }, "geometry": { "type": "Polygon", "coordinates": [ [ [ 2.28795679607533, 48.827582981467948 ], [ 2.288251361869603, 48.827586058167796 ], [ 2.288260011069502, 48.827392918048645 ], [ 2.287959452544118, 48.827388482452498 ], [ 2.28795679607533, 48.827582981467948 ] ] ] } },
{ "type": "Feature", "properties": { "fid": 189, "ID": null, "Nom": "Escaliers" }, "geometry": { "type": "Polygon", "coordinates": [ [ [ 2.289050748268638, 48.827605368568676 ], [ 2.289351290101278, 48.827611124544013 ], [ 2.289356017477647, 48.827411344919213 ], [ 2.289057408588176, 48.827410893359122 ], [ 2.289050748268638, 48.827605368568676 ] ] ] } },
{ "type": "Feature", "properties": { "fid": 190, "ID": null, "Nom": "Escaliers" }, "geometry": { "type": "Polygon", "coordinates": [ [ [ 2.289378796407676, 48.827063470725882 ], [ 2.28908020755307, 48.827061696099314 ], [ 2.289088853595463, 48.826868555829975 ], [ 2.289379425565467, 48.826870282804578 ], [ 2.289378796407676, 48.827063470725882 ] ] ] } },
{ "type": "Feature", "properties": { "fid": 191, "ID": null, "Nom": "Escaliers" }, "geometry": { "type": "Polygon", "coordinates": [ [ [ 2.287986284825258, 48.827037986134179 ], [ 2.288284837381278, 48.827042409738247 ], [ 2.288291446298271, 48.826851903843831 ], [ 2.287994934916229, 48.826844845939853 ], [ 2.287986284825258, 48.827037986134179 ] ] ] } }
]
}
