{
"type": "FeatureCollection",
"name": "71",
"crs": { "type": "name", "properties": { "name": "urn:ogc:def:crs:OGC:1.3:CRS84" } },
"features": [
{ "type": "Feature", "properties": { "fid": 1 }, "geometry": { "type": "Polygon", "coordinates": [ [ [ 2.287731892194674, 48.827894179741286 ], [ 2.287895643270627, 48.827897658309119 ], [ 2.287900046286508, 48.82779738119298 ], [ 2.287736049610611, 48.827793400484026 ], [ 2.287731892194674, 48.827894179741286 ] ] ] } },
{ "type": "Feature", "properties": { "fid": 2 }, "geometry": { "type": "Polygon", "coordinates": [ [ [ 2.287936323159441, 48.827898901892212 ], [ 2.288020980154319, 48.827900574176205 ], [ 2.288021396780698, 48.827907085524693 ], [ 2.288239481156528, 48.827911554651955 ], [ 2.288244231957757, 48.827804270047473 ], [ 2.287940985689735, 48.827798125638104 ], [ 2.287936323159441, 48.827898901892212 ] ] ] } },
{ "type": "Feature", "properties": { "fid": 3 }, "geometry": { "type": "Polygon", "coordinates": [ [ [ 2.287738450122396, 48.827765710363821 ], [ 2.287902453549713, 48.827769190428086 ], [ 2.287904663289127, 48.827699942541486 ], [ 2.28774116558766, 48.827696465490732 ], [ 2.287738450122396, 48.827765710363821 ] ] ] } },
{ "type": "Feature", "properties": { "fid": 4 }, "geometry": { "type": "Polygon", "coordinates": [ [ [ 2.28755554612414, 48.827669645590845 ], [ 2.287667859675291, 48.827672021610795 ], [ 2.287670094500192, 48.827611669662645 ], [ 2.287557778958472, 48.827609448812638 ], [ 2.28755554612414, 48.827669645590845 ] ] ] } },
{ "type": "Feature", "properties": { "fid": 5 }, "geometry": { "type": "Polygon", "coordinates": [ [ [ 2.287702633324805, 48.827672849452711 ], [ 2.287906348420008, 48.827677166233457 ], [ 2.287908345835467, 48.827616968049746 ], [ 2.287704398081243, 48.827612494704432 ], [ 2.287702633324805, 48.827672849452711 ] ] ] } },
{ "type": "Feature", "properties": { "fid": 6 }, "geometry": { "type": "Polygon", "coordinates": [ [ [ 2.287950167757329, 48.827617992968293 ], [ 2.288079874382499, 48.82762031697866 ], [ 2.288073326187126, 48.827772820528502 ], [ 2.28794314915315, 48.827770493712769 ], [ 2.287950167757329, 48.827617992968293 ] ] ] } },
{ "type": "Feature", "properties": { "fid": 7 }, "geometry": { "type": "Polygon", "coordinates": [ [ [ 2.288080109396665, 48.827620318377669 ], [ 2.288161636007873, 48.827622510658273 ], [ 2.288249867487183, 48.827684487319942 ], [ 2.288245788961701, 48.827776640319037 ], [ 2.288073324068173, 48.827772975696483 ], [ 2.288080109396665, 48.827620318377669 ] ] ] } },
{ "type": "Feature", "properties": { "fid": 8 }, "geometry": { "type": "Polygon", "coordinates": [ [ [ 2.287480117644047, 48.827668381518464 ], [ 2.287521122349913, 48.827669013766339 ], [ 2.287521374700488, 48.82765054877644 ], [ 2.287480370009142, 48.827649916528642 ], [ 2.287480117644047, 48.827668381518464 ] ] ] } },
{ "type": "Feature", "properties": { "fid": 9 }, "geometry": { "type": "Polygon", "coordinates": [ [ [ 2.287480606083784, 48.827649840344847 ], [ 2.287521258253641, 48.827650470492394 ], [ 2.287522217767281, 48.827631854534559 ], [ 2.287481687360447, 48.827630914751445 ], [ 2.287480606083784, 48.827649840344847 ] ] ] } },
{ "type": "Feature", "properties": { "fid": 10 }, "geometry": { "type": "Polygon", "coordinates": [ [ [ 2.287481804867547, 48.82763091545155 ], [ 2.287522100260178, 48.827631853834497 ], [ 2.287523178340529, 48.827613160992392 ], [ 2.287482291185624, 48.827612529445297 ], [ 2.287481804867547, 48.82763091545155 ] ] ] } },
{ "type": "Feature", "properties": { "fid": 11 }, "geometry": { "type": "Polygon", "coordinates": [ [ [ 2.287483775878794, 48.827589881919756 ], [ 2.287524780522963, 48.82759051416641 ], [ 2.287526756109684, 48.827531945248424 ], [ 2.287485985464958, 48.827531391986582 ], [ 2.287483775878794, 48.827589881919756 ] ] ] } },
{ "type": "Feature", "properties": { "fid": 12 }, "geometry": { "type": "Polygon", "coordinates": [ [ [ 2.28748759691114, 48.827508517200314 ], [ 2.28752827457461, 48.827509096382805 ], [ 2.287530340429516, 48.827451257053632 ], [ 2.287489789190835, 48.827450762833848 ], [ 2.28748759691114, 48.827508517200314 ] ] ] } },
{ "type": "Feature", "properties": { "fid": 13 }, "geometry": { "type": "Polygon", "coordinates": [ [ [ 2.28755914025286, 48.827581859637789 ], [ 2.287644496380957, 48.827583390944483 ], [ 2.287647426927307, 48.827507490462985 ], [ 2.287562588827027, 48.827505848593937 ], [ 2.28755914025286, 48.827581859637789 ] ] ] } },
{ "type": "Feature", "properties": { "fid": 14 }, "geometry": { "type": "Polygon", "coordinates": [ [ [ 2.28767873837738, 48.827584276802057 ], [ 2.287814684538626, 48.827587018501944 ], [ 2.287817955966426, 48.827511347347198 ], [ 2.287682010002326, 48.827508605650834 ], [ 2.28767873837738, 48.827584276802057 ] ] ] } },
{ "type": "Feature", "properties": { "fid": 15 }, "geometry": { "type": "Polygon", "coordinates": [ [ [ 2.287492095396899, 48.827427693242463 ], [ 2.287532065188843, 48.827428229618697 ], [ 2.28753427610412, 48.827365610635347 ], [ 2.287494304322266, 48.827365223371871 ], [ 2.287492095396899, 48.827427693242463 ] ] ] } },
{ "type": "Feature", "properties": { "fid": 16 }, "geometry": { "type": "Polygon", "coordinates": [ [ [ 2.287564064307788, 48.827483148820505 ], [ 2.287649190179252, 48.827484848900042 ], [ 2.287652860542539, 48.827381527711808 ], [ 2.287568642278436, 48.827379534792172 ], [ 2.287564064307788, 48.827483148820505 ] ] ] } },
{ "type": "Feature", "properties": { "fid": 17 }, "geometry": { "type": "Polygon", "coordinates": [ [ [ 2.287683957516998, 48.82748595073312 ], [ 2.287915855820518, 48.827490314236229 ], [ 2.287919751496607, 48.827386994385023 ], [ 2.287687853652329, 48.827382630889069 ], [ 2.287683957516998, 48.82748595073312 ] ] ] } },
{ "type": "Feature", "properties": { "fid": 18 }, "geometry": { "type": "Polygon", "coordinates": [ [ [ 2.287849246385016, 48.827588115859768 ], [ 2.287910891003068, 48.827589228549535 ], [ 2.287913736456311, 48.827513192175097 ], [ 2.287852763341777, 48.827512530857341 ], [ 2.287849246385016, 48.827588115859768 ] ] ] } },
{ "type": "Feature", "properties": { "fid": 19 }, "geometry": { "type": "Polygon", "coordinates": [ [ [ 2.287475782948564, 48.827745379626492 ], [ 2.287494651817634, 48.827752948251621 ], [ 2.287510540267067, 48.827747227069693 ], [ 2.287500336962929, 48.827733595985187 ], [ 2.287476853430999, 48.827733157825399 ], [ 2.287475782948564, 48.827745379626492 ] ] ] } },
{ "type": "Feature", "properties": { "fid": 20 }, "geometry": { "type": "Polygon", "coordinates": [ [ [ 2.28747696686168, 48.827733121220206 ], [ 2.287500110611072, 48.827733631917688 ], [ 2.287511919806521, 48.827720653911648 ], [ 2.287495636924547, 48.827713920878537 ], [ 2.287477011882298, 48.827721564367934 ], [ 2.28747696686168, 48.827733121220206 ] ] ] } },
{ "type": "Feature", "properties": { "fid": 21 }, "geometry": { "type": "Polygon", "coordinates": [ [ [ 2.287510653697756, 48.827747190464436 ], [ 2.287528129154047, 48.827741031362613 ], [ 2.28752809588496, 48.827726938933772 ], [ 2.287511806885357, 48.827720653238906 ], [ 2.28750044937465, 48.827733633935956 ], [ 2.287510653697756, 48.827747190464436 ] ] ] } },
{ "type": "Feature", "properties": { "fid": 22 }, "geometry": { "type": "Polygon", "coordinates": [ [ [ 2.287511919806521, 48.827720653911648 ], [ 2.287528321727316, 48.827726940279241 ], [ 2.287547158341982, 48.827720341911288 ], [ 2.287548343766062, 48.827707971670023 ], [ 2.287524185775192, 48.827707305815245 ], [ 2.287511919806521, 48.827720653911648 ] ] ] } },
{ "type": "Feature", "properties": { "fid": 23 }, "geometry": { "type": "Polygon", "coordinates": [ [ [ 2.287495636924547, 48.827713920878537 ], [ 2.28751192082545, 48.827720579355635 ], [ 2.287524186794104, 48.827707231259254 ], [ 2.287513413794065, 48.827693969591699 ], [ 2.287496499900552, 48.827700355723451 ], [ 2.287495636924547, 48.827713920878537 ] ] ] } },
{ "type": "Feature", "properties": { "fid": 24 }, "geometry": { "type": "Polygon", "coordinates": [ [ [ 2.287524298696328, 48.82770730648798 ], [ 2.287548343766062, 48.827707971670023 ], [ 2.287548169041873, 48.827695966136055 ], [ 2.287530664408906, 48.82768773458772 ], [ 2.287513412775138, 48.827694044147712 ], [ 2.287524298696328, 48.82770730648798 ] ] ] } },
{ "type": "Feature", "properties": { "fid": 25 }, "geometry": { "type": "Polygon", "coordinates": [ [ [ 2.287510768656841, 48.827747042025194 ], [ 2.287522216137927, 48.827760531396763 ], [ 2.287545584723552, 48.827761117986896 ], [ 2.287545635842273, 48.827749113798916 ], [ 2.287528130172954, 48.827740956806629 ], [ 2.287510768656841, 48.827747042025194 ] ] ] } },
{ "type": "Feature", "properties": { "fid": 26 }, "geometry": { "type": "Polygon", "coordinates": [ [ [ 2.287494653346065, 48.827752836417638 ], [ 2.287493325437221, 48.827767368108958 ], [ 2.28750972431367, 48.827773878146822 ], [ 2.287522330078091, 48.827760457513499 ], [ 2.287510879540196, 48.827747191809948 ], [ 2.287494653346065, 48.827752836417638 ] ] ] } },
{ "type": "Feature", "properties": { "fid": 27 }, "geometry": { "type": "Polygon", "coordinates": [ [ [ 2.287509952194095, 48.827773730380336 ], [ 2.287526238153327, 48.827780239743142 ], [ 2.287544510181118, 48.827773638012268 ], [ 2.287545697644803, 48.827761118659602 ], [ 2.287522441980427, 48.827760532742239 ], [ 2.287509952194095, 48.827773730380336 ] ] ] } },
{ "type": "Feature", "properties": { "fid": 28 }, "geometry": { "type": "Polygon", "coordinates": [ [ [ 2.287509952194095, 48.827773730380336 ], [ 2.287526463995913, 48.827780241088604 ], [ 2.28752457352644, 48.827794620304275 ], [ 2.287508571123831, 48.827800415371087 ], [ 2.287497571246942, 48.827787226913713 ], [ 2.287509952194095, 48.827773730380336 ] ] ] } },
{ "type": "Feature", "properties": { "fid": 29 }, "geometry": { "type": "Polygon", "coordinates": [ [ [ 2.287493438358486, 48.827767368781721 ], [ 2.287509723294736, 48.827773952702813 ], [ 2.287497912048767, 48.827787079820006 ], [ 2.287474317609428, 48.82778649187501 ], [ 2.287474486760781, 48.827774115580134 ], [ 2.287493438358486, 48.827767368781721 ] ] ] } },
{ "type": "Feature", "properties": { "fid": 30 }, "geometry": { "type": "Polygon", "coordinates": [ [ [ 2.287474431549719, 48.827786417991796 ], [ 2.287497573284844, 48.82778707780173 ], [ 2.287508685064102, 48.827800341487851 ], [ 2.287492905443795, 48.82780636156599 ], [ 2.287473809693996, 48.827798866151369 ], [ 2.287474431549719, 48.827786417991796 ] ] ] } },
{ "type": "Feature", "properties": { "fid": 31 }, "geometry": { "type": "Polygon", "coordinates": [ [ [ 2.287676809109774, 48.827695054775866 ], [ 2.287696451271087, 48.827695619141004 ], [ 2.287706893703805, 48.827708282326356 ], [ 2.287696814030478, 48.827718660980409 ], [ 2.287676823063869, 48.827710563769052 ], [ 2.287676809109774, 48.827695054775866 ] ] ] } },
{ "type": "Feature", "properties": { "fid": 32 }, "geometry": { "type": "Polygon", "coordinates": [ [ [ 2.287696815049143, 48.827718586424396 ], [ 2.287686389477507, 48.827729484951739 ], [ 2.287664942602023, 48.827728760711359 ], [ 2.287656168524661, 48.82771797151171 ], [ 2.287676937003705, 48.827710489885639 ], [ 2.287696815049143, 48.827718586424396 ] ] ] } },
{ "type": "Feature", "properties": { "fid": 33 }, "geometry": { "type": "Polygon", "coordinates": [ [ [ 2.287656283483265, 48.827717823072305 ], [ 2.287676824082562, 48.827710489213047 ], [ 2.287676921012192, 48.827695130004443 ], [ 2.287657947209452, 48.827695240675759 ], [ 2.287647508390802, 48.827707108427937 ], [ 2.287656283483265, 48.827717823072305 ] ] ] } },
{ "type": "Feature", "properties": { "fid": 34 }, "geometry": { "type": "Polygon", "coordinates": [ [ [ 2.2876651694631, 48.827728687500567 ], [ 2.287654270804754, 48.827741149010542 ], [ 2.287635417037699, 48.827740738458914 ], [ 2.287635633013275, 48.827724932587401 ], [ 2.287656170562107, 48.827717822399713 ], [ 2.2876651694631, 48.827728687500567 ] ] ] } },
{ "type": "Feature", "properties": { "fid": 35 }, "geometry": { "type": "Polygon", "coordinates": [ [ [ 2.287635858855623, 48.827724933932664 ], [ 2.28765617158083, 48.827717747843714 ], [ 2.287647510428272, 48.827706959315933 ], [ 2.287625607802992, 48.827706530602008 ], [ 2.287615976742111, 48.827717135607791 ], [ 2.287635858855623, 48.827724933932664 ] ] ] } },
{ "type": "Feature", "properties": { "fid": 36 }, "geometry": { "type": "Polygon", "coordinates": [ [ [ 2.287625947585162, 48.827706458063922 ], [ 2.28761550109735, 48.827694093095481 ], [ 2.287596425580635, 48.82769338296837 ], [ 2.28759609870978, 48.827709039055584 ], [ 2.287616090682049, 48.827717061724435 ], [ 2.287625947585162, 48.827706458063922 ] ] ] } },
{ "type": "Feature", "properties": { "fid": 37 }, "geometry": { "type": "Polygon", "coordinates": [ [ [ 2.287596538501742, 48.827693383641034 ], [ 2.287577223898476, 48.827693641393537 ], [ 2.287566453430334, 48.8277049852286 ], [ 2.287576009784323, 48.827716375591756 ], [ 2.287596212649729, 48.827708965172249 ], [ 2.287596538501742, 48.827693383641034 ] ] ] } },
{ "type": "Feature", "properties": { "fid": 38 }, "geometry": { "type": "Polygon", "coordinates": [ [ [ 2.287576123724317, 48.827716301708435 ], [ 2.287596099728589, 48.827708964499585 ], [ 2.287616203603207, 48.827717062397099 ], [ 2.287606348733695, 48.827727516944734 ], [ 2.287584215163628, 48.827727459657893 ], [ 2.287576123724317, 48.827716301708435 ] ] ] } },
{ "type": "Feature", "properties": { "fid": 39 }, "geometry": { "type": "Polygon", "coordinates": [ [ [ 2.287606575594849, 48.827727443734041 ], [ 2.287616451368514, 48.827740252675646 ], [ 2.287635416018946, 48.827740813014898 ], [ 2.287635746953201, 48.827724858704023 ], [ 2.28761597470455, 48.827717284719789 ], [ 2.287606575594849, 48.827727443734041 ] ] ] } },
{ "type": "Feature", "properties": { "fid": 40 }, "geometry": { "type": "Polygon", "coordinates": [ [ [ 2.2876165653085, 48.827740178792283 ], [ 2.287635528940154, 48.827740813687527 ], [ 2.287644954057256, 48.827753545380105 ], [ 2.287635335216669, 48.82776325571507 ], [ 2.287615563972297, 48.827755607175035 ], [ 2.2876165653085, 48.827740178792283 ] ] ] } },
{ "type": "Feature", "properties": { "fid": 41 }, "geometry": { "type": "Polygon", "coordinates": [ [ [ 2.287616678229708, 48.827740179464939 ], [ 2.28759748569968, 48.827739766889366 ], [ 2.287586364236843, 48.827752003379722 ], [ 2.287595821945885, 48.8277623492842 ], [ 2.287615678931101, 48.82775545873568 ], [ 2.287616678229708, 48.827740179464939 ] ] ] } },
{ "type": "Feature", "properties": { "fid": 42 }, "geometry": { "type": "Polygon", "coordinates": [ [ [ 2.287596049826016, 48.827762201517551 ], [ 2.287596049826016, 48.827762201517551 ], [ 2.287604132107531, 48.827774030469158 ], [ 2.287625136484578, 48.827774081025922 ], [ 2.28763544915668, 48.827763181831713 ], [ 2.287615563972297, 48.827755607175035 ], [ 2.28759616274727, 48.827762202190208 ], [ 2.287596049826016, 48.827762201517551 ] ] ] } },
{ "type": "Feature", "properties": { "fid": 43 }, "geometry": { "type": "Polygon", "coordinates": [ [ [ 2.287650885119194, 48.827798839880835 ], [ 2.28766700348295, 48.827792821799598 ], [ 2.28767810919438, 48.827806532805873 ], [ 2.287665857503727, 48.827818837132988 ], [ 2.287650692578787, 48.82781293096351 ], [ 2.287650885119194, 48.827798839880835 ] ] ] } },
{ "type": "Feature", "properties": { "fid": 44 }, "geometry": { "type": "Polygon", "coordinates": [ [ [ 2.287665972462528, 48.827818688693597 ], [ 2.287682583976528, 48.82782616928057 ], [ 2.287701089992666, 48.827818972423259 ], [ 2.287701818603757, 48.827806972271233 ], [ 2.287677996273028, 48.827806532133273 ], [ 2.287665972462528, 48.827818688693597 ] ] ] } },
{ "type": "Feature", "properties": { "fid": 45 }, "geometry": { "type": "Polygon", "coordinates": [ [ [ 2.287678111231766, 48.827806383693883 ], [ 2.287701592761052, 48.827806970926105 ], [ 2.287701761858519, 48.827794594631143 ], [ 2.287684469767913, 48.827787333679133 ], [ 2.287667002464241, 48.827792896355604 ], [ 2.287678111231766, 48.827806383693883 ] ] ] } },
{ "type": "Feature", "properties": { "fid": 46 }, "geometry": { "type": "Polygon", "coordinates": [ [ [ 2.287649591573434, 48.827827389445012 ], [ 2.287649424500946, 48.82783961662755 ], [ 2.287672120688413, 48.827839826377264 ], [ 2.287684601281369, 48.827827299726927 ], [ 2.287668329549567, 48.82781974660206 ], [ 2.287649591573434, 48.827827389445012 ] ] ] } },
{ "type": "Feature", "properties": { "fid": 47 }, "geometry": { "type": "Polygon", "coordinates": [ [ [ 2.287684827124163, 48.827827301072098 ], [ 2.287700778432375, 48.827833510169121 ], [ 2.287700251215651, 48.827847301009761 ], [ 2.287683226411201, 48.827853537382488 ], [ 2.287672235647242, 48.827839677937888 ], [ 2.287684827124163, 48.827827301072098 ] ] ] } },
{ "type": "Feature", "properties": { "fid": 48 }, "geometry": { "type": "Polygon", "coordinates": [ [ [ 2.287683229467262, 48.827853313714527 ], [ 2.287666886262453, 48.827859255896428 ], [ 2.287648014273692, 48.827851910967169 ], [ 2.287649537422368, 48.827839617300178 ], [ 2.287672120688413, 48.827839826377264 ], [ 2.287683229467262, 48.827853313714527 ] ] ] } },
{ "type": "Feature", "properties": { "fid": 49 }, "geometry": { "type": "Polygon", "coordinates": [ [ [ 2.287680051367501, 48.827854487777962 ], [ 2.287699712793349, 48.827861911966117 ], [ 2.287699544713841, 48.827874213704341 ], [ 2.287675040748622, 48.827874067754365 ], [ 2.28766404998251, 48.827860208309268 ], [ 2.287680051367501, 48.827854487777962 ] ] ] } },
{ "type": "Feature", "properties": { "fid": 50 }, "geometry": { "type": "Polygon", "coordinates": [ [ [ 2.287699658654004, 48.827874139820928 ], [ 2.287699831376348, 48.827886294464747 ], [ 2.287678838006167, 48.82789370019244 ], [ 2.287663913163048, 48.827886751586398 ], [ 2.287675266591619, 48.827874069099551 ], [ 2.287699658654004, 48.827874139820928 ] ] ] } },
{ "type": "Feature", "properties": { "fid": 51 }, "geometry": { "type": "Polygon", "coordinates": [ [ [ 2.287664027103289, 48.827886677703006 ], [ 2.287646946568067, 48.827880461875196 ], [ 2.28764737106513, 48.827865924802687 ], [ 2.287664051001225, 48.827860133753276 ], [ 2.287675266591619, 48.827874069099551 ], [ 2.287664027103289, 48.827886677703006 ] ] ] } },
{ "type": "Feature", "properties": { "fid": 52 }, "geometry": { "type": "Polygon", "coordinates": [ [ [ 2.287623788651465, 48.827872718602713 ], [ 2.287612087276996, 48.827886070070633 ], [ 2.287627586908379, 48.827892276486473 ], [ 2.287646532416782, 48.827885977000442 ], [ 2.287647271228755, 48.82787323128958 ], [ 2.287623788651465, 48.827872718602713 ] ] ] } },
{ "type": "Feature", "properties": { "fid": 53 }, "geometry": { "type": "Polygon", "coordinates": [ [ [ 2.287647046404501, 48.82787315538836 ], [ 2.287647664144794, 48.827861005452661 ], [ 2.287629473761886, 48.827853366332214 ], [ 2.287613351299931, 48.827859682632031 ], [ 2.287623788651465, 48.827872718602713 ], [ 2.287647046404501, 48.82787315538836 ] ] ] } },
{ "type": "Feature", "properties": { "fid": 54 }, "geometry": { "type": "Polygon", "coordinates": [ [ [ 2.287623789670238, 48.827872644046735 ], [ 2.287612200198519, 48.827886070743283 ], [ 2.287595810443296, 48.827878889716231 ], [ 2.28759588803968, 48.827864947073799 ], [ 2.287613350281144, 48.827859757188023 ], [ 2.287623789670238, 48.827872644046735 ] ] ] } },
{ "type": "Feature", "properties": { "fid": 55 }, "geometry": { "type": "Polygon", "coordinates": [ [ [ 2.287588638147617, 48.827891373416506 ], [ 2.287469076661806, 48.827889020763621 ], [ 2.287473680792333, 48.827808297484331 ], [ 2.287507891886781, 48.827808799556422 ], [ 2.287552881974814, 48.827780808563062 ], [ 2.287552909831303, 48.827762242775037 ], [ 2.287577077017529, 48.827762237620014 ], [ 2.287643846143922, 48.827809833138083 ], [ 2.287642718490168, 48.827834506462999 ], [ 2.287589879768495, 48.827866626210039 ], [ 2.287588638147617, 48.827891373416506 ] ] ] } },
{ "type": "Feature", "properties": { "fid": 56 }, "geometry": { "type": "Polygon", "coordinates": [ [ [ 2.287556343999237, 48.827235105740328 ], [ 2.287705177714661, 48.827237998307162 ], [ 2.287789749441472, 48.82718554346215 ], [ 2.287792772436529, 48.827097698438884 ], [ 2.287562239549326, 48.827092714494171 ], [ 2.287556343999237, 48.827235105740328 ] ] ] } },
{ "type": "Feature", "properties": { "fid": 57 }, "geometry": { "type": "Polygon", "coordinates": [ [ [ 2.287812233583677, 48.827163210104992 ], [ 2.287951041780253, 48.827166042662604 ], [ 2.287952019220006, 48.827138967413319 ], [ 2.287812904557713, 48.827136333631799 ], [ 2.287812233583677, 48.827163210104992 ] ] ] } },
{ "type": "Feature", "properties": { "fid": 58 }, "geometry": { "type": "Polygon", "coordinates": [ [ [ 2.287813211095465, 48.827136134856772 ], [ 2.28795202195959, 48.827138766829115 ], [ 2.287953144596009, 48.827101060616137 ], [ 2.287814027294694, 48.827098627420042 ], [ 2.287813211095465, 48.827136134856772 ] ] ] } },
{ "type": "Feature", "properties": { "fid": 59 }, "geometry": { "type": "Polygon", "coordinates": [ [ [ 2.287973276837338, 48.827139695781931 ], [ 2.288068956666189, 48.827141469012361 ], [ 2.288070380276419, 48.827103965191142 ], [ 2.287975310850721, 48.82710199499509 ], [ 2.287973276837338, 48.827139695781931 ] ] ] } },
{ "type": "Feature", "properties": { "fid": 60 }, "geometry": { "type": "Polygon", "coordinates": [ [ [ 2.28797200108981, 48.827166368054193 ], [ 2.288108682718623, 48.827169187767375 ], [ 2.288111089135479, 48.827104207526745 ], [ 2.288070684073873, 48.827103966999658 ], [ 2.288069569739798, 48.827141071461021 ], [ 2.287973282316343, 48.827139294613524 ], [ 2.28797200108981, 48.827166368054193 ] ] ] } },
{ "type": "Feature", "properties": { "fid": 61 }, "geometry": { "type": "Polygon", "coordinates": [ [ [ 2.288142998179926, 48.827170395035935 ], [ 2.288275131075601, 48.827172585681076 ], [ 2.288275736090976, 48.827150523226479 ], [ 2.28818696749066, 48.827087608141888 ], [ 2.288146565180402, 48.827087167056213 ], [ 2.288142998179926, 48.827170395035935 ] ] ] } },
{ "type": "Feature", "properties": { "fid": 62 }, "geometry": { "type": "Polygon", "coordinates": [ [ [ 2.288034345774149, 48.827362124107438 ], [ 2.28817315451239, 48.82736495640674 ], [ 2.288268755831406, 48.827305746463956 ], [ 2.288272996116353, 48.827195441431961 ], [ 2.288042454533326, 48.827191060165951 ], [ 2.288034345774149, 48.827362124107438 ] ] ] } },
{ "type": "Feature", "properties": { "fid": 63 }, "geometry": { "type": "Polygon", "coordinates": [ [ [ 2.287836920296966, 48.827357738996447 ], [ 2.288000030189163, 48.827360916807919 ], [ 2.288007835262794, 48.827189851059885 ], [ 2.287844422107386, 48.827186671449468 ], [ 2.287836920296966, 48.827357738996447 ] ] ] } },
{ "type": "Feature", "properties": { "fid": 64 }, "geometry": { "type": "Polygon", "coordinates": [ [ [ 2.288384376176153, 48.827173310838162 ], [ 2.288480103089726, 48.827174500170649 ], [ 2.288483274216957, 48.827096894812883 ], [ 2.288387555904554, 48.827095085778879 ], [ 2.288384376176153, 48.827173310838162 ] ] ] } },
{ "type": "Feature", "properties": { "fid": 65 }, "geometry": { "type": "Polygon", "coordinates": [ [ [ 2.288373150176003, 48.827417831345301 ], [ 2.288576632664491, 48.827422494259984 ], [ 2.288585000140965, 48.82724721823584 ], [ 2.288522109654439, 48.827203197587963 ], [ 2.288382083763157, 48.827201131500779 ], [ 2.288373150176003, 48.827417831345301 ] ] ] } },
{ "type": "Feature", "properties": { "fid": 66 }, "geometry": { "type": "Polygon", "coordinates": [ [ [ 2.288626974306824, 48.827236617942077 ], [ 2.288709486020944, 48.827238588268692 ], [ 2.28882098846706, 48.827168726529358 ], [ 2.288824120488241, 48.827103398679334 ], [ 2.288524670199943, 48.827097672096492 ], [ 2.28852116772189, 48.827162751146808 ], [ 2.288626974306824, 48.827236617942077 ] ] ] } },
{ "type": "Feature", "properties": { "fid": 67 }, "geometry": { "type": "Polygon", "coordinates": [ [ [ 2.288862249375183, 48.827183027548287 ], [ 2.288956718047887, 48.827184575624656 ], [ 2.288960021407723, 48.827106672677509 ], [ 2.28886405572645, 48.827105362291448 ], [ 2.288862249375183, 48.827183027548287 ] ] ] } },
{ "type": "Feature", "properties": { "fid": 68 }, "geometry": { "type": "Polygon", "coordinates": [ [ [ 2.288741293326506, 48.827425692992826 ], [ 2.288944779241592, 48.827430108710701 ], [ 2.288955217695986, 48.827212431425586 ], [ 2.288815952111722, 48.827209384005371 ], [ 2.288748529815377, 48.827251150005907 ], [ 2.288741293326506, 48.827425692992826 ] ] ] } },
{ "type": "Feature", "properties": { "fid": 69 }, "geometry": { "type": "Polygon", "coordinates": [ [ [ 2.288618445475636, 48.827423729350173 ], [ 2.288699477146728, 48.827424704515991 ], [ 2.288706875284551, 48.827265697690393 ], [ 2.288625477141735, 48.827264227167142 ], [ 2.288618445475636, 48.827423729350173 ] ] ] } },
{ "type": "Feature", "properties": { "fid": 70 }, "geometry": { "type": "Polygon", "coordinates": [ [ [ 2.289066080901347, 48.827189417845062 ], [ 2.289198631120666, 48.827191931880023 ], [ 2.28920237143941, 48.827109346307076 ], [ 2.28916242273765, 48.827108369089892 ], [ 2.289066760326686, 48.827166982152463 ], [ 2.289066080901347, 48.827189417845062 ] ] ] } },
{ "type": "Feature", "properties": { "fid": 71 }, "geometry": { "type": "Polygon", "coordinates": [ [ [ 2.28923260137009, 48.827193120143292 ], [ 2.289304289791044, 48.827194532552021 ], [ 2.289305403063823, 48.827167660808868 ], [ 2.28928860130855, 48.827167314368928 ], [ 2.289290616103951, 48.827129104821665 ], [ 2.28923572615378, 48.82712828542487 ], [ 2.28923260137009, 48.827193120143292 ] ] ] } },
{ "type": "Feature", "properties": { "fid": 72 }, "geometry": { "type": "Polygon", "coordinates": [ [ [ 2.28930466407859, 48.827194473128692 ], [ 2.289358803844038, 48.827195534626028 ], [ 2.289359913727734, 48.827168909452858 ], [ 2.289305028776469, 48.827167720232197 ], [ 2.28930466407859, 48.827194473128692 ] ] ] } },
{ "type": "Feature", "properties": { "fid": 73 }, "geometry": { "type": "Polygon", "coordinates": [ [ [ 2.289288787191731, 48.827167377121214 ], [ 2.289359913727734, 48.827168909452858 ], [ 2.289361745108541, 48.827130452224388 ], [ 2.289290988710377, 48.827129168683612 ], [ 2.289288787191731, 48.827167377121214 ] ] ] } },
{ "type": "Feature", "properties": { "fid": 74 }, "geometry": { "type": "Polygon", "coordinates": [ [ [ 2.289379895210779, 48.827196276431103 ], [ 2.289519355917268, 48.827198707877763 ], [ 2.2895202789955, 48.827172081593893 ], [ 2.289381006764174, 48.827169527972536 ], [ 2.289379895210779, 48.827196276431103 ] ] ] } },
{ "type": "Feature", "properties": { "fid": 75 }, "geometry": { "type": "Polygon", "coordinates": [ [ [ 2.2893811934877, 48.827169529082063 ], [ 2.289520467399162, 48.827171959417974 ], [ 2.289522663707854, 48.827134120832 ], [ 2.289383023172384, 48.827131195138541 ], [ 2.2893811934877, 48.827169529082063 ] ] ] } },
{ "type": "Feature", "properties": { "fid": 76 }, "geometry": { "type": "Polygon", "coordinates": [ [ [ 2.289540813544575, 48.827172573472211 ], [ 2.289542643112001, 48.827134239526352 ], [ 2.289784397861947, 48.827139497638733 ], [ 2.289777704280113, 48.827288151916129 ], [ 2.289713111227839, 48.8272867819339 ], [ 2.289718162279934, 48.827176462717389 ], [ 2.289540813544575, 48.827172573472211 ] ] ] } },
{ "type": "Feature", "properties": { "fid": 77 }, "geometry": { "type": "Polygon", "coordinates": [ [ [ 2.289539326945754, 48.827199442998882 ], [ 2.289540813544578, 48.827172573472225 ], [ 2.289718347323835, 48.827176587111637 ], [ 2.289713484675748, 48.827286784151923 ], [ 2.289672227081031, 48.827285922627347 ], [ 2.28967541656391, 48.827202594007872 ], [ 2.289539326945754, 48.827199442998882 ] ] ] } },
{ "type": "Feature", "properties": { "fid": 78 }, "geometry": { "type": "Polygon", "coordinates": [ [ [ 2.289707688385362, 48.827396975636105 ], [ 2.289771909804847, 48.827398220118056 ], [ 2.289776590951321, 48.827301337891335 ], [ 2.289712744778742, 48.827299972344591 ], [ 2.289707688385362, 48.827396975636105 ] ] ] } },
{ "type": "Feature", "properties": { "fid": 79 }, "geometry": { "type": "Polygon", "coordinates": [ [ [ 2.289666427343966, 48.827396360680055 ], [ 2.289707503340703, 48.827396851241865 ], [ 2.289712741419393, 48.827300218915049 ], [ 2.289670735238293, 48.827299476239155 ], [ 2.289666427343966, 48.827396360680055 ] ] ] } },
{ "type": "Feature", "properties": { "fid": 80 }, "geometry": { "type": "Polygon", "coordinates": [ [ [ 2.289783682845833, 48.82752096874691 ], [ 2.28982438213342, 48.827521703621137 ], [ 2.289829024256549, 48.827413971194986 ], [ 2.289788138328587, 48.827413235213356 ], [ 2.289783682845833, 48.82752096874691 ] ] ] } },
{ "type": "Feature", "properties": { "fid": 81 }, "geometry": { "type": "Polygon", "coordinates": [ [ [ 2.289660651366034, 48.827518758495657 ], [ 2.289749333881864, 48.827520148278239 ], [ 2.289751812209926, 48.827461597784243 ], [ 2.289662944748848, 48.827460083609147 ], [ 2.289660651366034, 48.827518758495657 ] ] ] } },
{ "type": "Feature", "properties": { "fid": 82 }, "geometry": { "type": "Polygon", "coordinates": [ [ [ 2.289662946428646, 48.827459960323921 ], [ 2.289751625485346, 48.827461596675292 ], [ 2.289753239630557, 48.827425357475825 ], [ 2.289665117449193, 48.827423971023286 ], [ 2.289662946428646, 48.827459960323921 ] ] ] } },
{ "type": "Feature", "properties": { "fid": 83 }, "geometry": { "type": "Polygon", "coordinates": [ [ [ 2.28932857147965, 48.827262612515121 ], [ 2.289467468829074, 48.827265287263792 ], [ 2.28946957087003, 48.827220666884635 ], [ 2.289330493637978, 48.827217497887752 ], [ 2.28932857147965, 48.827262612515121 ] ] ] } },
{ "type": "Feature", "properties": { "fid": 84 }, "geometry": { "type": "Polygon", "coordinates": [ [ [ 2.289328717900634, 48.827262502393204 ], [ 2.289399501626572, 48.827263839619903 ], [ 2.289393846578605, 48.827390145916631 ], [ 2.289321901712877, 48.827389107325452 ], [ 2.289328717900634, 48.827262502393204 ] ] ] } },
{ "type": "Feature", "properties": { "fid": 85 }, "geometry": { "type": "Polygon", "coordinates": [ [ [ 2.289399499544455, 48.827263992376452 ], [ 2.289467511115594, 48.827265007553017 ], [ 2.289462085511091, 48.827391467983993 ], [ 2.289393617299985, 48.82738999178536 ], [ 2.289399499544455, 48.827263992376452 ] ] ] } },
{ "type": "Feature", "properties": { "fid": 86 }, "geometry": { "type": "Polygon", "coordinates": [ [ [ 2.289296024677107, 48.827216630196574 ], [ 2.289293963894075, 48.827265962315984 ], [ 2.289185005735723, 48.827264398134552 ], [ 2.289187300064505, 48.827214914635519 ], [ 2.289296024677107, 48.827216630196574 ] ] ] } },
{ "type": "Feature", "properties": { "fid": 87 }, "geometry": { "type": "Polygon", "coordinates": [ [ [ 2.289187300064505, 48.827214914635519 ], [ 2.289064700110506, 48.82721265818428 ], [ 2.289059496427838, 48.827322773652654 ], [ 2.289149337838539, 48.827385790194811 ], [ 2.289179187538622, 48.827385662080168 ], [ 2.289187300064505, 48.827214914635519 ] ] ] } },
{ "type": "Feature", "properties": { "fid": 88 }, "geometry": { "type": "Polygon", "coordinates": [ [ [ 2.289185007818469, 48.827264245377982 ], [ 2.289293965976501, 48.827265809559435 ], [ 2.28928813762044, 48.82738783729291 ], [ 2.289179418899357, 48.82738566345531 ], [ 2.289185007818469, 48.827264245377982 ] ] ] } },
{ "type": "Feature", "properties": { "fid": 89 }, "geometry": { "type": "Polygon", "coordinates": [ [ [ 2.28939924748693, 48.827418287488278 ], [ 2.289519069526434, 48.827420679858818 ], [ 2.289514185579327, 48.827524380927002 ], [ 2.289394363301712, 48.827521988551815 ], [ 2.28939924748693, 48.827418287488278 ] ] ] } },
{ "type": "Feature", "properties": { "fid": 90 }, "geometry": { "type": "Polygon", "coordinates": [ [ [ 2.289514421104266, 48.827524076788436 ], [ 2.289626141581347, 48.827526726456597 ], [ 2.289627451777553, 48.827481514646486 ], [ 2.289516187874248, 48.827479325998056 ], [ 2.289514421104266, 48.827524076788436 ] ] ] } },
{ "type": "Feature", "properties": { "fid": 91 }, "geometry": { "type": "Polygon", "coordinates": [ [ [ 2.289516652678345, 48.827479175990526 ], [ 2.289627449696095, 48.827481667403021 ], [ 2.289630560502717, 48.827423175392035 ], [ 2.289519294642014, 48.827421139502917 ], [ 2.289516652678345, 48.827479175990526 ] ] ] } },
{ "type": "Feature", "properties": { "fid": 92 }, "geometry": { "type": "Polygon", "coordinates": [ [ [ 2.289654736617123, 48.827635667752681 ], [ 2.28981851168041, 48.827638779188369 ], [ 2.289823268098832, 48.827544396266589 ], [ 2.289659493331754, 48.82754128483716 ], [ 2.289654736617123, 48.827635667752681 ] ] ] } },
{ "type": "Feature", "properties": { "fid": 93 }, "geometry": { "type": "Polygon", "coordinates": [ [ [ 2.289485544211506, 48.827622593930208 ], [ 2.289621562050954, 48.827625082415693 ], [ 2.289625139440187, 48.827549330299519 ], [ 2.28948866532089, 48.827546380799255 ], [ 2.289485544211506, 48.827622593930208 ] ] ] } },
{ "type": "Feature", "properties": { "fid": 94 }, "geometry": { "type": "Polygon", "coordinates": [ [ [ 2.28939001469625, 48.827620345877193 ], [ 2.289451085878514, 48.827621319820231 ], [ 2.289453967348873, 48.827545716341568 ], [ 2.289392437696527, 48.827544434137423 ], [ 2.28939001469625, 48.827620345877193 ] ] ] } },
{ "type": "Feature", "properties": { "fid": 95 }, "geometry": { "type": "Polygon", "coordinates": [ [ [ 2.289774414964148, 48.827716582208538 ], [ 2.289815130552624, 48.827717129538776 ], [ 2.289815380262633, 48.827698798758085 ], [ 2.289774431245299, 48.827698402810427 ], [ 2.289774414964148, 48.827716582208538 ] ] ] } },
{ "type": "Feature", "properties": { "fid": 96 }, "geometry": { "type": "Polygon", "coordinates": [ [ [ 2.289774896050605, 48.82769825280193 ], [ 2.289815380262633, 48.827698798758085 ], [ 2.28981540277224, 48.827680161090129 ], [ 2.28977538129879, 48.827679617881984 ], [ 2.289774896050605, 48.82769825280193 ] ] ] } },
{ "type": "Feature", "properties": { "fid": 97 }, "geometry": { "type": "Polygon", "coordinates": [ [ [ 2.289775614741876, 48.827679466499461 ], [ 2.289815400691324, 48.827680313846649 ], [ 2.289816586253519, 48.827661224778474 ], [ 2.289776800318618, 48.827660377431663 ], [ 2.289775614741876, 48.827679466499461 ] ] ] } },
{ "type": "Feature", "properties": { "fid": 98 }, "geometry": { "type": "Polygon", "coordinates": [ [ [ 2.289651355243411, 48.827714018098675 ], [ 2.289740183761911, 48.827715615068982 ], [ 2.289742331547891, 48.82765986718821 ], [ 2.28965373032349, 48.827658577106675 ], [ 2.289651355243411, 48.827714018098675 ] ] ] } },
{ "type": "Feature", "properties": { "fid": 99 }, "geometry": { "type": "Polygon", "coordinates": [ [ [ 2.28938511565798, 48.827708158871189 ], [ 2.289617359570329, 48.827712746785217 ], [ 2.289619334407268, 48.827652720349924 ], [ 2.289388016209752, 48.827648137938496 ], [ 2.28938511565798, 48.827708158871189 ] ] ] } },
{ "type": "Feature", "properties": { "fid": 100 }, "geometry": { "type": "Polygon", "coordinates": [ [ [ 2.289380850307282, 48.827800405920492 ], [ 2.289544390345703, 48.827803821869303 ], [ 2.28954741770331, 48.82773448279157 ], [ 2.289383884128743, 48.827730608577198 ], [ 2.289380850307282, 48.827800405920492 ] ] ] } },
{ "type": "Feature", "properties": { "fid": 101 }, "geometry": { "type": "Polygon", "coordinates": [ [ [ 2.289374703278622, 48.827928847996937 ], [ 2.289538708527618, 48.827932113946218 ], [ 2.289542623297187, 48.82783161530309 ], [ 2.289379316616599, 48.827828047970236 ], [ 2.289374703278622, 48.827928847996937 ] ] ] } },
{ "type": "Feature", "properties": { "fid": 102 }, "geometry": { "type": "Polygon", "coordinates": [ [ [ 2.289030707011711, 48.827928304285535 ], [ 2.289249045983736, 48.827933150099632 ], [ 2.289249519617707, 48.827926563768145 ], [ 2.289333947239604, 48.827927825786915 ], [ 2.289338396006146, 48.827826734165924 ], [ 2.289035249673927, 48.827820370654713 ], [ 2.289030707011711, 48.827928304285535 ] ] ] } },
{ "type": "Feature", "properties": { "fid": 103 }, "geometry": { "type": "Polygon", "coordinates": [ [ [ 2.289036770872489, 48.827793262822944 ], [ 2.289339920501624, 48.827799372922257 ], [ 2.289347373315176, 48.827646853102166 ], [ 2.289135940602228, 48.82764230193969 ], [ 2.289041095794945, 48.827701293896801 ], [ 2.289036770872489, 48.827793262822944 ] ] ] } },
{ "type": "Feature", "properties": { "fid": 104 }, "geometry": { "type": "Polygon", "coordinates": [ [ [ 2.288719717913133, 48.827877796754713 ], [ 2.28883099476465, 48.827880485956754 ], [ 2.288926217031154, 48.827822003274122 ], [ 2.288933290707435, 48.82766922779264 ], [ 2.288729146816888, 48.827664972677717 ], [ 2.288719717913133, 48.827877796754713 ] ] ] } },
{ "type": "Feature", "properties": { "fid": 105 }, "geometry": { "type": "Polygon", "coordinates": [ [ [ 2.288595519498458, 48.827893784311144 ], [ 2.288676869666169, 48.827895535345156 ], [ 2.288688089833049, 48.827663968198308 ], [ 2.288606356219248, 48.82766221488847 ], [ 2.288595519498458, 48.827893784311144 ] ] ] } },
{ "type": "Feature", "properties": { "fid": 106 }, "geometry": { "type": "Polygon", "coordinates": [ [ [ 2.288730668170072, 48.827637864846118 ], [ 2.288935199217822, 48.82764186883233 ], [ 2.288943472487677, 48.827457421856352 ], [ 2.288739332882914, 48.827452913349738 ], [ 2.288730668170072, 48.827637864846118 ] ] ] } },
{ "type": "Feature", "properties": { "fid": 107 }, "geometry": { "type": "Polygon", "coordinates": [ [ [ 2.28860825452724, 48.827635616157878 ], [ 2.288689223943182, 48.827637111492599 ], [ 2.288698272608425, 48.827452162281894 ], [ 2.288616535868488, 48.827450662386944 ], [ 2.28860825452724, 48.827635616157878 ] ] ] } },
{ "type": "Feature", "properties": { "fid": 108 }, "geometry": { "type": "Polygon", "coordinates": [ [ [ 2.288362673496024, 48.8276301002049 ], [ 2.288567204485049, 48.827634104820497 ], [ 2.288575095250109, 48.827449655585497 ], [ 2.288370571902178, 48.827445144166226 ], [ 2.288362673496024, 48.8276301002049 ] ] ] } },
{ "type": "Feature", "properties": { "fid": 109 }, "geometry": { "type": "Polygon", "coordinates": [ [ [ 2.288442269240649, 48.827872851720969 ], [ 2.288555478943062, 48.827874538964771 ], [ 2.288565295781831, 48.827661463775101 ], [ 2.288360771603831, 48.827656952339929 ], [ 2.288352925176115, 48.827809976629602 ], [ 2.288442269240649, 48.827872851720969 ] ] ] } },
{ "type": "Feature", "properties": { "fid": 110 }, "geometry": { "type": "Polygon", "coordinates": [ [ [ 2.289643236869714, 48.827934589148512 ], [ 2.28965885101171, 48.827928716474077 ], [ 2.289647620200747, 48.82791535839489 ], [ 2.289624960607453, 48.827914805173862 ], [ 2.289623997000412, 48.827927358226034 ], [ 2.289643236869714, 48.827934589148512 ] ] ] } },
{ "type": "Feature", "properties": { "fid": 111 }, "geometry": { "type": "Polygon", "coordinates": [ [ [ 2.289658930617491, 48.827928690782798 ], [ 2.289675341526519, 48.827922508869364 ], [ 2.289676165871468, 48.827908542127339 ], [ 2.289660239504811, 48.827902429784068 ], [ 2.28964761913132, 48.827915436880879 ], [ 2.289658930617491, 48.827928690782798 ] ] ] } },
{ "type": "Feature", "properties": { "fid": 112 }, "geometry": { "type": "Polygon", "coordinates": [ [ [ 2.289625119462519, 48.827914779953332 ], [ 2.289647540594981, 48.827915384086161 ], [ 2.289660397290414, 48.827902483049485 ], [ 2.289642894497696, 48.827895733401576 ], [ 2.289625051402591, 48.82790232542942 ], [ 2.289625119462519, 48.827914779953332 ] ] ] } },
{ "type": "Feature", "properties": { "fid": 113 }, "geometry": { "type": "Polygon", "coordinates": [ [ [ 2.28962496096394, 48.827914779011863 ], [ 2.289624469178826, 48.827921788073944 ], [ 2.289607743405729, 48.827927811125399 ], [ 2.289596356961493, 48.827914242803892 ], [ 2.289608656072462, 48.827901547773465 ], [ 2.289625073613914, 48.827906511820082 ], [ 2.28962496096394, 48.827914779011863 ] ] ] } },
{ "type": "Feature", "properties": { "fid": 114 }, "geometry": { "type": "Polygon", "coordinates": [ [ [ 2.28960766415642, 48.827927810654664 ], [ 2.289591021193813, 48.827933572554507 ], [ 2.289572812286143, 48.827926295419708 ], [ 2.289573138346054, 48.827914000221732 ], [ 2.289596356961493, 48.827914242803892 ], [ 2.28960766415642, 48.827927810654664 ] ] ] } },
{ "type": "Feature", "properties": { "fid": 115 }, "geometry": { "type": "Polygon", "coordinates": [ [ [ 2.289573297557656, 48.827913948839281 ], [ 2.289596277712204, 48.827914242333136 ], [ 2.289608656785453, 48.827901495449474 ], [ 2.289591867243095, 48.827894750030822 ], [ 2.289573942040504, 48.827901550876284 ], [ 2.289573297557656, 48.827913948839281 ] ] ] } },
{ "type": "Feature", "properties": { "fid": 116 }, "geometry": { "type": "Polygon", "coordinates": [ [ [ 2.289606449926794, 48.827900592760486 ], [ 2.289625090507057, 48.827893639174803 ], [ 2.289626291147954, 48.827881139858455 ], [ 2.289602999714846, 48.827880425895344 ], [ 2.289590133741529, 48.827894007138092 ], [ 2.289606449926794, 48.827900592760486 ] ] ] } },
{ "type": "Feature", "properties": { "fid": 117 }, "geometry": { "type": "Polygon", "coordinates": [ [ [ 2.289590054492271, 48.827894006667321 ], [ 2.289575086974397, 48.827887324397778 ], [ 2.289575680015181, 48.827872885327679 ], [ 2.28959160900415, 48.827867171516814 ], [ 2.289602999714846, 48.827880425895344 ], [ 2.289590054492271, 48.827894006667321 ] ] ] } },
{ "type": "Feature", "properties": { "fid": 118 }, "geometry": { "type": "Polygon", "coordinates": [ [ [ 2.289603079677081, 48.82788037404211 ], [ 2.289626291147954, 48.827881139858455 ], [ 2.28962622308779, 48.827868685334167 ], [ 2.289608885939161, 48.827861413382536 ], [ 2.289591688966374, 48.827867119663573 ], [ 2.289603079677081, 48.82788037404211 ] ] ] } },
{ "type": "Feature", "properties": { "fid": 119 }, "geometry": { "type": "Polygon", "coordinates": [ [ [ 2.289576438476868, 48.827846307089168 ], [ 2.289576027464772, 48.827859020409093 ], [ 2.289594157100178, 48.827866297073122 ], [ 2.289611751744434, 48.827860488497464 ], [ 2.289600051882105, 48.827846656672484 ], [ 2.289576438476868, 48.827846307089168 ] ] ] } },
{ "type": "Feature", "properties": { "fid": 120 }, "geometry": { "type": "Polygon", "coordinates": [ [ [ 2.289611831706627, 48.827860436644208 ], [ 2.289627448681836, 48.827854354677484 ], [ 2.289627879644538, 48.827840176285264 ], [ 2.289612509474566, 48.827833962582403 ], [ 2.289600208954481, 48.827846762261991 ], [ 2.289611831706627, 48.827860436644208 ] ] ] } },
{ "type": "Feature", "properties": { "fid": 121 }, "geometry": { "type": "Polygon", "coordinates": [ [ [ 2.289612430225399, 48.827833962111654 ], [ 2.289600210380478, 48.827846657613996 ], [ 2.289576676937445, 48.82784625617748 ], [ 2.289577637702296, 48.827833912420786 ], [ 2.289596198300404, 48.827827010692431 ], [ 2.289612430225399, 48.827833962111654 ] ] ] } },
{ "type": "Feature", "properties": { "fid": 122 }, "geometry": { "type": "Polygon", "coordinates": [ [ [ 2.289682472030556, 48.827935230312612 ], [ 2.289804107761306, 48.827937720004584 ], [ 2.28980763738989, 48.827857248477542 ], [ 2.289774068088613, 48.827856406468634 ], [ 2.289730914480815, 48.827826748733919 ], [ 2.289731655010219, 48.827808116147366 ], [ 2.289705141993052, 48.827807316026565 ], [ 2.289631270343591, 48.827853309054902 ], [ 2.289630016870663, 48.827873866557326 ], [ 2.289683043680904, 48.827911134160942 ], [ 2.289682472030556, 48.827935230312612 ] ] ] } },
{ "type": "Feature", "properties": { "fid": 123 }, "geometry": { "type": "Polygon", "coordinates": [ [ [ 2.289791251093132, 48.827854379719199 ], [ 2.28980849154396, 48.827848135887521 ], [ 2.289809393297137, 48.827835529145545 ], [ 2.289785918471248, 48.827834988080312 ], [ 2.289773450296113, 48.827848168787412 ], [ 2.289791251093132, 48.827854379719199 ] ] ] } },
{ "type": "Feature", "properties": { "fid": 124 }, "geometry": { "type": "Polygon", "coordinates": [ [ [ 2.289809271637566, 48.827835528423073 ], [ 2.289809681280977, 48.827823320417735 ], [ 2.289791292985788, 48.8278155796948 ], [ 2.289774300239916, 48.82782150366787 ], [ 2.289786041225095, 48.827834908477485 ], [ 2.289809271637566, 48.827835528423073 ] ] ] } },
{ "type": "Feature", "properties": { "fid": 125 }, "geometry": { "type": "Polygon", "coordinates": [ [ [ 2.289786163978939, 48.82783482887465 ], [ 2.289773573050007, 48.827848089184592 ], [ 2.289757844847475, 48.827841569231666 ], [ 2.289758401331833, 48.827827514466499 ], [ 2.289774300239916, 48.82782150366787 ], [ 2.289786163978939, 48.82783482887465 ] ] ] } },
{ "type": "Feature", "properties": { "fid": 126 }, "geometry": { "type": "Polygon", "coordinates": [ [ [ 2.28979141573958, 48.827815500091944 ], [ 2.289792337193086, 48.827801447493748 ], [ 2.289775881233998, 48.827794762557367 ], [ 2.289763896421045, 48.827808187129925 ], [ 2.289774421899454, 48.827821504390371 ], [ 2.28979141573958, 48.827815500091944 ] ] ] } },
{ "type": "Feature", "properties": { "fid": 127 }, "geometry": { "type": "Polygon", "coordinates": [ [ [ 2.289774302428502, 48.827821343017206 ], [ 2.289758525180019, 48.82782735453835 ], [ 2.289740010854089, 48.827819934386355 ], [ 2.289740548739168, 48.827807245151625 ], [ 2.289764020269169, 48.827808027201783 ], [ 2.289774302428502, 48.827821343017206 ] ] ] } },
{ "type": "Feature", "properties": { "fid": 128 }, "geometry": { "type": "Polygon", "coordinates": [ [ [ 2.289740548739169, 48.827807245151639 ], [ 2.289764143022987, 48.827807947598963 ], [ 2.289775879045421, 48.827794923208025 ], [ 2.289760028104863, 48.827788482857919 ], [ 2.289740711796465, 48.827795276677158 ], [ 2.289740548739169, 48.827807245151639 ] ] ] } },
{ "type": "Feature", "properties": { "fid": 129 }, "geometry": { "type": "Polygon", "coordinates": [ [ [ 2.289792458852579, 48.827801448216235 ], [ 2.289811049576606, 48.827794328752553 ], [ 2.289811461407746, 48.827781960096097 ], [ 2.289788472149465, 48.827781502246545 ], [ 2.289775881234001, 48.827794762557367 ], [ 2.289792458852579, 48.827801448216235 ] ] ] } },
{ "type": "Feature", "properties": { "fid": 130 }, "geometry": { "type": "Polygon", "coordinates": [ [ [ 2.289775882328291, 48.827794682232025 ], [ 2.289760149764323, 48.827788483580434 ], [ 2.289760588965319, 48.827774106790727 ], [ 2.289777823921843, 48.827768264589693 ], [ 2.28978859380891, 48.827781502969032 ], [ 2.289775882328291, 48.827794682232025 ] ] ] } },
{ "type": "Feature", "properties": { "fid": 131 }, "geometry": { "type": "Polygon", "coordinates": [ [ [ 2.289788716562625, 48.82778142336619 ], [ 2.289811461407746, 48.827781960096097 ], [ 2.28981175923891, 48.827769028439683 ], [ 2.289793962845634, 48.827762496209147 ], [ 2.289777701168142, 48.827768344192535 ], [ 2.289788716562625, 48.82778142336619 ] ] ] } },
{ "type": "Feature", "properties": { "fid": 132 }, "geometry": { "type": "Polygon", "coordinates": [ [ [ 2.289794084505035, 48.827762496931612 ], [ 2.289794039247505, 48.827747956600859 ], [ 2.289778794427174, 48.827741680516048 ], [ 2.289766081859482, 48.827754940103802 ], [ 2.289777580603015, 48.827768263144705 ], [ 2.289794084505035, 48.827762496931612 ] ] ] } },
{ "type": "Feature", "properties": { "fid": 133 }, "geometry": { "type": "Polygon", "coordinates": [ [ [ 2.289777580603015, 48.827768263144705 ], [ 2.289760588965319, 48.827774106790727 ], [ 2.289743052310643, 48.82776637111764 ], [ 2.289742976425833, 48.827754079896316 ], [ 2.289766204613169, 48.827754860500988 ], [ 2.289777580603015, 48.827768263144705 ] ] ] } },
{ "type": "Feature", "properties": { "fid": 134 }, "geometry": { "type": "Polygon", "coordinates": [ [ [ 2.289743218650254, 48.827754161666718 ], [ 2.289766205707473, 48.827754780175653 ], [ 2.289778672767822, 48.827741679793547 ], [ 2.289762702372389, 48.827735078070319 ], [ 2.289743874910211, 48.827741714129779 ], [ 2.289743218650254, 48.827754161666718 ] ] ] } },
{ "type": "Feature", "properties": { "fid": 135 }, "geometry": { "type": "Polygon", "coordinates": [ [ [ 2.289656223006192, 48.827816825954876 ], [ 2.289678121720903, 48.82781695602511 ], [ 2.289687382988729, 48.827806969553485 ], [ 2.289667666313242, 48.827798497934921 ], [ 2.289647247392192, 48.827805847512813 ], [ 2.289656223006192, 48.827816825954876 ] ] ] } },
{ "type": "Feature", "properties": { "fid": 136 }, "geometry": { "type": "Polygon", "coordinates": [ [ [ 2.289687384083155, 48.827806889228164 ], [ 2.289697263494519, 48.827796183440661 ], [ 2.289687578712803, 48.827783674484607 ], [ 2.289668361992188, 48.827783158686913 ], [ 2.289667422994276, 48.827798496489692 ], [ 2.289687384083155, 48.827806889228164 ] ] ] } },
{ "type": "Feature", "properties": { "fid": 137 }, "geometry": { "type": "Polygon", "coordinates": [ [ [ 2.28964737014618, 48.827805767910107 ], [ 2.289667420805362, 48.827798657140356 ], [ 2.289668483651635, 48.827783159409528 ], [ 2.289648895386148, 48.827783123392869 ], [ 2.289637784049572, 48.82779494650471 ], [ 2.28964737014618, 48.827805767910107 ] ] ] } },
{ "type": "Feature", "properties": { "fid": 138 }, "geometry": { "type": "Polygon", "coordinates": [ [ [ 2.28966848474609, 48.827783079084192 ], [ 2.289679478791505, 48.82777093394543 ], [ 2.289670865969787, 48.827760118323155 ], [ 2.289650808759006, 48.827767711045738 ], [ 2.2896487737267, 48.827783122670233 ], [ 2.28966848474609, 48.827783079084192 ] ] ] } },
{ "type": "Feature", "properties": { "fid": 139 }, "geometry": { "type": "Polygon", "coordinates": [ [ [ 2.289648654256224, 48.827782961296933 ], [ 2.289630775790155, 48.827782453442133 ], [ 2.289620968272999, 48.827770024083229 ], [ 2.28963060437223, 48.827759316855563 ], [ 2.289650931512898, 48.827767631443024 ], [ 2.289648654256224, 48.827782961296933 ] ] ] } },
{ "type": "Feature", "properties": { "fid": 140 }, "geometry": { "type": "Polygon", "coordinates": [ [ [ 2.289651053172309, 48.82776763216566 ], [ 2.289670865969787, 48.827760118323155 ], [ 2.289662009832906, 48.827749301254926 ], [ 2.28963975273554, 48.827748687061799 ], [ 2.289630481618325, 48.827759396458234 ], [ 2.289651053172309, 48.82776763216566 ] ] ] } },
{ "type": "Feature", "properties": { "fid": 141 }, "geometry": { "type": "Polygon", "coordinates": [ [ [ 2.289679478791505, 48.82777093394543 ], [ 2.289701128696138, 48.827771464192935 ], [ 2.289711249227977, 48.827760920499763 ], [ 2.28969140105688, 48.827753171090208 ], [ 2.28967098653473, 48.827760199371092 ], [ 2.289679478791505, 48.82777093394543 ] ] ] } },
{ "type": "Feature", "properties": { "fid": 142 }, "geometry": { "type": "Polygon", "coordinates": [ [ [ 2.289711370887374, 48.827760921222314 ], [ 2.289721242624489, 48.827750777709753 ], [ 2.289711562223005, 48.827737947453791 ], [ 2.289692584460022, 48.827737754406449 ], [ 2.289691402151299, 48.827753090764858 ], [ 2.289711370887374, 48.827760921222314 ] ] ] } },
{ "type": "Feature", "properties": { "fid": 143 }, "geometry": { "type": "Polygon", "coordinates": [ [ [ 2.28967098762918, 48.82776011904577 ], [ 2.28969140105688, 48.827753171090208 ], [ 2.28969270721378, 48.8277376748037 ], [ 2.289673367756281, 48.827737238609537 ], [ 2.289662009832906, 48.827749301254926 ], [ 2.28967098762918, 48.82776011904577 ] ] ] } },
{ "type": "Feature", "properties": { "fid": 144 }, "geometry": { "type": "Polygon", "coordinates": [ [ [ 2.289620970462054, 48.827769863432557 ], [ 2.289599197804925, 48.827769412773215 ], [ 2.289590461151576, 48.82775875707312 ], [ 2.28961052055679, 48.82775100370992 ], [ 2.289630602183204, 48.827759477506241 ], [ 2.289620970462054, 48.827769863432557 ] ] ] } },
{ "type": "Feature", "properties": { "fid": 145 }, "geometry": { "type": "Polygon", "coordinates": [ [ [ 2.28963060437223, 48.827759316855563 ], [ 2.28963975273554, 48.827748687061799 ], [ 2.289630914119248, 48.827736584785789 ], [ 2.289611938546142, 48.827736231074965 ], [ 2.289610641121618, 48.827751084757928 ], [ 2.28963060437223, 48.827759316855563 ] ] ] } },
{ "type": "Feature", "properties": { "fid": 146 }, "geometry": { "type": "Polygon", "coordinates": [ [ [ 2.289590585000114, 48.827758597145134 ], [ 2.28961076606462, 48.8277508445046 ], [ 2.289612060205479, 48.82773623179763 ], [ 2.289592724032902, 48.827735554614435 ], [ 2.289580879453782, 48.827747614361378 ], [ 2.289590585000114, 48.827758597145134 ] ] ] } },
{ "type": "Feature", "properties": { "fid": 147 }, "geometry": { "type": "Polygon", "coordinates": [ [ [ 2.289504930218159, 48.827392538219023 ], [ 2.289523784006913, 48.827392891224157 ], [ 2.289524964167439, 48.827377715513194 ], [ 2.289505001079626, 48.827369483395131 ], [ 2.289494875108491, 48.827380428701318 ], [ 2.289504930218159, 48.827392538219023 ] ] ] } },
{ "type": "Feature", "properties": { "fid": 148 }, "geometry": { "type": "Polygon", "coordinates": [ [ [ 2.289523907854786, 48.8273927312962 ], [ 2.289542883302274, 48.827393085021093 ], [ 2.28955411185474, 48.827381583937985 ], [ 2.289544652987154, 48.827370361616971 ], [ 2.289524964167439, 48.827377715513194 ], [ 2.289523907854786, 48.8273927312962 ] ] ] } },
{ "type": "Feature", "properties": { "fid": 149 }, "geometry": { "type": "Polygon", "coordinates": [ [ [ 2.289525086920606, 48.827377635910601 ], [ 2.289544652987154, 48.827370361616971 ], [ 2.289535799131969, 48.827359383884911 ], [ 2.289514023362948, 48.827359174185972 ], [ 2.289505123832805, 48.827369403792552 ], [ 2.289525086920606, 48.827377635910601 ] ] ] } },
{ "type": "Feature", "properties": { "fid": 150 }, "geometry": { "type": "Polygon", "coordinates": [ [ [ 2.289554233513248, 48.827381584660714 ], [ 2.289576009291791, 48.827381794352334 ], [ 2.289585523670016, 48.827371086401882 ], [ 2.289565554007551, 48.827363336246059 ], [ 2.28954477683491, 48.827370201688979 ], [ 2.289554233513248, 48.827381584660714 ] ] ] } },
{ "type": "Feature", "properties": { "fid": 151 }, "geometry": { "type": "Polygon", "coordinates": [ [ [ 2.289585647517648, 48.827370926473868 ], [ 2.289595397546919, 48.827360782245471 ], [ 2.289585715059672, 48.827348112625572 ], [ 2.289566375747575, 48.82734767641395 ], [ 2.289565674571413, 48.82736341729413 ], [ 2.289585647517648, 48.827370926473868 ] ] ] } },
{ "type": "Feature", "properties": { "fid": 152 }, "geometry": { "type": "Polygon", "coordinates": [ [ [ 2.289544656271066, 48.827370120640886 ], [ 2.289565920077555, 48.827363258088837 ], [ 2.289566375747575, 48.82734767641395 ], [ 2.289547519785621, 48.827347484066252 ], [ 2.289535798037318, 48.827359464210268 ], [ 2.289544656271066, 48.827370120640886 ] ] ] } },
{ "type": "Feature", "properties": { "fid": 153 }, "geometry": { "type": "Polygon", "coordinates": [ [ [ 2.289576254797988, 48.827381635147006 ], [ 2.289586297886483, 48.827394628236824 ], [ 2.289604910548551, 48.827394819133062 ], [ 2.28960597231063, 48.82737940172256 ], [ 2.289585647517648, 48.827370926473868 ], [ 2.289576254797988, 48.827381635147006 ] ] ] } },
{ "type": "Feature", "properties": { "fid": 154 }, "geometry": { "type": "Polygon", "coordinates": [ [ [ 2.289605033301636, 48.827394739530384 ], [ 2.289624254256517, 48.827394934036981 ], [ 2.289634762690834, 48.827382705682133 ], [ 2.28962602171697, 48.827372371282415 ], [ 2.289606095063677, 48.827379322119867 ], [ 2.289605033301636, 48.827394739530384 ] ] ] } },
{ "type": "Feature", "properties": { "fid": 155 }, "geometry": { "type": "Polygon", "coordinates": [ [ [ 2.289585648612222, 48.827370846148497 ], [ 2.289605974499715, 48.827379241071846 ], [ 2.289626019527946, 48.827372531933143 ], [ 2.289616927810962, 48.827361151134994 ], [ 2.289595399736036, 48.82736062159475 ], [ 2.289585648612222, 48.827370846148497 ] ] ] } },
{ "type": "Feature", "properties": { "fid": 156 }, "geometry": { "type": "Polygon", "coordinates": [ [ [ 2.289499175119875, 48.827332737120031 ], [ 2.289517196036796, 48.827340636373663 ], [ 2.289534197412371, 48.827334069831679 ], [ 2.289523183270927, 48.827320910303996 ], [ 2.289499346988746, 48.82732012603789 ], [ 2.289499175119875, 48.827332737120031 ] ] ] } },
{ "type": "Feature", "properties": { "fid": 157 }, "geometry": { "type": "Polygon", "coordinates": [ [ [ 2.289534319070768, 48.827334070554421 ], [ 2.289551067273643, 48.827328225492785 ], [ 2.289550898236663, 48.827313845084291 ], [ 2.289535408066568, 48.827307728171299 ], [ 2.289523183270927, 48.827320910303996 ], [ 2.289534319070768, 48.827334070554421 ] ] ] } },
{ "type": "Feature", "properties": { "fid": 158 }, "geometry": { "type": "Polygon", "coordinates": [ [ [ 2.289499591400182, 48.827320047158089 ], [ 2.28952306161256, 48.827320909581239 ], [ 2.289535529724904, 48.827307728894048 ], [ 2.289517973556316, 48.827301439041328 ], [ 2.2894997610795, 48.827307596726548 ], [ 2.289499591400182, 48.827320047158089 ] ] ] } },
{ "type": "Feature", "properties": { "fid": 159 }, "geometry": { "type": "Polygon", "coordinates": [ [ [ 2.289532867472011, 48.827306668763832 ], [ 2.289551693709314, 48.827300113060389 ], [ 2.289551992696784, 48.827287101073708 ], [ 2.28952875377446, 48.827287123680776 ], [ 2.289516035780613, 48.827300784874154 ], [ 2.289532867472011, 48.827306668763832 ] ] ] } },
{ "type": "Feature", "properties": { "fid": 160 }, "geometry": { "type": "Polygon", "coordinates": [ [ [ 2.289551871038495, 48.827287100350979 ], [ 2.289553009592806, 48.827274977002311 ], [ 2.289534374928694, 48.82726747576671 ], [ 2.289517986244849, 48.827273724621485 ], [ 2.289529120938642, 48.827286965198297 ], [ 2.289551871038495, 48.827287100350979 ] ] ] } },
{ "type": "Feature", "properties": { "fid": 161 }, "geometry": { "type": "Polygon", "coordinates": [ [ [ 2.289516158533613, 48.827300705271561 ], [ 2.289500681507938, 48.827293624449602 ], [ 2.289502218984839, 48.827279013183443 ], [ 2.289517987339526, 48.827273644296106 ], [ 2.289528876527407, 48.827287044078155 ], [ 2.289516158533613, 48.827300705271561 ] ] ] } },
{ "type": "Feature", "properties": { "fid": 162 }, "geometry": { "type": "Polygon", "coordinates": [ [ [ 2.289616215040627, 48.827342027917226 ], [ 2.28963650665352, 48.827335079245763 ], [ 2.289635815935619, 48.827323266358611 ], [ 2.289612585753463, 48.827322646379059 ], [ 2.289600360973838, 48.827335828519452 ], [ 2.289616215040627, 48.827342027917226 ] ] ] } },
{ "type": "Feature", "properties": { "fid": 163 }, "geometry": { "type": "Polygon", "coordinates": [ [ [ 2.289600360973838, 48.827335828519452 ], [ 2.289584392914455, 48.82732906611929 ], [ 2.2895849538184, 48.827314690047046 ], [ 2.289601331561609, 48.827309244436996 ], [ 2.289612708506366, 48.827322566776353 ], [ 2.289600483726791, 48.827335748916767 ], [ 2.289600360973838, 48.827335828519452 ] ] ] } },
{ "type": "Feature", "properties": { "fid": 164 }, "geometry": { "type": "Polygon", "coordinates": [ [ [ 2.289612707411834, 48.827322647101724 ], [ 2.289635815935619, 48.827323266358611 ], [ 2.289635988865902, 48.827310574950815 ], [ 2.289618449102064, 48.827303080232369 ], [ 2.289601453219949, 48.827309245159682 ], [ 2.289612707411834, 48.827322647101724 ] ] ] } },
{ "type": "Feature", "properties": { "fid": 165 }, "geometry": { "type": "Polygon", "coordinates": [ [ [ 2.289585633096636, 48.827300555673403 ], [ 2.289603655110077, 48.827308374588867 ], [ 2.289620529333324, 48.827302208938569 ], [ 2.289609640118718, 48.827288809165033 ], [ 2.289586041693638, 48.827288427988385 ], [ 2.289585633096636, 48.827300555673403 ] ] ] } },
{ "type": "Feature", "properties": { "fid": 166 }, "geometry": { "type": "Polygon", "coordinates": [ [ [ 2.289620772649973, 48.827302210383884 ], [ 2.289637518643935, 48.827296525960712 ], [ 2.289638196813192, 48.827282471911921 ], [ 2.289621620473931, 48.827275705903197 ], [ 2.289609641213253, 48.827288728839669 ], [ 2.289620772649973, 48.827302210383884 ] ] ] } },
{ "type": "Feature", "properties": { "fid": 167 }, "geometry": { "type": "Polygon", "coordinates": [ [ [ 2.289586162257358, 48.827288509036443 ], [ 2.289609760682476, 48.827288890213076 ], [ 2.28962174322671, 48.827275626300484 ], [ 2.289605893557618, 48.827269105601587 ], [ 2.28958670236354, 48.827275659145691 ], [ 2.289586162257358, 48.827288509036443 ] ] ] } },
{ "type": "Feature", "properties": { "fid": 168 }, "geometry": { "type": "Polygon", "coordinates": [ [ [ 2.289513490613262, 48.827255422412236 ], [ 2.289532461632088, 48.827256097440298 ], [ 2.289532919500478, 48.827240355113304 ], [ 2.28951405029276, 48.827232209825858 ], [ 2.289502831615919, 48.827242987978394 ], [ 2.289513490613262, 48.827255422412236 ] ] ] } },
{ "type": "Feature", "properties": { "fid": 170 }, "geometry": { "type": "Polygon", "coordinates": [ [ [ 2.2895139286346, 48.827232209103101 ], [ 2.2895327978423, 48.827240354390554 ], [ 2.289553702096036, 48.827233088044792 ], [ 2.28954436162971, 48.827222107421115 ], [ 2.289523193114005, 48.827221981662881 ], [ 2.2895139286346, 48.827232209103101 ] ] ] } },
{ "type": "Feature", "properties": { "fid": 171 }, "geometry": { "type": "Polygon", "coordinates": [ [ [ 2.289573085624997, 48.827257061760157 ], [ 2.289594861351604, 48.827257271448346 ], [ 2.289604130197756, 48.827246722700615 ], [ 2.289584527743837, 48.827238814064394 ], [ 2.289564110124873, 48.82724608330637 ], [ 2.289573085624997, 48.827257061760157 ] ] ] } },
{ "type": "Feature", "properties": { "fid": 173 }, "geometry": { "type": "Polygon", "coordinates": [ [ [ 2.289584769965616, 48.827238895835137 ], [ 2.289604372419605, 48.827246804471351 ], [ 2.289614492869165, 48.827236260781433 ], [ 2.289603836040736, 48.827223665705638 ], [ 2.289584989974641, 48.827222750435475 ], [ 2.289584769965616, 48.827238895835137 ] ] ] } },
{ "type": "Feature", "properties": { "fid": 174 }, "geometry": { "type": "Polygon", "coordinates": [ [ [ 2.289553702369691, 48.827233067963476 ], [ 2.289562737052565, 48.827244167267601 ], [ 2.289551134799956, 48.827256308787661 ], [ 2.289532462453081, 48.8272560371963 ], [ 2.289532859492379, 48.827240294507938 ], [ 2.289553702369691, 48.827233067963476 ] ] ] } },
{ "type": "Feature", "properties": { "fid": 175 }, "geometry": { "type": "Polygon", "coordinates": [ [ [ 2.289564232056717, 48.827246063947776 ], [ 2.289555197920504, 48.827234924481111 ], [ 2.28956558084952, 48.827222976546679 ], [ 2.289585111906422, 48.827222731076844 ], [ 2.289584710504744, 48.827238795067103 ], [ 2.289564232056717, 48.827246063947776 ] ] ] } },
{ "type": "Feature", "properties": { "fid": 176 }, "geometry": { "type": "Polygon", "coordinates": [ [ [ 2.287582566641617, 48.827352684532002 ], [ 2.287601664817395, 48.827352958964291 ], [ 2.28760163663613, 48.827337213747199 ], [ 2.28758300552352, 48.827329471231963 ], [ 2.287572035231687, 48.827339849025165 ], [ 2.287582566641617, 48.827352684532002 ] ] ] } },
{ "type": "Feature", "properties": { "fid": 177 }, "geometry": { "type": "Polygon", "coordinates": [ [ [ 2.28760178647581, 48.827352959689016 ], [ 2.287620764090976, 48.827353153068181 ], [ 2.287631149133229, 48.82734108481494 ], [ 2.287622779026587, 48.82733035081575 ], [ 2.287601759392138, 48.827337134146575 ], [ 2.28760178647581, 48.827352959689016 ] ] ] } },
{ "type": "Feature", "properties": { "fid": 178 }, "geometry": { "type": "Polygon", "coordinates": [ [ [ 2.287601760489768, 48.827337053821232 ], [ 2.287622780124185, 48.827330270490386 ], [ 2.28761332277925, 48.827318967690779 ], [ 2.287592640862222, 48.827318844489639 ], [ 2.28758300552352, 48.827329471231963 ], [ 2.287601760489768, 48.827337053821232 ] ] ] } },
{ "type": "Feature", "properties": { "fid": 179 }, "geometry": { "type": "Polygon", "coordinates": [ [ [ 2.287631271889201, 48.827341005214286 ], [ 2.287652924887113, 48.82734129485673 ], [ 2.287663040261994, 48.827331152959573 ], [ 2.287643079681145, 48.827322759879678 ], [ 2.28762265956342, 48.827330189440367 ], [ 2.287631271889201, 48.827341005214286 ] ] ] } },
{ "type": "Feature", "properties": { "fid": 180 }, "geometry": { "type": "Polygon", "coordinates": [ [ [ 2.287663041359528, 48.827331072634237 ], [ 2.287672800535594, 48.827320285959438 ], [ 2.28766299027957, 48.827308097410878 ], [ 2.287643412072053, 48.827307338137601 ], [ 2.287643200241924, 48.827322840929696 ], [ 2.287663041359528, 48.827331072634237 ] ] ] } },
{ "type": "Feature", "properties": { "fid": 181 }, "geometry": { "type": "Polygon", "coordinates": [ [ [ 2.287622905075338, 48.827330030239054 ], [ 2.287643202437056, 48.827322680279011 ], [ 2.287643778144544, 48.827307259986256 ], [ 2.287625284984046, 48.827307230160173 ], [ 2.287613202218526, 48.827318886640725 ], [ 2.287622905075338, 48.827330030239054 ] ] ] } },
{ "type": "Feature", "properties": { "fid": 182 }, "geometry": { "type": "Polygon", "coordinates": [ [ [ 2.287652924887113, 48.82734129485673 ], [ 2.287663695243947, 48.827354453107105 ], [ 2.287682556688995, 48.827354244125097 ], [ 2.287682767410044, 48.827338821658699 ], [ 2.287662798042798, 48.827331071184922 ], [ 2.287652924887113, 48.82734129485673 ] ] ] } },
{ "type": "Feature", "properties": { "fid": 183 }, "geometry": { "type": "Polygon", "coordinates": [ [ [ 2.287682801103338, 48.827354165249027 ], [ 2.287701409354078, 48.827354677742903 ], [ 2.28771191713382, 48.827342529881918 ], [ 2.287703179840269, 48.827331954365228 ], [ 2.287682769605054, 48.827338661008014 ], [ 2.287682801103338, 48.827354165249027 ] ] ] } },
{ "type": "Feature", "properties": { "fid": 184 }, "geometry": { "type": "Polygon", "coordinates": [ [ [ 2.287662919701162, 48.827331071909576 ], [ 2.287682649044176, 48.827338579958031 ], [ 2.287703058181902, 48.827331953640631 ], [ 2.287694568598551, 48.827321058271075 ], [ 2.287672800535594, 48.827320285959438 ], [ 2.287662919701162, 48.827331071909576 ] ] ] } },
{ "type": "Feature", "properties": { "fid": 185 }, "geometry": { "type": "Polygon", "coordinates": [ [ [ 2.287783751255748, 48.8273566944587 ], [ 2.287802700486783, 48.827350059430046 ], [ 2.287802629449311, 48.827337446901531 ], [ 2.287779155965885, 48.827336825116824 ], [ 2.287767171841434, 48.827350169169428 ], [ 2.287783751255748, 48.8273566944587 ] ] ] } },
{ "type": "Feature", "properties": { "fid": 186 }, "geometry": { "type": "Polygon", "coordinates": [ [ [ 2.287802506693609, 48.827337526502376 ], [ 2.287803406728381, 48.827325080420479 ], [ 2.287784895053782, 48.827317499311796 ], [ 2.287768508339274, 48.827323587275835 ], [ 2.287779278721621, 48.827336745516007 ], [ 2.287802506693609, 48.827337526502376 ] ] ] } },
{ "type": "Feature", "properties": { "fid": 187 }, "geometry": { "type": "Polygon", "coordinates": [ [ [ 2.28776717293881, 48.827350088844071 ], [ 2.287779158160598, 48.82733666446611 ], [ 2.287768631094995, 48.827323507675011 ], [ 2.287752127107928, 48.82732927361085 ], [ 2.287751445137436, 48.827343568624393 ], [ 2.28776717293881, 48.827350088844071 ] ] ] } },
{ "type": "Feature", "properties": { "fid": 188 }, "geometry": { "type": "Polygon", "coordinates": [ [ [ 2.287768752753343, 48.827323508399573 ], [ 2.287784895053782, 48.827317499311796 ], [ 2.287786069134691, 48.827302805569069 ], [ 2.287769601519175, 48.827297003932514 ], [ 2.287757378474356, 48.827310025234127 ], [ 2.287768752753343, 48.827323508399573 ] ] ] } },
{ "type": "Feature", "properties": { "fid": 189 }, "geometry": { "type": "Polygon", "coordinates": [ [ [ 2.287768752753343, 48.827323508399573 ], [ 2.287752249863688, 48.827329194010062 ], [ 2.287733734902787, 48.827321853869528 ], [ 2.287733906101242, 48.827309323115166 ], [ 2.287757378474356, 48.827310025234127 ], [ 2.287768752753343, 48.827323508399573 ] ] ] } },
{ "type": "Feature", "properties": { "fid": 190 }, "geometry": { "type": "Polygon", "coordinates": [ [ [ 2.287734272173612, 48.827309244963551 ], [ 2.287757501230062, 48.827309945633331 ], [ 2.287769722080092, 48.827297084982398 ], [ 2.287753878123093, 48.827290162411444 ], [ 2.287734311836786, 48.827297436412621 ], [ 2.287734272173612, 48.827309244963551 ] ] ] } },
{ "type": "Feature", "properties": { "fid": 191 }, "geometry": { "type": "Polygon", "coordinates": [ [ [ 2.287787401085518, 48.827285461814093 ], [ 2.287805736512404, 48.827279224788676 ], [ 2.287805910985354, 48.827266453057661 ], [ 2.287782435339151, 48.827265991924278 ], [ 2.287770815109191, 48.827279418477026 ], [ 2.287787401085518, 48.827285461814093 ] ] ] } },
{ "type": "Feature", "properties": { "fid": 192 }, "geometry": { "type": "Polygon", "coordinates": [ [ [ 2.287770937864804, 48.827279338876217 ], [ 2.287754608377513, 48.82727233308173 ], [ 2.287755167590617, 48.827258117668045 ], [ 2.28777179211564, 48.827252432781329 ], [ 2.287782555900017, 48.827266072974155 ], [ 2.287770937864804, 48.827279338876217 ] ] ] } },
{ "type": "Feature", "properties": { "fid": 193 }, "geometry": { "type": "Polygon", "coordinates": [ [ [ 2.287782558094717, 48.827265912323448 ], [ 2.287805910985354, 48.827266453057661 ], [ 2.287806684970649, 48.827254327551884 ], [ 2.287788175515376, 48.827246585792501 ], [ 2.287771791018273, 48.827252513106679 ], [ 2.287782558094717, 48.827265912323448 ] ] ] } },
{ "type": "Feature", "properties": { "fid": 194 }, "geometry": { "type": "Polygon", "coordinates": [ [ [ 2.287755290346206, 48.827258038067242 ], [ 2.287737135995003, 48.827251021401864 ], [ 2.287737066070946, 48.827238328546834 ], [ 2.287760787215357, 48.827238630487543 ], [ 2.287771913773822, 48.827252433505862 ], [ 2.287755290346206, 48.827258038067242 ] ] ] } },
{ "type": "Feature", "properties": { "fid": 195 }, "geometry": { "type": "Polygon", "coordinates": [ [ [ 2.287772037626736, 48.82725227357971 ], [ 2.287788297173547, 48.827246586517035 ], [ 2.287789343009733, 48.827232374000964 ], [ 2.287772761439526, 48.827226009362462 ], [ 2.28776078831274, 48.8272385501622 ], [ 2.287772037626736, 48.82725227357971 ] ] ] } },
{ "type": "Feature", "properties": { "fid": 196 }, "geometry": { "type": "Polygon", "coordinates": [ [ [ 2.287737188826515, 48.82723824894606 ], [ 2.28776090997089, 48.827238550886747 ], [ 2.28777276253689, 48.827225929037105 ], [ 2.287757523599471, 48.827219251064967 ], [ 2.287738076803574, 48.827226686442465 ], [ 2.287737188826515, 48.82723824894606 ] ] ] } },
{ "type": "Feature", "properties": { "fid": 197 }, "geometry": { "type": "Polygon", "coordinates": [ [ [ 2.287789465765209, 48.82723229440014 ], [ 2.287808051073249, 48.827225576870987 ], [ 2.287808337327762, 48.827213528792079 ], [ 2.287785472190515, 48.827212910631062 ], [ 2.287772761439526, 48.827226009362462 ], [ 2.287789465765209, 48.82723229440014 ] ] ] } },
{ "type": "Feature", "properties": { "fid": 198 }, "geometry": { "type": "Polygon", "coordinates": [ [ [ 2.287808337327762, 48.827213528792079 ], [ 2.287808998432107, 48.827200759958338 ], [ 2.287790853969641, 48.827193020372526 ], [ 2.287774221784114, 48.82719926753969 ], [ 2.287785472190515, 48.827212910631062 ], [ 2.287808337327762, 48.827213528792079 ] ] ] } },
{ "type": "Feature", "properties": { "fid": 199 }, "geometry": { "type": "Polygon", "coordinates": [ [ [ 2.287772763634254, 48.827225848711755 ], [ 2.287785472190515, 48.827212910631062 ], [ 2.287774222881475, 48.827199187214326 ], [ 2.287758693296342, 48.827204878622645 ], [ 2.287757645257576, 48.827219251789515 ], [ 2.287772763634254, 48.827225848711755 ] ] ] } },
{ "type": "Feature", "properties": { "fid": 200 }, "geometry": { "type": "Polygon", "coordinates": [ [ [ 2.287696589312705, 48.827280020713033 ], [ 2.287706224619117, 48.827269393961096 ], [ 2.287686384615665, 48.827261081937948 ], [ 2.287665715724182, 48.827268911683881 ], [ 2.287674816876786, 48.827279569703151 ], [ 2.287696589312705, 48.827280020713033 ] ] ] } },
{ "type": "Feature", "properties": { "fid": 201 }, "geometry": { "type": "Polygon", "coordinates": [ [ [ 2.287706348472272, 48.827269234035008 ], [ 2.287716588773328, 48.827258851881233 ], [ 2.287706292983424, 48.827246580111819 ], [ 2.287686835359045, 48.827245901895559 ], [ 2.287686384615665, 48.827261081937948 ], [ 2.287706348472272, 48.827269234035008 ] ] ] } },
{ "type": "Feature", "properties": { "fid": 202 }, "geometry": { "type": "Polygon", "coordinates": [ [ [ 2.287666082893899, 48.827268753207122 ], [ 2.287686385713163, 48.827261001612577 ], [ 2.287686712603382, 48.827245981496297 ], [ 2.287668101099007, 48.82724570997614 ], [ 2.28765734562201, 48.82725817768641 ], [ 2.287666082893899, 48.827268753207122 ] ] ] } },
{ "type": "Feature", "properties": { "fid": 203 }, "geometry": { "type": "Polygon", "coordinates": [ [ [ 2.287674817974302, 48.827279489377808 ], [ 2.287663335834906, 48.827291711764339 ], [ 2.287644478802656, 48.827291599441921 ], [ 2.287645182753031, 48.827275697921309 ], [ 2.287665960138151, 48.827268832807832 ], [ 2.287674817974302, 48.827279489377808 ] ] ] } },
{ "type": "Feature", "properties": { "fid": 204 }, "geometry": { "type": "Polygon", "coordinates": [ [ [ 2.287645305508827, 48.827275618320627 ], [ 2.287666203454591, 48.827268834257119 ], [ 2.287657468377747, 48.827258098085707 ], [ 2.287635576488281, 48.827257485693309 ], [ 2.287625092854928, 48.82726786639077 ], [ 2.287645305508827, 48.827275618320627 ] ] ] } },
{ "type": "Feature", "properties": { "fid": 205 }, "geometry": { "type": "Polygon", "coordinates": [ [ [ 2.287645427167062, 48.827275619045302 ], [ 2.287644722119201, 48.827291600891257 ], [ 2.287625503404993, 48.8272912454158 ], [ 2.287616074604321, 48.82727785415689 ], [ 2.287625215610737, 48.827267786790124 ], [ 2.287645427167062, 48.827275619045302 ] ] ] } },
{ "type": "Feature", "properties": { "fid": 206 }, "geometry": { "type": "Polygon", "coordinates": [ [ [ 2.287625215610737, 48.827267786790124 ], [ 2.287635577585857, 48.827257405367966 ], [ 2.287625163449918, 48.8272448918908 ], [ 2.287606313020413, 48.827244297610243 ], [ 2.287606218447219, 48.827260122429273 ], [ 2.287625215610737, 48.827267786790124 ] ] ] } },
{ "type": "Feature", "properties": { "fid": 207 }, "geometry": { "type": "Polygon", "coordinates": [ [ [ 2.287625458927169, 48.827267788239496 ], [ 2.287615956238901, 48.827277612456136 ], [ 2.287594173925922, 48.827277884359717 ], [ 2.287585073887753, 48.827267146008943 ], [ 2.287606097886643, 48.827260041379212 ], [ 2.287625458927169, 48.827267788239496 ] ] ] } },
{ "type": "Feature", "properties": { "fid": 208 }, "geometry": { "type": "Polygon", "coordinates": [ [ [ 2.287606098984265, 48.827259961053869 ], [ 2.287606435776194, 48.827244218009604 ], [ 2.287587336542575, 48.827244023903404 ], [ 2.287576349804574, 48.827255606578085 ], [ 2.287585073887753, 48.827267146008943 ], [ 2.287606098984265, 48.827259961053869 ] ] ] } },
{ "type": "Feature", "properties": { "fid": 209 }, "geometry": { "type": "Polygon", "coordinates": [ [ [ 2.287977962516274, 48.827399141498375 ], [ 2.288250429375447, 48.82740429800468 ], [ 2.28824066460048, 48.827584825926301 ], [ 2.288063559865103, 48.827581522449101 ], [ 2.288069212008691, 48.827488371132212 ], [ 2.287972367266554, 48.827488115900785 ], [ 2.287977962516274, 48.827399141498375 ] ] ] } },
{ "type": "Feature", "properties": { "fid": 210 }, "geometry": { "type": "Polygon", "coordinates": [ [ [ 2.288064129867045, 48.827575420620803 ], [ 2.288069703031289, 48.827488052727801 ], [ 2.287981131083708, 48.827487846751346 ], [ 2.287976539819028, 48.827574577832216 ], [ 2.288064129867045, 48.827575420620803 ] ] ] } },
{ "type": "Feature", "properties": { "fid": 211 }, "geometry": { "type": "Polygon", "coordinates": [ [ [ 2.28906000391917, 48.827601106609933 ], [ 2.289237577898451, 48.827605696709135 ], [ 2.289240799151237, 48.827512209576483 ], [ 2.289337608905634, 48.827515034191926 ], [ 2.289340260122609, 48.827427648884246 ], [ 2.28906875315795, 48.827423464550975 ], [ 2.28906000391917, 48.827601106609933 ] ] ] } },
{ "type": "Feature", "properties": { "fid": 212 }, "geometry": { "type": "Polygon", "coordinates": [ [ [ 2.28923813462188, 48.827600558779466 ], [ 2.289325720354012, 48.827601721945392 ], [ 2.289329831501108, 48.827514345320218 ], [ 2.289241772421712, 48.827512215360848 ], [ 2.28923813462188, 48.827600558779466 ] ] ] } },
{ "type": "Feature", "properties": { "fid": 213 }, "geometry": { "type": "Polygon", "coordinates": [ [ [ 2.288478399912974, 48.82810229233155 ], [ 2.288773247205032, 48.828108223426959 ], [ 2.288777188368012, 48.828033377608136 ], [ 2.288480355472312, 48.828030326651898 ], [ 2.288478399912974, 48.82810229233155 ] ] ] } },
{ "type": "Feature", "properties": { "fid": 214 }, "geometry": { "type": "Polygon", "coordinates": [ [ [ 2.288967940326587, 48.828035315184692 ], [ 2.289209283160488, 48.828038999123748 ], [ 2.289211654257618, 48.82797217714058 ], [ 2.288971780415589, 48.827967859283426 ], [ 2.288967940326587, 48.828035315184692 ] ] ] } },
{ "type": "Feature", "properties": { "fid": 215 }, "geometry": { "type": "Polygon", "coordinates": [ [ [ 2.288051740521452, 48.827948086648441 ], [ 2.288047096679699, 48.828038673310836 ], [ 2.288141991497294, 48.828039238196219 ], [ 2.288142276668388, 48.828018353617921 ], [ 2.288290697454249, 48.828019558306472 ], [ 2.28829112317068, 48.82795272475618 ], [ 2.288051740521452, 48.827948086648441 ] ] ] } },
{ "type": "Feature", "properties": { "fid": 216 }, "geometry": { "type": "Polygon", "coordinates": [ [ [ 2.289297233179325, 48.82801349430683 ], [ 2.289293657204014, 48.828133006798105 ], [ 2.289023111088022, 48.828129470750241 ], [ 2.289027783914512, 48.828036634948639 ], [ 2.289209283160489, 48.828038999123777 ], [ 2.2892106156552, 48.82801265820634 ], [ 2.289297233179325, 48.82801349430683 ] ] ] } },
{ "type": "Feature", "properties": { "fid": 217 }, "geometry": { "type": "Polygon", "coordinates": [ [ [ 2.287995060594617, 48.827038071122196 ], [ 2.288254868781084, 48.827043473592227 ], [ 2.288262660570545, 48.826864861806939 ], [ 2.288099175119476, 48.826862282075339 ], [ 2.288094211172831, 48.826976323837314 ], [ 2.28799785839994, 48.826975750221763 ], [ 2.287995060594617, 48.827038071122196 ] ] ] } },
{ "type": "Feature", "properties": { "fid": 218 }, "geometry": { "type": "Polygon", "coordinates": [ [ [ 2.289102400098043, 48.827061689127554 ], [ 2.289358332986899, 48.827065780852138 ], [ 2.28936211118438, 48.827002823101658 ], [ 2.289266749130455, 48.827000971085631 ], [ 2.289272692533805, 48.826886292458468 ], [ 2.289106791343578, 48.826882414437748 ], [ 2.289102400098043, 48.827061689127554 ] ] ] } }
]
}
