{
"type": "FeatureCollection",
"name": "72",
"crs": { "type": "name", "properties": { "name": "urn:ogc:def:crs:OGC:1.3:CRS84" } },
"features": [
{ "type": "Feature", "properties": { "fid": 1 }, "geometry": { "type": "Polygon", "coordinates": [ [ [ 2.288404322991912, 48.826816863538127 ], [ 2.288977443263621, 48.826828151334915 ], [ 2.288989478850176, 48.826552781968502 ], [ 2.288415870192142, 48.826541812891634 ], [ 2.288404324089189, 48.826816783147436 ], [ 2.288404322991912, 48.826816863538127 ] ] ] } },
{ "type": "Feature", "properties": { "fid": 2 }, "geometry": { "type": "Polygon", "coordinates": [ [ [ 2.288396416813633, 48.826985731061932 ], [ 2.288661319447706, 48.826990201332769 ], [ 2.288668006126022, 48.826857103309209 ], [ 2.288402116950909, 48.826853591945138 ], [ 2.288396416813633, 48.826985731061932 ] ] ] } },
{ "type": "Feature", "properties": { "fid": 3 }, "geometry": { "type": "Polygon", "coordinates": [ [ [ 2.288701904973643, 48.827014240309609 ], [ 2.288969229753299, 48.827019689070212 ], [ 2.288974770336155, 48.826863429823838 ], [ 2.288708411632226, 48.8268586299939 ], [ 2.288701904973643, 48.827014240309609 ] ] ] } },
{ "type": "Feature", "properties": { "fid": 4 }, "geometry": { "type": "Polygon", "coordinates": [ [ [ 2.288698908305171, 48.827091082219411 ], [ 2.288965750837165, 48.827096206527948 ], [ 2.288969234138929, 48.827019367507447 ], [ 2.288701417947417, 48.827014237412882 ], [ 2.288698908305171, 48.827091082219411 ] ] ] } },
{ "type": "Feature", "properties": { "fid": 5 }, "geometry": { "type": "Polygon", "coordinates": [ [ [ 2.288386982477234, 48.827177341876059 ], [ 2.288653834195245, 48.827181823754749 ], [ 2.288660459481621, 48.827017531270499 ], [ 2.288395069682559, 48.827013058099894 ], [ 2.288386982477234, 48.827177341876059 ] ] ] } },
{ "type": "Feature", "properties": { "fid": 6 }, "geometry": { "type": "Polygon", "coordinates": [ [ [ 2.288688716015107, 48.827302627028708 ], [ 2.288955555243108, 48.827308072921689 ], [ 2.288963434332805, 48.827123206215553 ], [ 2.288697078690042, 48.827118084798734 ], [ 2.288688716015107, 48.827302627028708 ] ] ] } },
{ "type": "Feature", "properties": { "fid": 7 }, "geometry": { "type": "Polygon", "coordinates": [ [ [ 2.288379206678424, 48.827354491031734 ], [ 2.288645563497744, 48.827359613155423 ], [ 2.288651508750337, 48.827209466559665 ], [ 2.288386131142734, 48.827204028681876 ], [ 2.288379206678424, 48.827354491031734 ] ] ] } },
{ "type": "Feature", "properties": { "fid": 8 }, "geometry": { "type": "Polygon", "coordinates": [ [ [ 2.288954212782529, 48.827335078395414 ], [ 2.288688351862182, 48.827329316730498 ], [ 2.28867540844846, 48.827599695862176 ], [ 2.288941766549628, 48.82760481732506 ], [ 2.288954699811765, 48.827335081291118 ], [ 2.288954212782529, 48.827335078395414 ] ] ] } },
{ "type": "Feature", "properties": { "fid": 9 }, "geometry": { "type": "Polygon", "coordinates": [ [ [ 2.288368419398827, 48.827593465289489 ], [ 2.288634329945974, 48.827598783794983 ], [ 2.288643900249731, 48.827387558821407 ], [ 2.288378509845443, 48.827381903743301 ], [ 2.288368419398827, 48.827593465289489 ] ] ] } },
{ "type": "Feature", "properties": { "fid": 10 }, "geometry": { "type": "Polygon", "coordinates": [ [ [ 2.288670182699411, 48.82772366014791 ], [ 2.288936617640386, 48.82772830173279 ], [ 2.288940380391646, 48.827641025974479 ], [ 2.288673440732273, 48.827635702030001 ], [ 2.288670182699411, 48.82772366014791 ] ] ] } },
{ "type": "Feature", "properties": { "fid": 11 }, "geometry": { "type": "Polygon", "coordinates": [ [ [ 2.288663013119587, 48.827872058283113 ], [ 2.288837893259351, 48.827875136433953 ], [ 2.288932845611182, 48.827816256791898 ], [ 2.288936617640389, 48.82772830173279 ], [ 2.288670187333792, 48.827723320494037 ], [ 2.288663013119587, 48.827872058283113 ] ] ] } },
{ "type": "Feature", "properties": { "fid": 12 }, "geometry": { "type": "Polygon", "coordinates": [ [ [ 2.288447646518592, 48.827867784316211 ], [ 2.288621518536941, 48.827871261881789 ], [ 2.288632763386873, 48.827634747027695 ], [ 2.288367023087577, 48.82762950125138 ], [ 2.288359066354443, 48.827805770428895 ], [ 2.288447646518592, 48.827867784316211 ] ] ] } },
{ "type": "Feature", "properties": { "fid": 13 }, "geometry": { "type": "Polygon", "coordinates": [ [ [ 2.287944775859931, 48.827839545024503 ], [ 2.288247507190921, 48.827845826284616 ], [ 2.288253669505333, 48.82771067338976 ], [ 2.287950938958394, 48.827704392144469 ], [ 2.287944775859931, 48.827839545024503 ] ] ] } },
{ "type": "Feature", "properties": { "fid": 14 }, "geometry": { "type": "Polygon", "coordinates": [ [ [ 2.28810853012336, 48.827906485900343 ], [ 2.288244789953438, 48.827909332917265 ], [ 2.288245895818634, 48.827873506122494 ], [ 2.288110258327692, 48.82787025561327 ], [ 2.28810853012336, 48.827906485900343 ] ] ] } },
{ "type": "Feature", "properties": { "fid": 15 }, "geometry": { "type": "Polygon", "coordinates": [ [ [ 2.288026526167901, 48.827904877938217 ], [ 2.288108531513345, 48.827906384109255 ], [ 2.288110870843413, 48.827870564657466 ], [ 2.288027329400736, 48.827868642145276 ], [ 2.288026526167901, 48.827904877938217 ] ] ] } },
{ "type": "Feature", "properties": { "fid": 16 }, "geometry": { "type": "Polygon", "coordinates": [ [ [ 2.287876821627456, 48.827892992271074 ], [ 2.287992433552301, 48.827894902229296 ], [ 2.287993728375792, 48.827867831306179 ], [ 2.287878122072652, 48.827865514184786 ], [ 2.287876821627456, 48.827892992271074 ] ] ] } },
{ "type": "Feature", "properties": { "fid": 17 }, "geometry": { "type": "Polygon", "coordinates": [ [ [ 2.2877374756495, 48.827890330052952 ], [ 2.287842912246212, 48.827892179553579 ], [ 2.287844209928267, 48.827864905049829 ], [ 2.287738462262496, 48.827863257296066 ], [ 2.2877374756495, 48.827890330052952 ] ] ] } },
{ "type": "Feature", "properties": { "fid": 18 }, "geometry": { "type": "Polygon", "coordinates": [ [ [ 2.287474200880659, 48.827885096985263 ], [ 2.287640983786559, 48.82788833014078 ], [ 2.287643693413138, 48.827825434267226 ], [ 2.287567547651202, 48.827778763758275 ], [ 2.287479070117287, 48.827777015055396 ], [ 2.287474200880659, 48.827885096985263 ] ] ] } },
{ "type": "Feature", "properties": { "fid": 19 }, "geometry": { "type": "Polygon", "coordinates": [ [ [ 2.287739454437271, 48.827835777374155 ], [ 2.287909320628149, 48.827839028519669 ], [ 2.287915178257337, 48.827703670223244 ], [ 2.287744998602572, 48.827700824413697 ], [ 2.287739454437271, 48.827835777374155 ] ] ] } },
{ "type": "Feature", "properties": { "fid": 20 }, "geometry": { "type": "Polygon", "coordinates": [ [ [ 2.28767779719838, 48.827676603105154 ], [ 2.287916103599083, 48.827681076269187 ], [ 2.287919398978087, 48.827620423454206 ], [ 2.28768078451304, 48.827615948459922 ], [ 2.28767779719838, 48.827676603105154 ] ] ] } },
{ "type": "Feature", "properties": { "fid": 21 }, "geometry": { "type": "Polygon", "coordinates": [ [ [ 2.287558796793139, 48.827674469054593 ], [ 2.287643576837563, 48.827675992076593 ], [ 2.287646250287197, 48.827615742759995 ], [ 2.287561467558587, 48.827614423322018 ], [ 2.287558796793139, 48.827674469054593 ] ] ] } },
{ "type": "Feature", "properties": { "fid": 22 }, "geometry": { "type": "Polygon", "coordinates": [ [ [ 2.287483886468332, 48.827672801176902 ], [ 2.287524576435116, 48.827673857991975 ], [ 2.287525474123346, 48.827653299862504 ], [ 2.287484467483919, 48.827652851957275 ], [ 2.287483886468332, 48.827672801176902 ] ] ] } },
{ "type": "Feature", "properties": { "fid": 23 }, "geometry": { "type": "Polygon", "coordinates": [ [ [ 2.287484622350274, 48.827652801980243 ], [ 2.287525473427789, 48.827653350758055 ], [ 2.287526207206835, 48.827633504247459 ], [ 2.287485203365356, 48.827632852760246 ], [ 2.287484622350274, 48.827652801980243 ] ] ] } },
{ "type": "Feature", "properties": { "fid": 24 }, "geometry": { "type": "Polygon", "coordinates": [ [ [ 2.287485357536053, 48.827632853678793 ], [ 2.287526207206835, 48.827633504247459 ], [ 2.287526949331978, 48.827613046989846 ], [ 2.287486105241972, 48.827611989256994 ], [ 2.287485357536053, 48.827632853678793 ] ] ] } },
{ "type": "Feature", "properties": { "fid": 25 }, "geometry": { "type": "Polygon", "coordinates": [ [ [ 2.287488447768836, 48.827575966225744 ], [ 2.287529143224551, 48.827576615874925 ], [ 2.287533048346573, 48.827471378553703 ], [ 2.287492352972956, 48.827470728905823 ], [ 2.287488447768836, 48.827575966225744 ] ] ] } },
{ "type": "Feature", "properties": { "fid": 26 }, "geometry": { "type": "Polygon", "coordinates": [ [ [ 2.287563046831502, 48.827577835846078 ], [ 2.28764814062348, 48.827578953537397 ], [ 2.287650964276226, 48.827507710774398 ], [ 2.287565865036349, 48.827507000249511 ], [ 2.287563046831502, 48.827577835846078 ] ] ] } },
{ "type": "Feature", "properties": { "fid": 27 }, "geometry": { "type": "Polygon", "coordinates": [ [ [ 2.287682358139048, 48.827579768146904 ], [ 2.287832492441962, 48.827582698278711 ], [ 2.287835313061984, 48.827511659093837 ], [ 2.287684878967602, 48.82750811638212 ], [ 2.287682358139048, 48.827579768146904 ] ] ] } },
{ "type": "Feature", "properties": { "fid": 28 }, "geometry": { "type": "Polygon", "coordinates": [ [ [ 2.287866712743757, 48.827583309253242 ], [ 2.28792066687819, 48.827584037720015 ], [ 2.287923490158803, 48.827512794950898 ], [ 2.287869536098059, 48.827512066485362 ], [ 2.287866712743757, 48.827583309253242 ] ] ] } },
{ "type": "Feature", "properties": { "fid": 29 }, "geometry": { "type": "Polygon", "coordinates": [ [ [ 2.287686121090981, 48.827484913515711 ], [ 2.287925046077978, 48.827489186753546 ], [ 2.287929892097917, 48.827382733425367 ], [ 2.287691287064532, 48.82737764770426 ], [ 2.287686121090981, 48.827484913515711 ] ] ] } },
{ "type": "Feature", "properties": { "fid": 30 }, "geometry": { "type": "Polygon", "coordinates": [ [ [ 2.287567115558831, 48.827483186637579 ], [ 2.287652517536935, 48.82748430616271 ], [ 2.287657375239674, 48.827377038516047 ], [ 2.287572284559088, 48.827375717248835 ], [ 2.287567115558831, 48.827483186637579 ] ] ] } },
{ "type": "Feature", "properties": { "fid": 31 }, "geometry": { "type": "Polygon", "coordinates": [ [ [ 2.287493836745301, 48.827452413851681 ], [ 2.287534226546486, 48.827452858079909 ], [ 2.287536011259339, 48.827389956673557 ], [ 2.287496540962092, 48.827389925121551 ], [ 2.287493836745301, 48.827452413851681 ] ] ] } },
{ "type": "Feature", "properties": { "fid": 32 }, "geometry": { "type": "Polygon", "coordinates": [ [ [ 2.287497416397924, 48.827370995645197 ], [ 2.287538114475917, 48.827371441709168 ], [ 2.287542202707386, 48.827275367408134 ], [ 2.287501815825934, 48.827274719600247 ], [ 2.287497416397924, 48.827370995645197 ] ] ] } },
{ "type": "Feature", "properties": { "fid": 33 }, "geometry": { "type": "Polygon", "coordinates": [ [ [ 2.287573904619689, 48.827347426660964 ], [ 2.28765899803583, 48.827348544344773 ], [ 2.287665084355736, 48.827196492252966 ], [ 2.287580613429235, 48.827194971082356 ], [ 2.287573904619689, 48.827347426660964 ] ] ] } },
{ "type": "Feature", "properties": { "fid": 34 }, "geometry": { "type": "Polygon", "coordinates": [ [ [ 2.287503030202301, 48.827253552553785 ], [ 2.287544033745687, 48.8272542040351 ], [ 2.28754861669697, 48.82714449154625 ], [ 2.287507302119039, 48.827144041811735 ], [ 2.287503030202301, 48.827253552553785 ] ] ] } },
{ "type": "Feature", "properties": { "fid": 35 }, "geometry": { "type": "Polygon", "coordinates": [ [ [ 2.287581852809573, 48.827171971792851 ], [ 2.2876672542782, 48.827173091307777 ], [ 2.287671184125847, 48.827066021703331 ], [ 2.287585468930562, 48.827065307518922 ], [ 2.287581852809573, 48.827171971792851 ] ] ] } },
{ "type": "Feature", "properties": { "fid": 36 }, "geometry": { "type": "Polygon", "coordinates": [ [ [ 2.287508788659096, 48.827125523169769 ], [ 2.287549178207162, 48.827125967393059 ], [ 2.28755324414232, 48.827031521729239 ], [ 2.287512232427219, 48.827031480997924 ], [ 2.287508788659096, 48.827125523169769 ] ] ] } },
{ "type": "Feature", "properties": { "fid": 37 }, "geometry": { "type": "Polygon", "coordinates": [ [ [ 2.287588013987989, 48.827037022433451 ], [ 2.287673112461039, 48.827037732942877 ], [ 2.287677281083834, 48.826935754720573 ], [ 2.287591577230353, 48.826934226211087 ], [ 2.287588013987989, 48.827037022433451 ] ] ] } },
{ "type": "Feature", "properties": { "fid": 38 }, "geometry": { "type": "Polygon", "coordinates": [ [ [ 2.287514032864519, 48.827012557026393 ], [ 2.287555039000583, 48.827013004921746 ], [ 2.287557118100305, 48.826951123239006 ], [ 2.287517037024984, 48.826950680855312 ], [ 2.287514032864519, 48.827012557026393 ] ] ] } },
{ "type": "Feature", "properties": { "fid": 39 }, "geometry": { "type": "Polygon", "coordinates": [ [ [ 2.28751759854431, 48.826932156699101 ], [ 2.287558299061968, 48.826932399174034 ], [ 2.287560856666551, 48.826835501320915 ], [ 2.287522009026804, 48.826835066286293 ], [ 2.28751759854431, 48.826932156699101 ] ] ] } },
{ "type": "Feature", "properties": { "fid": 40 }, "geometry": { "type": "Polygon", "coordinates": [ [ [ 2.287593130500636, 48.826910821588228 ], [ 2.287678525978545, 48.826912348260073 ], [ 2.287681388495701, 48.82683825530092 ], [ 2.287596301475761, 48.826836730467789 ], [ 2.287593130500636, 48.826910821588228 ] ] ] } },
{ "type": "Feature", "properties": { "fid": 41 }, "geometry": { "type": "Polygon", "coordinates": [ [ [ 2.287712737494172, 48.826913570026079 ], [ 2.28786288100383, 48.826915685792073 ], [ 2.287866046034196, 48.826842001829554 ], [ 2.287715599962775, 48.826839477066187 ], [ 2.287712737494172, 48.826913570026079 ] ] ] } },
{ "type": "Feature", "properties": { "fid": 42 }, "geometry": { "type": "Polygon", "coordinates": [ [ [ 2.287896784188791, 48.826916905669336 ], [ 2.2879516570845, 48.826918046795292 ], [ 2.287954216438078, 48.826843544829359 ], [ 2.287900263069496, 48.826842816377244 ], [ 2.287896784188791, 48.826916905669336 ] ] ] } },
{ "type": "Feature", "properties": { "fid": 43 }, "geometry": { "type": "Polygon", "coordinates": [ [ [ 2.28770700737647, 48.827039563620779 ], [ 2.287945627547419, 48.827043427818033 ], [ 2.287950106755481, 48.826941247840274 ], [ 2.287711189840426, 48.826936567485738 ], [ 2.28770700737647, 48.827039563620779 ] ] ] } },
{ "type": "Feature", "properties": { "fid": 44 }, "geometry": { "type": "Polygon", "coordinates": [ [ [ 2.287698827295168, 48.827221937748334 ], [ 2.287937457827352, 48.827226271284168 ], [ 2.287943981101197, 48.827071626528486 ], [ 2.287705360118264, 48.827066645845974 ], [ 2.287698827295168, 48.827221937748334 ] ] ] } },
{ "type": "Feature", "properties": { "fid": 45 }, "geometry": { "type": "Polygon", "coordinates": [ [ [ 2.287692746897675, 48.827350196554612 ], [ 2.28793206338661, 48.827354677474723 ], [ 2.28793607184214, 48.827249447934655 ], [ 2.287697008294787, 48.827245308052966 ], [ 2.287692746897675, 48.827350196554612 ] ] ] } },
{ "type": "Feature", "properties": { "fid": 46 }, "geometry": { "type": "Polygon", "coordinates": [ [ [ 2.287966771617457, 48.827354884129235 ], [ 2.288178059830138, 48.827359537203002 ], [ 2.288271926511269, 48.827301697212505 ], [ 2.288279302429285, 48.827138089031735 ], [ 2.28818963403189, 48.827076779989973 ], [ 2.287979366077132, 48.827072812057487 ], [ 2.287966771617457, 48.827354884129235 ] ] ] } },
{ "type": "Feature", "properties": { "fid": 47 }, "geometry": { "type": "Polygon", "coordinates": [ [ [ 2.28753134063387, 48.826630540814662 ], [ 2.287766802026824, 48.826634659593495 ], [ 2.287771324948415, 48.826529433053764 ], [ 2.287536382857692, 48.826524977847058 ], [ 2.28753134063387, 48.826630540814662 ] ] ] } },
{ "type": "Feature", "properties": { "fid": 48 }, "geometry": { "type": "Polygon", "coordinates": [ [ [ 2.287802362633768, 48.826608281079778 ], [ 2.288033903372584, 48.826612726886026 ], [ 2.28803729980751, 48.826534097374477 ], [ 2.287805762410141, 48.826529432512267 ], [ 2.287802365626322, 48.826608062017563 ], [ 2.287802362633768, 48.826608281079778 ] ] ] } },
{ "type": "Feature", "properties": { "fid": 49 }, "geometry": { "type": "Polygon", "coordinates": [ [ [ 2.287800993222934, 48.826635657928122 ], [ 2.288033200635727, 48.826639888625195 ], [ 2.28803423515287, 48.826612728861264 ], [ 2.287803026194267, 48.826608285031526 ], [ 2.287800993222934, 48.826635657928122 ] ] ] } },
{ "type": "Feature", "properties": { "fid": 50 }, "geometry": { "type": "Polygon", "coordinates": [ [ [ 2.288068064776581, 48.826613806578784 ], [ 2.288302926356373, 48.826618052553265 ], [ 2.288305990606084, 48.826539421059984 ], [ 2.288072459490859, 48.82653496392949 ], [ 2.288068064776581, 48.826613806578784 ] ] ] } },
{ "type": "Feature", "properties": { "fid": 51 }, "geometry": { "type": "Polygon", "coordinates": [ [ [ 2.288068393565439, 48.826614027616145 ], [ 2.288302594576041, 48.826618050578794 ], [ 2.288301554217673, 48.826645648469345 ], [ 2.288067027285594, 48.826641185405194 ], [ 2.288068393565439, 48.826614027616145 ] ] ] } },
{ "type": "Feature", "properties": { "fid": 52 }, "geometry": { "type": "Polygon", "coordinates": [ [ [ 2.287995869785682, 48.826725107577722 ], [ 2.288298068459655, 48.826730849846548 ], [ 2.288300250858251, 48.826668205953858 ], [ 2.2879973859942, 48.826662678801753 ], [ 2.287995869785682, 48.826725107577722 ] ] ] } },
{ "type": "Feature", "properties": { "fid": 53 }, "geometry": { "type": "Polygon", "coordinates": [ [ [ 2.287851978973412, 48.826805904666493 ], [ 2.287956612946276, 48.826807315903082 ], [ 2.287962977487545, 48.82666180052928 ], [ 2.287857949507472, 48.826660124218506 ], [ 2.287851978973412, 48.826805904666493 ] ] ] } },
{ "type": "Feature", "properties": { "fid": 54 }, "geometry": { "type": "Polygon", "coordinates": [ [ [ 2.287718320665746, 48.826802744082421 ], [ 2.287816975531659, 48.826804908023817 ], [ 2.287822150388267, 48.826659122838457 ], [ 2.287723890096371, 48.826657223981051 ], [ 2.287718320665746, 48.826802744082421 ] ] ] } },
{ "type": "Feature", "properties": { "fid": 55 }, "geometry": { "type": "Polygon", "coordinates": [ [ [ 2.287643134060819, 48.826801245317775 ], [ 2.287684113006051, 48.826801752140547 ], [ 2.28768928464447, 48.826656229670704 ], [ 2.287649105178312, 48.8266554648796 ], [ 2.287643134060819, 48.826801245317775 ] ] ] } },
{ "type": "Feature", "properties": { "fid": 56 }, "geometry": { "type": "Polygon", "coordinates": [ [ [ 2.287523792588855, 48.826798695259079 ], [ 2.287643134060819, 48.826801245317775 ], [ 2.287649105178312, 48.8266554648796 ], [ 2.28752975685936, 48.826653440246893 ], [ 2.287523792588855, 48.826798695259079 ] ] ] } },
{ "type": "Feature", "properties": { "fid": 57 }, "geometry": { "type": "Polygon", "coordinates": [ [ [ 2.287996867614646, 48.827035561180573 ], [ 2.288270821674804, 48.827037523218877 ], [ 2.288277264389861, 48.82685964553076 ], [ 2.28810214321603, 48.826859265821994 ], [ 2.288099918289198, 48.826948707570438 ], [ 2.287999070099862, 48.826947775880193 ], [ 2.287996867614646, 48.827035561180573 ] ] ] } },
{ "type": "Feature", "properties": { "fid": 58 }, "geometry": { "type": "Polygon", "coordinates": [ [ [ 2.288008101686017, 48.82694782965104 ], [ 2.288100420043998, 48.826948710557303 ], [ 2.288102097978429, 48.82686257870072 ], [ 2.288012279494064, 48.82686237530762 ], [ 2.288008101686017, 48.82694782965104 ] ] ] } },
{ "type": "Feature", "properties": { "fid": 59 }, "geometry": { "type": "Polygon", "coordinates": [ [ [ 2.287982433251004, 48.827397754118259 ], [ 2.288254105876137, 48.827400657297254 ], [ 2.288245809651948, 48.82758032810623 ], [ 2.288069560031022, 48.827578636013229 ], [ 2.288072811477681, 48.827483168975832 ], [ 2.287980282773182, 48.827483904128663 ], [ 2.287982433251004, 48.827397754118259 ] ] ] } },
{ "type": "Feature", "properties": { "fid": 60 }, "geometry": { "type": "Polygon", "coordinates": [ [ [ 2.288069639051986, 48.827572849429735 ], [ 2.287981036135214, 48.827571357433271 ], [ 2.287983699859619, 48.827483281467138 ], [ 2.288072807087655, 48.827483490452714 ], [ 2.288069639051986, 48.827572849429735 ] ] ] } },
{ "type": "Feature", "properties": { "fid": 61 }, "geometry": { "type": "Polygon", "coordinates": [ [ [ 2.289037257782398, 48.827925025149462 ], [ 2.289138516475731, 48.827926913089122 ], [ 2.289139011809961, 48.827890586210188 ], [ 2.289037270666687, 48.827888373899498 ], [ 2.289037257782398, 48.827925025149462 ] ] ] } },
{ "type": "Feature", "properties": { "fid": 62 }, "geometry": { "type": "Polygon", "coordinates": [ [ [ 2.289173560482916, 48.827928085895394 ], [ 2.289251943418114, 48.827929194763428 ], [ 2.289252544275611, 48.827920839260244 ], [ 2.289299282764352, 48.827921438524676 ], [ 2.289300637850958, 48.827893475829192 ], [ 2.289174068942549, 48.827890794585912 ], [ 2.289173560482916, 48.827928085895394 ] ] ] } },
{ "type": "Feature", "properties": { "fid": 63 }, "geometry": { "type": "Polygon", "coordinates": [ [ [ 2.289333844248834, 48.827922286913669 ], [ 2.289446797429523, 48.82792360107937 ], [ 2.289447165482942, 48.827896597026857 ], [ 2.289334708029982, 48.827894642801212 ], [ 2.289333844248834, 48.827922286913669 ] ] ] } },
{ "type": "Feature", "properties": { "fid": 64 }, "geometry": { "type": "Polygon", "coordinates": [ [ [ 2.289040069069583, 48.827861705797154 ], [ 2.289408598708372, 48.827868075626242 ], [ 2.289414329912143, 48.827733399972495 ], [ 2.289043862380425, 48.827726375628352 ], [ 2.289040069069583, 48.827861705797154 ] ] ] } },
{ "type": "Feature", "properties": { "fid": 65 }, "geometry": { "type": "Polygon", "coordinates": [ [ [ 2.289442177587163, 48.827869561151445 ], [ 2.289482099369875, 48.827870119843048 ], [ 2.289488326049828, 48.827734804125051 ], [ 2.289447913085924, 48.827734564019394 ], [ 2.289442177587163, 48.827869561151445 ] ] ] } },
{ "type": "Feature", "properties": { "fid": 66 }, "geometry": { "type": "Polygon", "coordinates": [ [ [ 2.289449680504445, 48.8277120693173 ], [ 2.289490093450919, 48.827712309422367 ], [ 2.289491886558993, 48.827652199030858 ], [ 2.289450995519782, 48.827651313079699 ], [ 2.289449680504445, 48.8277120693173 ] ] ] } },
{ "type": "Feature", "properties": { "fid": 67 }, "geometry": { "type": "Polygon", "coordinates": [ [ [ 2.289480376345172, 48.827925086593766 ], [ 2.289807528316439, 48.827930566345366 ], [ 2.289819510583742, 48.827658646074426 ], [ 2.289492373461405, 48.827652201923598 ], [ 2.289480376345172, 48.827925086593766 ] ] ] } },
{ "type": "Feature", "properties": { "fid": 68 }, "geometry": { "type": "Polygon", "coordinates": [ [ [ 2.289391123542364, 48.827613984501006 ], [ 2.289447112896684, 48.827614638677396 ], [ 2.289449546306441, 48.827543279482036 ], [ 2.289394043930108, 48.827542628199865 ], [ 2.289391123542364, 48.827613984501006 ] ] ] } },
{ "type": "Feature", "properties": { "fid": 69 }, "geometry": { "type": "Polygon", "coordinates": [ [ [ 2.289480695994696, 48.827615802715208 ], [ 2.289559569749876, 48.827616592797824 ], [ 2.289561998624952, 48.827545555077215 ], [ 2.289483611878613, 48.827544767888931 ], [ 2.289480695994696, 48.827615802715208 ] ] ] } },
{ "type": "Feature", "properties": { "fid": 70 }, "geometry": { "type": "Polygon", "coordinates": [ [ [ 2.289395815747234, 48.827519812017805 ], [ 2.289563783511182, 48.827521774461921 ], [ 2.289567650542565, 48.82741666596273 ], [ 2.289399691880784, 48.827414060569936 ], [ 2.289395815747234, 48.827519812017805 ] ] ] } },
{ "type": "Feature", "properties": { "fid": 71 }, "geometry": { "type": "Polygon", "coordinates": [ [ [ 2.289401525036619, 48.827386743707677 ], [ 2.289569974891235, 48.827389030513409 ], [ 2.289571522572883, 48.827346922814471 ], [ 2.289402594718346, 48.827343990163776 ], [ 2.289401525036619, 48.827386743707677 ] ] ] } },
{ "type": "Feature", "properties": { "fid": 72 }, "geometry": { "type": "Polygon", "coordinates": [ [ [ 2.289404884700765, 48.827321486199708 ], [ 2.289572310993773, 48.827324181956534 ], [ 2.289582396940395, 48.827103956272381 ], [ 2.289414327320395, 48.827101256702399 ], [ 2.289404884700765, 48.827321486199708 ] ] ] } },
{ "type": "Feature", "properties": { "fid": 73 }, "geometry": { "type": "Polygon", "coordinates": [ [ [ 2.289151587520652, 48.827381218560788 ], [ 2.289360864816723, 48.827385013890563 ], [ 2.289373114960222, 48.827100586556696 ], [ 2.289165782501573, 48.827095952276892 ], [ 2.289071591619197, 48.82715450377269 ], [ 2.28906353961497, 48.827319882742358 ], [ 2.289151587520652, 48.827381218560788 ] ] ] } },
{ "type": "Feature", "properties": { "fid": 74 }, "geometry": { "type": "Polygon", "coordinates": [ [ [ 2.289065084743075, 48.827596384949274 ], [ 2.289240649358217, 48.827598958044696 ], [ 2.289243261098115, 48.827509342100377 ], [ 2.289342863294415, 48.82751023992514 ], [ 2.289344055812804, 48.827422756905356 ], [ 2.289072583527841, 48.827420225677905 ], [ 2.289065084743075, 48.827596384949274 ] ] ] } },
{ "type": "Feature", "properties": { "fid": 75 }, "geometry": { "type": "Polygon", "coordinates": [ [ [ 2.289241150176732, 48.827596207836308 ], [ 2.289330547733307, 48.827597962749699 ], [ 2.289333134300375, 48.827510182111375 ], [ 2.289243265268351, 48.827509036215716 ], [ 2.289241150176732, 48.827596207836308 ] ] ] } },
{ "type": "Feature", "properties": { "fid": 76 }, "geometry": { "type": "Polygon", "coordinates": [ [ [ 2.289593442133, 48.827618032222283 ], [ 2.289821337380225, 48.827622444858171 ], [ 2.289825650491685, 48.827509895805036 ], [ 2.289597751567917, 48.827505789061597 ], [ 2.289593442133, 48.827618032222283 ] ] ] } },
{ "type": "Feature", "properties": { "fid": 77 }, "geometry": { "type": "Polygon", "coordinates": [ [ [ 2.289597755736073, 48.8275054831769 ], [ 2.289825191373053, 48.827509587169196 ], [ 2.289832896688391, 48.827352089556527 ], [ 2.289604994285771, 48.827348288711043 ], [ 2.289597755736073, 48.8275054831769 ] ] ] } },
{ "type": "Feature", "properties": { "fid": 78 }, "geometry": { "type": "Polygon", "coordinates": [ [ [ 2.289605457569778, 48.827348291463039 ], [ 2.289832896688391, 48.827352089556527 ], [ 2.289837673035581, 48.827239543226952 ], [ 2.289610242743722, 48.827235133372639 ], [ 2.289605457569778, 48.827348291463039 ] ] ] } },
{ "type": "Feature", "properties": { "fid": 79 }, "geometry": { "type": "Polygon", "coordinates": [ [ [ 2.289611481913751, 48.827212197519621 ], [ 2.289764807686384, 48.827214637749485 ], [ 2.289769045878005, 48.827107594583836 ], [ 2.289615261306153, 48.827104845722396 ], [ 2.289611481913751, 48.827212197519621 ] ] ] } },
{ "type": "Feature", "properties": { "fid": 80 }, "geometry": { "type": "Polygon", "coordinates": [ [ [ 2.289798610665032, 48.827216062134745 ], [ 2.289839834504645, 48.827216918758594 ], [ 2.289843246759011, 48.827136484816641 ], [ 2.289802477931218, 48.827136242714722 ], [ 2.289798610665032, 48.827216062134745 ] ] ] } },
{ "type": "Feature", "properties": { "fid": 81 }, "geometry": { "type": "Polygon", "coordinates": [ [ [ 2.289804188630079, 48.827112697839297 ], [ 2.289844485824189, 48.827113548959161 ], [ 2.289848615511252, 48.827014458786529 ], [ 2.289807383497809, 48.827014213935186 ], [ 2.289804188630079, 48.827112697839297 ] ] ] } },
{ "type": "Feature", "properties": { "fid": 82 }, "geometry": { "type": "Polygon", "coordinates": [ [ [ 2.289618420285446, 48.827077026717667 ], [ 2.289771278212148, 48.827079770072388 ], [ 2.289775925488316, 48.826976706147818 ], [ 2.289622137134214, 48.826974263179736 ], [ 2.289618420285446, 48.827077026717667 ] ] ] } },
{ "type": "Feature", "properties": { "fid": 83 }, "geometry": { "type": "Polygon", "coordinates": [ [ [ 2.289416458698558, 48.827073685503166 ], [ 2.289584613233667, 48.827075908166108 ], [ 2.289588793429663, 48.826973147381196 ], [ 2.289420643394965, 48.82697061883912 ], [ 2.289416458698558, 48.827073685503166 ] ] ] } },
{ "type": "Feature", "properties": { "fid": 84 }, "geometry": { "type": "Polygon", "coordinates": [ [ [ 2.289809553304416, 48.826990977693171 ], [ 2.289849854571167, 48.826991522926498 ], [ 2.289854597515926, 48.826881423638973 ], [ 2.289814300501068, 48.826880572522327 ], [ 2.289809553304416, 48.826990977693171 ] ] ] } },
{ "type": "Feature", "properties": { "fid": 85 }, "geometry": { "type": "Polygon", "coordinates": [ [ [ 2.289623847909203, 48.826950718303493 ], [ 2.289777172913431, 48.826953158518101 ], [ 2.289779567012781, 48.8268794485233 ], [ 2.289627172952785, 48.826876707930587 ], [ 2.289623847909203, 48.826950718303493 ] ] ] } },
{ "type": "Feature", "properties": { "fid": 86 }, "geometry": { "type": "Polygon", "coordinates": [ [ [ 2.289511287429978, 48.826948825992289 ], [ 2.289589577658752, 48.826949597001288 ], [ 2.289591972023161, 48.826875887010019 ], [ 2.289513686073639, 48.826874810117687 ], [ 2.289511287429978, 48.826948825992289 ] ] ] } },
{ "type": "Feature", "properties": { "fid": 87 }, "geometry": { "type": "Polygon", "coordinates": [ [ [ 2.289421423530826, 48.826947374345096 ], [ 2.289476549733929, 48.826948007790158 ], [ 2.289479415875453, 48.82687368878382 ], [ 2.289424285581774, 48.826873361224891 ], [ 2.289421423530826, 48.826947374345096 ] ] ] } },
{ "type": "Feature", "properties": { "fid": 88 }, "geometry": { "type": "Polygon", "coordinates": [ [ [ 2.289693437954784, 48.826841921925563 ], [ 2.289856011566781, 48.826845640611637 ], [ 2.289865164062394, 48.826649912790771 ], [ 2.289701752709375, 48.826673721007388 ], [ 2.289693437954784, 48.826841921925563 ] ] ] } },
{ "type": "Feature", "properties": { "fid": 89 }, "geometry": { "type": "Polygon", "coordinates": [ [ [ 2.289560034299337, 48.826839599948656 ], [ 2.289659622718371, 48.826841415164701 ], [ 2.289665780228549, 48.826695532840112 ], [ 2.289566183751409, 48.826694329398741 ], [ 2.289560034299337, 48.826839599948656 ] ] ] } },
{ "type": "Feature", "properties": { "fid": 90 }, "geometry": { "type": "Polygon", "coordinates": [ [ [ 2.28942663482488, 48.826836971938057 ], [ 2.289525300843827, 48.826838475875725 ], [ 2.289531454561027, 48.826692899442563 ], [ 2.289433256264617, 48.826691092377551 ], [ 2.28942663482488, 48.826836971938057 ] ] ] } },
{ "type": "Feature", "properties": { "fid": 91 }, "geometry": { "type": "Polygon", "coordinates": [ [ [ 2.289400221269683, 48.826667341043375 ], [ 2.28970221598739, 48.826673723759022 ], [ 2.289865164062394, 48.826649912790771 ], [ 2.289868100463987, 48.826570393711307 ], [ 2.289404906765511, 48.826561524130938 ], [ 2.289400221269683, 48.826667341043375 ] ] ] } },
{ "type": "Feature", "properties": { "fid": 92 }, "geometry": { "type": "Polygon", "coordinates": [ [ [ 2.289094895796433, 48.826633405892352 ], [ 2.28936771212413, 48.826639004178816 ], [ 2.289370636775596, 48.826560402765601 ], [ 2.289097345068915, 48.826555719386228 ], [ 2.289094895796433, 48.826633405892352 ] ] ] } },
{ "type": "Feature", "properties": { "fid": 93 }, "geometry": { "type": "Polygon", "coordinates": [ [ [ 2.289095359074058, 48.826633408646337 ], [ 2.289367716293566, 48.826638698293905 ], [ 2.289366406149354, 48.826666834199528 ], [ 2.28909265894937, 48.826661536287133 ], [ 2.289095359074058, 48.826633408646337 ] ] ] } },
{ "type": "Feature", "properties": { "fid": 94 }, "geometry": { "type": "Polygon", "coordinates": [ [ [ 2.289089646280552, 48.82674656126882 ], [ 2.2893897883043, 48.826752933756957 ], [ 2.289392504464196, 48.826689626596185 ], [ 2.289091891184383, 48.826683863130292 ], [ 2.289089646280552, 48.82674656126882 ] ] ] } },
{ "type": "Feature", "properties": { "fid": 95 }, "geometry": { "type": "Polygon", "coordinates": [ [ [ 2.289090062874804, 48.82705653566039 ], [ 2.28936246671963, 48.827061853636245 ], [ 2.289365209072567, 48.826972758398945 ], [ 2.289269972966356, 48.82697252871381 ], [ 2.289274835016512, 48.82687739320842 ], [ 2.28909507592336, 48.826875652221162 ], [ 2.289090062874804, 48.82705653566039 ] ] ] } },
{ "type": "Feature", "properties": { "fid": 96 }, "geometry": { "type": "Polygon", "coordinates": [ [ [ 2.289269977550253, 48.826972192471089 ], [ 2.289359607218257, 48.826972725111169 ], [ 2.2893633405889, 48.826885653375641 ], [ 2.289274738755507, 48.826884454305926 ], [ 2.289269977550253, 48.826972192471089 ] ] ] } },
{ "type": "Feature", "properties": { "fid": 97 }, "geometry": { "type": "Polygon", "coordinates": [ [ [ 2.287500712950161, 48.82769548957279 ], [ 2.287523370711331, 48.827695960829956 ], [ 2.287532638202463, 48.827707281079661 ], [ 2.287511654879619, 48.82771472214035 ], [ 2.287491651436115, 48.827706364354739 ], [ 2.287500712950161, 48.82769548957279 ] ] ] } },
{ "type": "Feature", "properties": { "fid": 98 }, "geometry": { "type": "Polygon", "coordinates": [ [ [ 2.287532892835738, 48.827707282596627 ], [ 2.287541398728512, 48.827718430173405 ], [ 2.287528756268425, 48.827730460568951 ], [ 2.287510931931239, 48.827730354378758 ], [ 2.28751165717727, 48.827714554019117 ], [ 2.287532892835738, 48.827707282596627 ] ] ] } },
{ "type": "Feature", "properties": { "fid": 99 }, "geometry": { "type": "Polygon", "coordinates": [ [ [ 2.287491651436115, 48.827706364354739 ], [ 2.287511909512931, 48.827714723657358 ], [ 2.28751118886228, 48.82773018777457 ], [ 2.287492098251438, 48.827729569632851 ], [ 2.287481571384995, 48.827717233067538 ], [ 2.287491651436115, 48.827706364354739 ] ] ] } },
{ "type": "Feature", "properties": { "fid": 100 }, "geometry": { "type": "Polygon", "coordinates": [ [ [ 2.287491848213485, 48.827729231873363 ], [ 2.287511191159933, 48.827730019653366 ], [ 2.287510720547009, 48.827745821529803 ], [ 2.287488987091382, 48.827752249307949 ], [ 2.287480728944481, 48.827741607608495 ], [ 2.287491848213485, 48.827729231873363 ] ] ] } },
{ "type": "Feature", "properties": { "fid": 101 }, "geometry": { "type": "Polygon", "coordinates": [ [ [ 2.287511443495666, 48.827730189291614 ], [ 2.287528760863618, 48.827730124326528 ], [ 2.287540049346612, 48.82774263355963 ], [ 2.287529207695662, 48.827753329604015 ], [ 2.287510722844664, 48.827745653408591 ], [ 2.287511443495666, 48.827730189291614 ] ] ] } },
{ "type": "Feature", "properties": { "fid": 102 }, "geometry": { "type": "Polygon", "coordinates": [ [ [ 2.287529212290854, 48.827752993361614 ], [ 2.287519893841579, 48.827764034749329 ], [ 2.287498259180447, 48.827763233317356 ], [ 2.287489241724876, 48.827752250825029 ], [ 2.287511229813935, 48.827745824563841 ], [ 2.287529212290854, 48.827752993361614 ] ] ] } },
{ "type": "Feature", "properties": { "fid": 103 }, "geometry": { "type": "Polygon", "coordinates": [ [ [ 2.287540560911067, 48.827742468472337 ], [ 2.287561936335802, 48.827743604622192 ], [ 2.287570189904666, 48.827754582558448 ], [ 2.287549463499219, 48.82776185702113 ], [ 2.287529466924353, 48.827752994878587 ], [ 2.287540560911067, 48.827742468472337 ] ] ] } },
{ "type": "Feature", "properties": { "fid": 104 }, "geometry": { "type": "Polygon", "coordinates": [ [ [ 2.287570444538174, 48.827754584075343 ], [ 2.287579211972564, 48.827765228802235 ], [ 2.287567567367066, 48.827778778359693 ], [ 2.287549236043565, 48.827778501020212 ], [ 2.287549720430292, 48.82776169041685 ], [ 2.287570444538174, 48.827754584075343 ] ] ] } },
{ "type": "Feature", "properties": { "fid": 105 }, "geometry": { "type": "Polygon", "coordinates": [ [ [ 2.287549495272251, 48.827778166294749 ], [ 2.287531418582683, 48.827777890469477 ], [ 2.287519891543952, 48.827764202870547 ], [ 2.28752921458845, 48.827752825240395 ], [ 2.287549715835231, 48.827762026659265 ], [ 2.287549495272251, 48.827778166294749 ] ] ] } },
{ "type": "Feature", "properties": { "fid": 106 }, "geometry": { "type": "Polygon", "coordinates": [ [ [ 2.287581665637182, 48.827697485056149 ], [ 2.287600760832063, 48.827697766941178 ], [ 2.287600287949213, 48.827713736939629 ], [ 2.287579316120591, 48.82772033740607 ], [ 2.287571567226886, 48.827709698746325 ], [ 2.287581665637182, 48.827697485056149 ] ] ] } },
{ "type": "Feature", "properties": { "fid": 107 }, "geometry": { "type": "Polygon", "coordinates": [ [ [ 2.287601270098526, 48.827697769974826 ], [ 2.287619851432548, 48.827698385065567 ], [ 2.287630630663934, 48.827710891256878 ], [ 2.287620043671518, 48.827721588826584 ], [ 2.287600542582522, 48.827713738456467 ], [ 2.287601270098526, 48.827697769974826 ] ] ] } },
{ "type": "Feature", "properties": { "fid": 108 }, "geometry": { "type": "Polygon", "coordinates": [ [ [ 2.287579570753933, 48.827720338922958 ], [ 2.287600544879886, 48.827713570335241 ], [ 2.287620045968819, 48.827721420705366 ], [ 2.287609711308156, 48.827732287912049 ], [ 2.287588072064006, 48.827731822738706 ], [ 2.287579570753933, 48.827720338922958 ] ] ] } },
{ "type": "Feature", "properties": { "fid": 109 }, "geometry": { "type": "Polygon", "coordinates": [ [ [ 2.287610220574957, 48.827732290945661 ], [ 2.287620747474882, 48.827744627499477 ], [ 2.287639083381334, 48.827744568585587 ], [ 2.287639801697011, 48.827729272589004 ], [ 2.287620045968819, 48.827721420705366 ], [ 2.287610220574957, 48.827732290945661 ] ] ] } },
{ "type": "Feature", "properties": { "fid": 110 }, "geometry": { "type": "Polygon", "coordinates": [ [ [ 2.287639801697011, 48.827729272589004 ], [ 2.287659766474018, 48.82772182543912 ], [ 2.287651762930376, 48.827711185267887 ], [ 2.287630887594497, 48.827710724652448 ], [ 2.287620302899466, 48.827721254100936 ], [ 2.287639801697011, 48.827729272589004 ] ] ] } },
{ "type": "Feature", "properties": { "fid": 111 }, "geometry": { "type": "Polygon", "coordinates": [ [ [ 2.287660275740719, 48.827721828472527 ], [ 2.287669540969034, 48.827733316832592 ], [ 2.287658171702233, 48.827745354825055 ], [ 2.287639085678575, 48.827744400464375 ], [ 2.287640058627635, 48.827729105984545 ], [ 2.287660275740719, 48.827721828472527 ] ] ] } },
{ "type": "Feature", "properties": { "fid": 112 }, "geometry": { "type": "Polygon", "coordinates": [ [ [ 2.28766979560244, 48.827733318349274 ], [ 2.287690668650637, 48.827733947079118 ], [ 2.287700498622122, 48.827722740589806 ], [ 2.287681259045212, 48.827714387385818 ], [ 2.287660278037892, 48.827721660351308 ], [ 2.28766979560244, 48.827733318349274 ] ] ] } },
{ "type": "Feature", "properties": { "fid": 113 }, "geometry": { "type": "Polygon", "coordinates": [ [ [ 2.287700500919164, 48.827722572468581 ], [ 2.287710828667951, 48.827712209617609 ], [ 2.287700811019746, 48.827699876104624 ], [ 2.287681972753896, 48.827699427631018 ], [ 2.287681513678526, 48.827714388902471 ], [ 2.287700500919164, 48.827722572468581 ] ] ] } },
{ "type": "Feature", "properties": { "fid": 114 }, "geometry": { "type": "Polygon", "coordinates": [ [ [ 2.287652019860873, 48.827711018663379 ], [ 2.287659764176844, 48.827721993560331 ], [ 2.287681261342315, 48.8277142192646 ], [ 2.287682482020378, 48.827699430664332 ], [ 2.287662109063916, 48.82769947745129 ], [ 2.287652019860873, 48.827711018663379 ] ] ] } },
{ "type": "Feature", "properties": { "fid": 115 }, "geometry": { "type": "Polygon", "coordinates": [ [ [ 2.2876040347394, 48.82779362333234 ], [ 2.287621262533567, 48.827800115080677 ], [ 2.287632138634346, 48.82778689721038 ], [ 2.287621627804284, 48.8277733838096 ], [ 2.287605498588101, 48.827779676856721 ], [ 2.2876040347394, 48.82779362333234 ] ] ] } },
{ "type": "Feature", "properties": { "fid": 116 }, "geometry": { "type": "Polygon", "coordinates": [ [ [ 2.287621264830868, 48.827799946959487 ], [ 2.287637214865955, 48.82780676736396 ], [ 2.287655644979064, 48.827799815478336 ], [ 2.287655812673924, 48.827787542630645 ], [ 2.287632140931612, 48.827786729089176 ], [ 2.287621264830868, 48.827799946959487 ] ] ] } },
{ "type": "Feature", "properties": { "fid": 117 }, "geometry": { "type": "Polygon", "coordinates": [ [ [ 2.287632140931612, 48.827786729089176 ], [ 2.287655814971113, 48.827787374509434 ], [ 2.287657003497519, 48.827774939607245 ], [ 2.287638009352899, 48.827767260398211 ], [ 2.287621630101583, 48.827773215688396 ], [ 2.287632140931612, 48.827786729089176 ] ] ] } },
{ "type": "Feature", "properties": { "fid": 118 }, "geometry": { "type": "Polygon", "coordinates": [ [ [ 2.287655899612795, 48.827799816995054 ], [ 2.287674132167735, 48.82780732352979 ], [ 2.287690506829613, 48.827801704475 ], [ 2.28767898433808, 48.827787680649287 ], [ 2.287655560337443, 48.827787372992731 ], [ 2.287655899612795, 48.827799816995054 ] ] ] } },
{ "type": "Feature", "properties": { "fid": 119 }, "geometry": { "type": "Polygon", "coordinates": [ [ [ 2.287655819565491, 48.82778703826704 ], [ 2.28767898433808, 48.827787680649287 ], [ 2.287692145232893, 48.827774980786941 ], [ 2.287675940566768, 48.827768158872942 ], [ 2.287657003497519, 48.827774939607245 ], [ 2.287655819565491, 48.82778703826704 ] ] ] } },
{ "type": "Feature", "properties": { "fid": 120 }, "geometry": { "type": "Polygon", "coordinates": [ [ [ 2.287690761463356, 48.827801705991654 ], [ 2.28770714301275, 48.827795582570943 ], [ 2.287708106754716, 48.827780960576099 ], [ 2.287692147529965, 48.827774812665744 ], [ 2.28767898433808, 48.827787680649287 ], [ 2.287690761463356, 48.827801705991654 ] ] ] } },
{ "type": "Feature", "properties": { "fid": 121 }, "geometry": { "type": "Polygon", "coordinates": [ [ [ 2.287675524092591, 48.827835914750089 ], [ 2.28769501375325, 48.827844605713103 ], [ 2.2877048322595, 48.827834239830523 ], [ 2.287694821480461, 48.827821401954765 ], [ 2.287675483091587, 48.827820277962125 ], [ 2.287675524092591, 48.827835914750089 ] ] ] } },
{ "type": "Feature", "properties": { "fid": 122 }, "geometry": { "type": "Polygon", "coordinates": [ [ [ 2.287654793075117, 48.827843525472893 ], [ 2.287675526389719, 48.827835746628885 ], [ 2.28767573772542, 48.827820279478786 ], [ 2.287656892524716, 48.827820335364869 ], [ 2.287645770978236, 48.827832879235537 ], [ 2.287654793075117, 48.827843525472893 ] ] ] } },
{ "type": "Feature", "properties": { "fid": 123 }, "geometry": { "type": "Polygon", "coordinates": [ [ [ 2.287675526389719, 48.827835746628885 ], [ 2.28769527298133, 48.827844270987342 ], [ 2.287684936014897, 48.827855306320522 ], [ 2.287663296719015, 48.827854841160836 ], [ 2.287654795372313, 48.827843357351696 ], [ 2.287675526389719, 48.827835746628885 ] ] ] } },
{ "type": "Feature", "properties": { "fid": 124 }, "geometry": { "type": "Polygon", "coordinates": [ [ [ 2.287685192945997, 48.827855139715986 ], [ 2.28769446279763, 48.827866291830354 ], [ 2.287674000187742, 48.82787289534577 ], [ 2.287654242102778, 48.82786521158998 ], [ 2.287663296719015, 48.827854841160836 ], [ 2.287685192945997, 48.827855139715986 ] ] ] } },
{ "type": "Feature", "properties": { "fid": 125 }, "geometry": { "type": "Polygon", "coordinates": [ [ [ 2.28769446279763, 48.827866291830354 ], [ 2.287703232573167, 48.827876768425917 ], [ 2.28769160175746, 48.827889309266979 ], [ 2.287673018057405, 48.827888862308669 ], [ 2.287674259416099, 48.827872560620087 ], [ 2.28769446279763, 48.827866291830354 ] ] ] } },
{ "type": "Feature", "properties": { "fid": 126 }, "geometry": { "type": "Polygon", "coordinates": [ [ [ 2.287674259416099, 48.827872560620087 ], [ 2.287673277285847, 48.827888527582978 ], [ 2.28765392508934, 48.827888412314046 ], [ 2.287643659678335, 48.827875572917911 ], [ 2.287654242102778, 48.82786521158998 ], [ 2.287674259416099, 48.827872560620087 ] ] ] } },
{ "type": "Feature", "properties": { "fid": 127 }, "geometry": { "type": "Polygon", "coordinates": [ [ [ 2.287951188086204, 48.827677407887307 ], [ 2.287969663793166, 48.827685756500017 ], [ 2.287986302202643, 48.827679466435271 ], [ 2.28797528433242, 48.827665781911037 ], [ 2.287951608047948, 48.827665304675165 ], [ 2.287951188086204, 48.827677407887307 ] ] ] } },
{ "type": "Feature", "properties": { "fid": 128 }, "geometry": { "type": "Polygon", "coordinates": [ [ [ 2.287986304498761, 48.827679298314052 ], [ 2.288002176708735, 48.827673171820258 ], [ 2.28800339270268, 48.827658719458597 ], [ 2.287987438072757, 48.82765223534453 ], [ 2.28797528433242, 48.827665781911037 ], [ 2.287986304498761, 48.827679298314052 ] ] ] } },
{ "type": "Feature", "properties": { "fid": 129 }, "geometry": { "type": "Polygon", "coordinates": [ [ [ 2.287952117314114, 48.827665307707328 ], [ 2.28797528433242, 48.827665781911037 ], [ 2.287987692705776, 48.827652236860544 ], [ 2.287971476558304, 48.827646255591979 ], [ 2.287952546460454, 48.827652532010141 ], [ 2.287952117314114, 48.827665307707328 ] ] ] } },
{ "type": "Feature", "properties": { "fid": 130 }, "geometry": { "type": "Polygon", "coordinates": [ [ [ 2.287987690409663, 48.827652404981762 ], [ 2.288003390406617, 48.82765888757983 ], [ 2.288022322796658, 48.827652443032434 ], [ 2.288022747333687, 48.827640003577294 ], [ 2.287998816427529, 48.827639524834836 ], [ 2.287987690409663, 48.827652404981762 ] ] ] } },
{ "type": "Feature", "properties": { "fid": 131 }, "geometry": { "type": "Polygon", "coordinates": [ [ [ 2.287971478854469, 48.827646087470747 ], [ 2.287987692705776, 48.827652236860544 ], [ 2.287999071060489, 48.827639526350829 ], [ 2.287988817094028, 48.827625846375298 ], [ 2.287972180998131, 48.827631968319459 ], [ 2.287971478854469, 48.827646087470747 ] ] ] } },
{ "type": "Feature", "properties": { "fid": 132 }, "geometry": { "type": "Polygon", "coordinates": [ [ [ 2.287999073356564, 48.827639358229597 ], [ 2.288023004262647, 48.827639836972004 ], [ 2.288023938065211, 48.827627400548607 ], [ 2.288005457778129, 48.827619388186321 ], [ 2.287988817094028, 48.827625846375298 ], [ 2.287999073356564, 48.827639358229597 ] ] ] } },
{ "type": "Feature", "properties": { "fid": 133 }, "geometry": { "type": "Polygon", "coordinates": [ [ [ 2.288030211608087, 48.827671489240785 ], [ 2.288040731707285, 48.82768433012199 ], [ 2.288060083828891, 48.82768444532833 ], [ 2.28806029045813, 48.827669314417946 ], [ 2.288040543873103, 48.827660790118422 ], [ 2.288030211608087, 48.827671489240785 ] ] ] } },
{ "type": "Feature", "properties": { "fid": 134 }, "geometry": { "type": "Polygon", "coordinates": [ [ [ 2.288060340757952, 48.82768427872297 ], [ 2.288078924388402, 48.827684725621168 ], [ 2.288089531941245, 48.827672514919442 ], [ 2.28808076900988, 48.827661533986621 ], [ 2.28806029504989, 48.827668978175488 ], [ 2.288060340757952, 48.82768427872297 ] ] ] } },
{ "type": "Feature", "properties": { "fid": 135 }, "geometry": { "type": "Polygon", "coordinates": [ [ [ 2.288040798506167, 48.827660791634315 ], [ 2.28806029275401, 48.827669146296721 ], [ 2.288080766714066, 48.827661702107854 ], [ 2.28807098295846, 48.827650883232181 ], [ 2.288049859897746, 48.827649916810344 ], [ 2.288040798506167, 48.827660791634315 ] ] ] } },
{ "type": "Feature", "properties": { "fid": 136 }, "geometry": { "type": "Polygon", "coordinates": [ [ [ 2.288077259246718, 48.827657477855745 ], [ 2.288099916996579, 48.827657949003687 ], [ 2.288108962305281, 48.827648251023803 ], [ 2.288088711045923, 48.82763938745812 ], [ 2.288067468605064, 48.82764716334345 ], [ 2.288077259246718, 48.827657477855745 ] ] ] } },
{ "type": "Feature", "properties": { "fid": 137 }, "geometry": { "type": "Polygon", "coordinates": [ [ [ 2.288108964601004, 48.827648082902577 ], [ 2.288118799057765, 48.827636540135565 ], [ 2.28810902677759, 48.827624880656586 ], [ 2.28809019542267, 48.82762392788355 ], [ 2.288088456412962, 48.827639385942341 ], [ 2.288108964601004, 48.827648082902577 ] ] ] } },
{ "type": "Feature", "properties": { "fid": 138 }, "geometry": { "type": "Polygon", "coordinates": [ [ [ 2.288067470900919, 48.827646995222224 ], [ 2.288088711045923, 48.82763938745812 ], [ 2.288090450055556, 48.827623929399337 ], [ 2.288070322578466, 48.827624650256567 ], [ 2.288059205764968, 48.827636857925384 ], [ 2.288067470900919, 48.827646995222224 ] ] ] } },
{ "type": "Feature", "properties": { "fid": 139 }, "geometry": { "type": "Polygon", "coordinates": [ [ [ 2.288112180514903, 48.827673658549976 ], [ 2.28812220055107, 48.827685823907572 ], [ 2.288141805010982, 48.827686108737652 ], [ 2.288141766165862, 48.827670303826544 ], [ 2.288122769692282, 48.827662792815033 ], [ 2.288112180514903, 48.827673658549976 ] ] ] } },
{ "type": "Feature", "properties": { "fid": 140 }, "geometry": { "type": "Polygon", "coordinates": [ [ [ 2.288142061939789, 48.827685942132106 ], [ 2.288161154837916, 48.827686392048882 ], [ 2.288171507738707, 48.827674179824271 ], [ 2.288162487861168, 48.827663365503071 ], [ 2.288141766165862, 48.827670303826544 ], [ 2.288142061939789, 48.827685942132106 ] ] ] } },
{ "type": "Feature", "properties": { "fid": 141 }, "geometry": { "type": "Polygon", "coordinates": [ [ [ 2.288123024325358, 48.827662794330742 ], [ 2.288141766165862, 48.827670303826544 ], [ 2.288162740198698, 48.827663535139926 ], [ 2.288153467987368, 48.82765255118106 ], [ 2.288131835658408, 48.827651581742387 ], [ 2.288123024325358, 48.827662794330742 ] ] ] } },
{ "type": "Feature", "properties": { "fid": 142 }, "geometry": { "type": "Polygon", "coordinates": [ [ [ 2.288171762371839, 48.827674181339894 ], [ 2.288192894626453, 48.827674475255279 ], [ 2.288203726943174, 48.827664451634895 ], [ 2.288183223323853, 48.827655418448579 ], [ 2.288162742494246, 48.827663367018701 ], [ 2.288171762371839, 48.827674181339894 ] ] ] } },
{ "type": "Feature", "properties": { "fid": 143 }, "geometry": { "type": "Polygon", "coordinates": [ [ [ 2.288162742494246, 48.827663367018701 ], [ 2.288183477956894, 48.827655419964145 ], [ 2.288183429917239, 48.827640287537562 ], [ 2.288164582486599, 48.827640511624892 ], [ 2.288153467987368, 48.82765255118106 ], [ 2.288162742494246, 48.827663367018701 ] ] ] } },
{ "type": "Feature", "properties": { "fid": 144 }, "geometry": { "type": "Polygon", "coordinates": [ [ [ 2.288183987222977, 48.827655422995328 ], [ 2.288203731534008, 48.827664115392444 ], [ 2.288212788301404, 48.827653576798618 ], [ 2.288202261279773, 48.827641240295904 ], [ 2.28818343221272, 48.82764011941633 ], [ 2.288183987222977, 48.827655422995328 ] ] ] } },
{ "type": "Feature", "properties": { "fid": 145 }, "geometry": { "type": "Polygon", "coordinates": [ [ [ 2.288193151555041, 48.827674308649613 ], [ 2.288203410175485, 48.827687652364574 ], [ 2.288222766889399, 48.827687431302152 ], [ 2.288222211867418, 48.827672127723773 ], [ 2.288203474605506, 48.827664281998125 ], [ 2.288193151555041, 48.827674308649613 ] ] ] } },
{ "type": "Feature", "properties": { "fid": 146 }, "geometry": { "type": "Polygon", "coordinates": [ [ [ 2.288203474605506, 48.827664281998125 ], [ 2.288222214162775, 48.827671959602533 ], [ 2.288243704337878, 48.827664689569055 ], [ 2.28823417977157, 48.827653535979756 ], [ 2.288212533668371, 48.827653575283087 ], [ 2.288203474605506, 48.827664281998125 ] ] ] } },
{ "type": "Feature", "properties": { "fid": 147 }, "geometry": { "type": "Polygon", "coordinates": [ [ [ 2.288222471091256, 48.827671792996817 ], [ 2.28824396356154, 48.827664354842049 ], [ 2.288252205785167, 48.827676173338162 ], [ 2.288241609746157, 48.827687543448114 ], [ 2.288222516846914, 48.827687093544192 ], [ 2.288222471091256, 48.827671792996817 ] ] ] } },
{ "type": "Feature", "properties": { "fid": 148 }, "geometry": { "type": "Polygon", "coordinates": [ [ [ 2.28801047627942, 48.826784614849409 ], [ 2.288010074747852, 48.82679911959508 ], [ 2.288026872930055, 48.826805532894383 ], [ 2.288038233802555, 48.82679297394899 ], [ 2.28802723794859, 48.826778804325805 ], [ 2.28801047627942, 48.826784614849409 ] ] ] } },
{ "type": "Feature", "properties": { "fid": 149 }, "geometry": { "type": "Polygon", "coordinates": [ [ [ 2.288027080025026, 48.826805265476651 ], [ 2.288042648481378, 48.826812343079197 ], [ 2.2880610577434, 48.826805064780963 ], [ 2.288061429914024, 48.826792709065813 ], [ 2.288038439063183, 48.826792840845648 ], [ 2.288027080025026, 48.826805265476651 ] ] ] } },
{ "type": "Feature", "properties": { "fid": 150 }, "geometry": { "type": "Polygon", "coordinates": [ [ [ 2.28803823563679, 48.826792839634578 ], [ 2.288061226487631, 48.826792707854793 ], [ 2.288062416031851, 48.826780088354838 ], [ 2.288043999614025, 48.8267729937998 ], [ 2.288027236114327, 48.82677893864021 ], [ 2.28803823563679, 48.826792839634578 ] ] ] } },
{ "type": "Feature", "properties": { "fid": 151 }, "geometry": { "type": "Polygon", "coordinates": [ [ [ 2.288044203040341, 48.826772995010856 ], [ 2.288044391964863, 48.82675916062577 ], [ 2.288028416671688, 48.826752080600919 ], [ 2.288016029502861, 48.826765305062388 ], [ 2.288027236114327, 48.82677893864021 ], [ 2.288044203040341, 48.826772995010856 ] ] ] } },
{ "type": "Feature", "properties": { "fid": 152 }, "geometry": { "type": "Polygon", "coordinates": [ [ [ 2.28801067970578, 48.826784616060529 ], [ 2.288027443209191, 48.826778671222471 ], [ 2.288016232929146, 48.826765306273487 ], [ 2.287992639148828, 48.826764897153502 ], [ 2.287992464885373, 48.826777657023101 ], [ 2.28801067970578, 48.826784616060529 ] ] ] } },
{ "type": "Feature", "properties": { "fid": 153 }, "geometry": { "type": "Polygon", "coordinates": [ [ [ 2.287992842575111, 48.826764898364658 ], [ 2.288016029502861, 48.826765305062388 ], [ 2.288028414837428, 48.826752214915338 ], [ 2.288013044324274, 48.826745541464938 ], [ 2.287993005832328, 48.826752944381404 ], [ 2.287992842575111, 48.826764898364658 ] ] ] } },
{ "type": "Feature", "properties": { "fid": 154 }, "geometry": { "type": "Polygon", "coordinates": [ [ [ 2.288074062852931, 48.826761486467937 ], [ 2.288084078266666, 48.826772963743728 ], [ 2.288104118587438, 48.826765426497708 ], [ 2.288104331338859, 48.826749846024931 ], [ 2.288085616126021, 48.826749734615092 ], [ 2.288074062852931, 48.826761486467937 ] ] ] } },
{ "type": "Feature", "properties": { "fid": 155 }, "geometry": { "type": "Polygon", "coordinates": [ [ [ 2.288084485119299, 48.82677296616572 ], [ 2.288092884131204, 48.826783627866178 ], [ 2.288113430193458, 48.826783750173398 ], [ 2.288123544806294, 48.826773064355841 ], [ 2.288104120421503, 48.826765292183282 ], [ 2.288084485119299, 48.82677296616572 ] ] ] } },
{ "type": "Feature", "properties": { "fid": 156 }, "geometry": { "type": "Polygon", "coordinates": [ [ [ 2.288104120421503, 48.826765292183282 ], [ 2.288123341379976, 48.826773063144913 ], [ 2.288133441316794, 48.826763451841792 ], [ 2.28812426160711, 48.826750367640692 ], [ 2.288104127912632, 48.826749844813982 ], [ 2.288104120421503, 48.826765292183282 ] ] ] } },
{ "type": "Feature", "properties": { "fid": 157 }, "geometry": { "type": "Polygon", "coordinates": [ [ [ 2.288110120350218, 48.826787760230758 ], [ 2.288130144019501, 48.826796341921423 ], [ 2.288150186176547, 48.826788670353437 ], [ 2.288142401099057, 48.826777743660898 ], [ 2.288120037040246, 48.826776670259321 ], [ 2.288110120350218, 48.826787760230758 ] ] ] } },
{ "type": "Feature", "properties": { "fid": 158 }, "geometry": { "type": "Polygon", "coordinates": [ [ [ 2.288110325610643, 48.826787627127274 ], [ 2.288100209158198, 48.826798447257993 ], [ 2.288111833656017, 48.826811277362935 ], [ 2.288129938611603, 48.826811385135933 ], [ 2.288130144019501, 48.826796341921423 ], [ 2.288110325610643, 48.826787627127274 ] ] ] } },
{ "type": "Feature", "properties": { "fid": 159 }, "geometry": { "type": "Polygon", "coordinates": [ [ [ 2.288130143872069, 48.826811252032449 ], [ 2.288149062533554, 48.826811364646204 ], [ 2.288159598668677, 48.826799606732294 ], [ 2.288150188010493, 48.826788536039018 ], [ 2.2881301458535, 48.826796207607003 ], [ 2.288130143872069, 48.826811252032449 ] ] ] } },
{ "type": "Feature", "properties": { "fid": 160 }, "geometry": { "type": "Polygon", "coordinates": [ [ [ 2.288156435822293, 48.826763051414858 ], [ 2.288165846477204, 48.826774122107906 ], [ 2.28818588128504, 48.826766987791459 ], [ 2.288185890585798, 48.826751406107753 ], [ 2.288167785650926, 48.826751298343218 ], [ 2.288156435822293, 48.826763051414858 ] ] ] } },
{ "type": "Feature", "properties": { "fid": 161 }, "geometry": { "type": "Polygon", "coordinates": [ [ [ 2.288166051737432, 48.826773989004337 ], [ 2.288175051875863, 48.826785325903678 ], [ 2.288196210051913, 48.826785317514783 ], [ 2.288206121221758, 48.826774630479463 ], [ 2.288185879451186, 48.826767122105878 ], [ 2.288166051737432, 48.826773989004337 ] ] ] } },
{ "type": "Feature", "properties": { "fid": 162 }, "geometry": { "type": "Polygon", "coordinates": [ [ [ 2.288185879451186, 48.826767122105878 ], [ 2.288206121221758, 48.826774630479463 ], [ 2.288215418441131, 48.826764208439734 ], [ 2.288205619263025, 48.82675179218468 ], [ 2.288185890585798, 48.826751406107753 ], [ 2.288185879451186, 48.826767122105878 ] ] ] } },
{ "type": "Feature", "properties": { "fid": 163 }, "geometry": { "type": "Polygon", "coordinates": [ [ [ 2.288196415312108, 48.826785184411172 ], [ 2.288206001898867, 48.826798271027897 ], [ 2.288225122148471, 48.826798519154821 ], [ 2.288225329362608, 48.826783341625571 ], [ 2.288205919629235, 48.826774494954243 ], [ 2.288196415312108, 48.826785184411172 ] ] ] } },
{ "type": "Feature", "properties": { "fid": 164 }, "geometry": { "type": "Polygon", "coordinates": [ [ [ 2.288225329242398, 48.826798251736747 ], [ 2.288243841046531, 48.826798361914001 ], [ 2.288254787677754, 48.826786337784192 ], [ 2.288246187039672, 48.826775540569983 ], [ 2.288225127770001, 48.826783206100394 ], [ 2.288225329242398, 48.826798251736747 ] ] ] } },
{ "type": "Feature", "properties": { "fid": 165 }, "geometry": { "type": "Polygon", "coordinates": [ [ [ 2.28820612305556, 48.826774496165029 ], [ 2.288225127770001, 48.826783206100394 ], [ 2.288246390466003, 48.826775541780705 ], [ 2.288237177718854, 48.826764875248017 ], [ 2.288215625534971, 48.826763941021653 ], [ 2.28820612305556, 48.826774496165029 ] ] ] } },
{ "type": "Feature", "properties": { "fid": 166 }, "geometry": { "type": "Polygon", "coordinates": [ [ [ 2.288254584251382, 48.826786336573484 ], [ 2.288276955651589, 48.826786872692217 ], [ 2.288286652377276, 48.826776990326088 ], [ 2.288266833949614, 48.826768275557718 ], [ 2.288246388632304, 48.826775676095117 ], [ 2.288254584251382, 48.826786336573484 ] ] ] } },
{ "type": "Feature", "properties": { "fid": 167 }, "geometry": { "type": "Polygon", "coordinates": [ [ [ 2.288286654210871, 48.826776856011662 ], [ 2.288296160341549, 48.826766032233074 ], [ 2.28828635747668, 48.826753884613524 ], [ 2.288267849355534, 48.826753505813976 ], [ 2.288267035542272, 48.826768411082831 ], [ 2.288286654210871, 48.826776856011662 ] ] ] } },
{ "type": "Feature", "properties": { "fid": 168 }, "geometry": { "type": "Polygon", "coordinates": [ [ [ 2.288237177718854, 48.826764875248017 ], [ 2.288246592058635, 48.826775677305839 ], [ 2.288267446062166, 48.826768144875352 ], [ 2.288268052781779, 48.826753507024662 ], [ 2.288248729122236, 48.826753257693866 ], [ 2.288237177718854, 48.826764875248017 ] ] ] } },
{ "type": "Feature", "properties": { "fid": 169 }, "geometry": { "type": "Polygon", "coordinates": [ [ [ 2.289088027925969, 48.826781410347742 ], [ 2.289097183998394, 48.826792561341968 ], [ 2.289117191526413, 48.82678533947059 ], [ 2.289117398685288, 48.82677014694309 ], [ 2.289097493581604, 48.826769857902129 ], [ 2.289088027925969, 48.826781410347742 ] ] ] } },
{ "type": "Feature", "properties": { "fid": 170 }, "geometry": { "type": "Polygon", "coordinates": [ [ [ 2.289097703402449, 48.826792393713191 ], [ 2.289105305921789, 48.826803706187931 ], [ 2.289127281671945, 48.826803836819607 ], [ 2.289137769837869, 48.826793144031079 ], [ 2.289117452392185, 48.826785170304866 ], [ 2.289097703402449, 48.826792393713191 ] ] ] } },
{ "type": "Feature", "properties": { "fid": 171 }, "geometry": { "type": "Polygon", "coordinates": [ [ [ 2.289117713257957, 48.826785001139157 ], [ 2.28913777216543, 48.826792973328516 ], [ 2.289146955998707, 48.826783126367879 ], [ 2.289137049906244, 48.826770093038824 ], [ 2.289117137819589, 48.826770316108799 ], [ 2.289117713257957, 48.826785001139157 ] ] ] } },
{ "type": "Feature", "properties": { "fid": 172 }, "geometry": { "type": "Polygon", "coordinates": [ [ [ 2.289127540210183, 48.826803838356433 ], [ 2.289137707172545, 48.826816702520084 ], [ 2.28915657814112, 48.826816985407341 ], [ 2.289156524422915, 48.826801962046019 ], [ 2.28913777216543, 48.826792973328516 ], [ 2.289127540210183, 48.826803838356433 ] ] ] } },
{ "type": "Feature", "properties": { "fid": 173 }, "geometry": { "type": "Polygon", "coordinates": [ [ [ 2.289156839006924, 48.826816816241553 ], [ 2.289175456092218, 48.826816756183966 ], [ 2.289186472964375, 48.826805212951953 ], [ 2.289177836274444, 48.826793894335552 ], [ 2.289156526750415, 48.82680179134347 ], [ 2.289156839006924, 48.826816816241553 ] ] ] } },
{ "type": "Feature", "properties": { "fid": 174 }, "geometry": { "type": "Polygon", "coordinates": [ [ [ 2.289137773911104, 48.826792845301618 ], [ 2.289156525004792, 48.826801919370389 ], [ 2.289177966125397, 48.826793852428274 ], [ 2.289168673784021, 48.826783212779553 ], [ 2.289146957744357, 48.826782998340967 ], [ 2.289137773911104, 48.826792845301618 ] ] ] } },
{ "type": "Feature", "properties": { "fid": 175 }, "geometry": { "type": "Polygon", "coordinates": [ [ [ 2.289186473546228, 48.82680517027633 ], [ 2.289208061489831, 48.82680529858812 ], [ 2.289218413388491, 48.826795117131887 ], [ 2.289197966660628, 48.82678714265105 ], [ 2.289178095394491, 48.826793853196634 ], [ 2.289186473546228, 48.82680517027633 ] ] ] } },
{ "type": "Feature", "properties": { "fid": 176 }, "geometry": { "type": "Polygon", "coordinates": [ [ [ 2.289198095929707, 48.826787143419395 ], [ 2.289218413388491, 48.826795117131887 ], [ 2.289227481901445, 48.826784245181422 ], [ 2.289217434883101, 48.826772064603539 ], [ 2.289198176123334, 48.826771779420895 ], [ 2.289198095929707, 48.826787143419395 ] ] ] } },
{ "type": "Feature", "properties": { "fid": 177 }, "geometry": { "type": "Polygon", "coordinates": [ [ [ 2.289178095394491, 48.826793853196634 ], [ 2.289198355631544, 48.82678705960479 ], [ 2.289198433497734, 48.826771866308846 ], [ 2.28917865533456, 48.826771748752265 ], [ 2.289168803053089, 48.82678321354792 ], [ 2.289178095394491, 48.826793853196634 ] ] ] } },
{ "type": "Feature", "properties": { "fid": 178 }, "geometry": { "type": "Polygon", "coordinates": [ [ [ 2.289230561618068, 48.826833344446264 ], [ 2.289250339804728, 48.826833461994234 ], [ 2.28925068317573, 48.826817758127788 ], [ 2.289231785336418, 48.826809963574775 ], [ 2.289221680339302, 48.826821000081395 ], [ 2.289230561618068, 48.826833344446264 ] ] ] } },
{ "type": "Feature", "properties": { "fid": 179 }, "geometry": { "type": "Polygon", "coordinates": [ [ [ 2.28925047023752, 48.826833377411241 ], [ 2.289268955732292, 48.826833487273355 ], [ 2.28928062475085, 48.826821521117758 ], [ 2.289270946903303, 48.826810708469949 ], [ 2.28925068317573, 48.826817758127788 ], [ 2.28925047023752, 48.826833377411241 ] ] ] } },
{ "type": "Feature", "properties": { "fid": 180 }, "geometry": { "type": "Polygon", "coordinates": [ [ [ 2.289231913441927, 48.826810049694345 ], [ 2.289250813608482, 48.826817673544788 ], [ 2.289271075008878, 48.826810794589484 ], [ 2.28926178846337, 48.826799728191759 ], [ 2.289240715271156, 48.826799773665364 ], [ 2.289231913441927, 48.826810049694345 ] ] ] } },
{ "type": "Feature", "properties": { "fid": 181 }, "geometry": { "type": "Polygon", "coordinates": [ [ [ 2.289267897968124, 48.826806763873051 ], [ 2.289289870229377, 48.826807150528694 ], [ 2.289300353708563, 48.82679679913106 ], [ 2.289280171323411, 48.826788399444347 ], [ 2.289259113373842, 48.826796810114722 ], [ 2.289267897968124, 48.826806763873051 ] ] ] } },
{ "type": "Feature", "properties": { "fid": 182 }, "geometry": { "type": "Polygon", "coordinates": [ [ [ 2.289250743352854, 48.826784895581113 ], [ 2.289259243806531, 48.826796725531736 ], [ 2.28928016899632, 48.82678857014691 ], [ 2.289280253819951, 48.826772864743262 ], [ 2.289260731867143, 48.826772919439307 ], [ 2.289250743352854, 48.826784895581113 ] ] ] } },
{ "type": "Feature", "properties": { "fid": 183 }, "geometry": { "type": "Polygon", "coordinates": [ [ [ 2.289280298265401, 48.826788570915149 ], [ 2.289300353708565, 48.826796799131067 ], [ 2.289309674925381, 48.826786355467235 ], [ 2.289299117792336, 48.826773659715705 ], [ 2.289280124550907, 48.826772863975016 ], [ 2.289280298265401, 48.826788570915149 ] ] ] } },
{ "type": "Feature", "properties": { "fid": 184 }, "geometry": { "type": "Polygon", "coordinates": [ [ [ 2.289316060912884, 48.82683001145341 ], [ 2.289334048070317, 48.826838227372029 ], [ 2.289350815709281, 48.826831583716086 ], [ 2.289340011653241, 48.82681803291959 ], [ 2.289315847628827, 48.826817206457299 ], [ 2.289316060912884, 48.82683001145341 ] ] ] } },
{ "type": "Feature", "properties": { "fid": 185 }, "geometry": { "type": "Polygon", "coordinates": [ [ [ 2.289350816872714, 48.826831498364825 ], [ 2.289368225036227, 48.82682528530362 ], [ 2.289368411180845, 48.82681162909924 ], [ 2.289351825045758, 48.82680495795843 ], [ 2.289340011653241, 48.82681803291959 ], [ 2.289350816872714, 48.826831498364825 ] ] ] } },
{ "type": "Feature", "properties": { "fid": 186 }, "geometry": { "type": "Polygon", "coordinates": [ [ [ 2.289316106167137, 48.826817207993706 ], [ 2.289340271355004, 48.826817949104658 ], [ 2.289351954314883, 48.826804958726591 ], [ 2.289336135654478, 48.826798889651521 ], [ 2.289316400651706, 48.826805088880519 ], [ 2.289316106167137, 48.826817207993706 ] ] ] } },
{ "type": "Feature", "properties": { "fid": 187 }, "geometry": { "type": "Polygon", "coordinates": [ [ [ 2.289368541613394, 48.826811544516119 ], [ 2.289387244786142, 48.826805168430973 ], [ 2.289387286532775, 48.826792621024822 ], [ 2.289364412883498, 48.826791972956158 ], [ 2.289351695776634, 48.826804957190262 ], [ 2.289368541613394, 48.826811544516119 ] ] ] } },
{ "type": "Feature", "properties": { "fid": 188 }, "geometry": { "type": "Polygon", "coordinates": [ [ [ 2.289336005221913, 48.826798974234642 ], [ 2.289351954314884, 48.826804958726598 ], [ 2.289364542152589, 48.826791973724319 ], [ 2.289353349130585, 48.826778505975369 ], [ 2.28933658732629, 48.826784722875566 ], [ 2.289336005221913, 48.826798974234642 ] ] ] } },
{ "type": "Feature", "properties": { "fid": 189 }, "geometry": { "type": "Polygon", "coordinates": [ [ [ 2.289364542152589, 48.826791973724319 ], [ 2.289387286532775, 48.826792621024822 ], [ 2.289387452894966, 48.826780415791781 ], [ 2.289369593854706, 48.826772286000178 ], [ 2.289353477236218, 48.826778592094804 ], [ 2.289364543315999, 48.826791888373037 ], [ 2.289364542152589, 48.826791973724319 ] ] ] } },
{ "type": "Feature", "properties": { "fid": 190 }, "geometry": { "type": "Polygon", "coordinates": [ [ [ 2.289056995396378, 48.827691912096732 ], [ 2.289067681927759, 48.827704608627705 ], [ 2.289086685980351, 48.827704636240604 ], [ 2.289086632281371, 48.827689612891128 ], [ 2.289066839726743, 48.827681044778025 ], [ 2.289056995396378, 48.827691912096732 ] ] ] } },
{ "type": "Feature", "properties": { "fid": 191 }, "geometry": { "type": "Polygon", "coordinates": [ [ [ 2.289086815251702, 48.827704637009056 ], [ 2.28910555727005, 48.827704919135677 ], [ 2.289116190022901, 48.827693117560358 ], [ 2.289106521358476, 48.827681622097963 ], [ 2.289086632281371, 48.827689612891128 ], [ 2.289086815251702, 48.827704637009056 ] ] ] } },
{ "type": "Feature", "properties": { "fid": 192 }, "geometry": { "type": "Polygon", "coordinates": [ [ [ 2.289066968998034, 48.827681045546512 ], [ 2.289086632281371, 48.827689612891128 ], [ 2.289106520194625, 48.827681707449173 ], [ 2.289098392314863, 48.827670989368073 ], [ 2.289076929792635, 48.827671117858657 ], [ 2.289066968998034, 48.827681045546512 ] ] ] } },
{ "type": "Feature", "properties": { "fid": 193 }, "geometry": { "type": "Polygon", "coordinates": [ [ [ 2.289098392314863, 48.827670989368073 ], [ 2.289106520194623, 48.827681707449173 ], [ 2.289127950046624, 48.827674494034461 ], [ 2.289128287640953, 48.827659216936176 ], [ 2.289109414039981, 48.82765910474712 ], [ 2.289098392314863, 48.827670989368073 ] ] ] } },
{ "type": "Feature", "properties": { "fid": 194 }, "geometry": { "type": "Polygon", "coordinates": [ [ [ 2.289106521358474, 48.827681622097963 ], [ 2.289116188859064, 48.827693202911561 ], [ 2.289138034549057, 48.827693418123957 ], [ 2.289147359450051, 48.827682718427482 ], [ 2.289127821939164, 48.827674407914841 ], [ 2.289106521358474, 48.827681622097963 ] ] ] } },
{ "type": "Feature", "properties": { "fid": 195 }, "geometry": { "type": "Polygon", "coordinates": [ [ [ 2.28912795121044, 48.827674408683251 ], [ 2.289147230178754, 48.827682717659087 ], [ 2.289158101676142, 48.827672368587166 ], [ 2.289147542073024, 48.827659843534704 ], [ 2.289128286477137, 48.827659302287401 ], [ 2.28912795121044, 48.827674408683251 ] ] ] } },
{ "type": "Feature", "properties": { "fid": 196 }, "geometry": { "type": "Polygon", "coordinates": [ [ [ 2.289138164984183, 48.827693333541141 ], [ 2.289148590665343, 48.827706199230498 ], [ 2.289167592391053, 48.827706397532957 ], [ 2.289167540996261, 48.827691203481116 ], [ 2.289146971636157, 48.827682716122304 ], [ 2.289138164984183, 48.827693333541141 ] ] ] } },
{ "type": "Feature", "properties": { "fid": 197 }, "geometry": { "type": "Polygon", "coordinates": [ [ [ 2.289167593554805, 48.827706312181746 ], [ 2.289186467172993, 48.827706424361629 ], [ 2.289196841365177, 48.827694621242472 ], [ 2.289187423079256, 48.827683724781764 ], [ 2.289167670267581, 48.827691204249476 ], [ 2.289167593554805, 48.827706312181746 ] ] ] } },
{ "type": "Feature", "properties": { "fid": 198 }, "geometry": { "type": "Polygon", "coordinates": [ [ [ 2.289147102071241, 48.827682631539489 ], [ 2.289167669103829, 48.827691289600686 ], [ 2.289187292644234, 48.827683809364643 ], [ 2.289179171729937, 48.827672579181787 ], [ 2.289158102839909, 48.827672283235955 ], [ 2.289147102071241, 48.827682631539489 ] ] ] } },
{ "type": "Feature", "properties": { "fid": 199 }, "geometry": { "type": "Polygon", "coordinates": [ [ [ 2.289187421915536, 48.827683810132989 ], [ 2.289209787014464, 48.827683857703221 ], [ 2.289220002833964, 48.827674187593779 ], [ 2.28919969666934, 48.827665360375683 ], [ 2.289179297510012, 48.827672836003771 ], [ 2.289187421915536, 48.827683810132989 ] ] ] } },
{ "type": "Feature", "properties": { "fid": 200 }, "geometry": { "type": "Polygon", "coordinates": [ [ [ 2.289179429108751, 48.827672666069695 ], [ 2.289199955211853, 48.827665361912338 ], [ 2.289199783846039, 48.827649484281928 ], [ 2.289181684712005, 48.827649462065466 ], [ 2.289169872249208, 48.827662451648742 ], [ 2.289179429108751, 48.827672666069695 ] ] ] } },
{ "type": "Feature", "properties": { "fid": 201 }, "geometry": { "type": "Polygon", "coordinates": [ [ [ 2.289199954048155, 48.827665447263541 ], [ 2.289220130941577, 48.827674273713271 ], [ 2.289229198443443, 48.827663487122422 ], [ 2.289218645807049, 48.827650449968864 ], [ 2.289199783846039, 48.827649484281928 ], [ 2.289199954048155, 48.827665447263541 ] ] ] } },
{ "type": "Feature", "properties": { "fid": 202 }, "geometry": { "type": "Polygon", "coordinates": [ [ [ 2.289254700341818, 48.82770845170139 ], [ 2.28927305803909, 48.827708475443309 ], [ 2.289273269810528, 48.82769294152321 ], [ 2.289253082428378, 48.827684883243478 ], [ 2.289243367407443, 48.827695751345743 ], [ 2.289254700341818, 48.82770845170139 ] ] ] } },
{ "type": "Feature", "properties": { "fid": 203 }, "geometry": { "type": "Polygon", "coordinates": [ [ [ 2.289273059202669, 48.827708390092113 ], [ 2.289292579178658, 48.827708506096506 ], [ 2.289302815931183, 48.827697299658404 ], [ 2.289293148388378, 48.827685718859925 ], [ 2.289273270974107, 48.827692856172007 ], [ 2.289273059202669, 48.827708390092113 ] ] ] } },
{ "type": "Feature", "properties": { "fid": 204 }, "geometry": { "type": "Polygon", "coordinates": [ [ [ 2.289253081264766, 48.827684968594696 ], [ 2.289273270974107, 48.827692856172007 ], [ 2.289293277659687, 48.827685719628164 ], [ 2.289284898179702, 48.827674487916049 ], [ 2.28926408783086, 48.827674193525368 ], [ 2.289253081264766, 48.827684968594696 ] ] ] } },
{ "type": "Feature", "properties": { "fid": 205 }, "geometry": { "type": "Polygon", "coordinates": [ [ [ 2.289293406930997, 48.827685720396403 ], [ 2.289315379562876, 48.827686107047036 ], [ 2.289325988994548, 48.827676012477106 ], [ 2.289305546558853, 48.827667696616096 ], [ 2.289284898179703, 48.827674487916049 ], [ 2.289293406930997, 48.827685720396403 ] ] ] } },
{ "type": "Feature", "properties": { "fid": 206 }, "geometry": { "type": "Polygon", "coordinates": [ [ [ 2.289285027450983, 48.827674488684295 ], [ 2.289305546558853, 48.827667696616096 ], [ 2.289305755993396, 48.827652333397793 ], [ 2.28928649458086, 48.827652218932016 ], [ 2.28927611459954, 48.827664448815469 ], [ 2.289284898179703, 48.827674487916049 ], [ 2.289285027450983, 48.827674488684295 ] ] ] } },
{ "type": "Feature", "properties": { "fid": 207 }, "geometry": { "type": "Polygon", "coordinates": [ [ [ 2.289305676993643, 48.827667612033103 ], [ 2.289325990158041, 48.827675927125902 ], [ 2.289335315017332, 48.827665227414606 ], [ 2.289325011588552, 48.82765287461654 ], [ 2.28930562672217, 48.827652332629576 ], [ 2.289305676993643, 48.827667612033103 ] ] ] } },
{ "type": "Feature", "properties": { "fid": 208 }, "geometry": { "type": "Polygon", "coordinates": [ [ [ 2.289315381889893, 48.827685936344615 ], [ 2.289325932230676, 48.827699144191641 ], [ 2.289344547303924, 48.827699254810192 ], [ 2.289345022250478, 48.827683381021338 ], [ 2.28932599132153, 48.827675841774671 ], [ 2.289315381889893, 48.827685936344615 ] ] ] } },
{ "type": "Feature", "properties": { "fid": 209 }, "geometry": { "type": "Polygon", "coordinates": [ [ [ 2.289344678902191, 48.827699084875945 ], [ 2.289363811060828, 48.82769919856419 ], [ 2.289374313319325, 48.827687481548921 ], [ 2.289365930331318, 48.82767650589615 ], [ 2.289345152685242, 48.827683296438295 ], [ 2.289344678902191, 48.827699084875945 ] ] ] } },
{ "type": "Feature", "properties": { "fid": 210 }, "geometry": { "type": "Polygon", "coordinates": [ [ [ 2.28932599132153, 48.827675841774671 ], [ 2.289345022250478, 48.827683381021338 ], [ 2.289365801060032, 48.827676505127997 ], [ 2.289356769392404, 48.827665696336126 ], [ 2.289335316180805, 48.827665142063388 ], [ 2.28932599132153, 48.827675841774671 ] ] ] } },
{ "type": "Feature", "properties": { "fid": 211 }, "geometry": { "type": "Polygon", "coordinates": [ [ [ 2.289374443754052, 48.82768739696585 ], [ 2.289396418713994, 48.82768761289919 ], [ 2.289406639153052, 48.827677601368983 ], [ 2.289386330628714, 48.827668944885026 ], [ 2.289365930331318, 48.82767650589615 ], [ 2.289374443754052, 48.82768739696585 ] ] ] } },
{ "type": "Feature", "properties": { "fid": 212 }, "geometry": { "type": "Polygon", "coordinates": [ [ [ 2.289356899827105, 48.827665611753069 ], [ 2.289365799896605, 48.827676590479214 ], [ 2.289386458736587, 48.827669031004369 ], [ 2.289386541202849, 48.827653496315392 ], [ 2.289367930799541, 48.827653044298515 ], [ 2.289356899827105, 48.827665611753069 ] ] ] } },
{ "type": "Feature", "properties": { "fid": 213 }, "geometry": { "type": "Polygon", "coordinates": [ [ [ 2.289386588007856, 48.827669031772501 ], [ 2.289406509881764, 48.827677600600872 ], [ 2.289416355299914, 48.827666647902049 ], [ 2.289405403168769, 48.827654461972877 ], [ 2.289386541202849, 48.827653496315392 ], [ 2.289386588007856, 48.827669031772501 ] ] ] } },
{ "type": "Feature", "properties": { "fid": 218 }, "geometry": { "type": "Polygon", "coordinates": [ [ [ 2.288055319583632, 48.828013813750921 ], [ 2.28829987444547, 48.828017317951051 ], [ 2.288301332997285, 48.827948357276085 ], [ 2.288057300208862, 48.827944514752275 ], [ 2.288055319583632, 48.828013813750921 ] ] ] } },
{ "type": "Feature", "properties": { "fid": 219 }, "geometry": { "type": "Polygon", "coordinates": [ [ [ 2.288033634507579, 48.82801129462873 ], [ 2.288033993516984, 48.827985006466939 ], [ 2.287951804483701, 48.827982468550772 ], [ 2.287951417454869, 48.828010805140529 ], [ 2.288033634507579, 48.82801129462873 ] ] ] } },
{ "type": "Feature", "properties": { "fid": 220 }, "geometry": { "type": "Polygon", "coordinates": [ [ [ 2.289218379813147, 48.827968414418329 ], [ 2.289215522241348, 48.828036531050287 ], [ 2.288964845798014, 48.828030901964411 ], [ 2.288966721973185, 48.827964053026896 ], [ 2.289218379813147, 48.827968414418329 ] ] ] } },
{ "type": "Feature", "properties": { "fid": 223 }, "geometry": { "type": "Polygon", "coordinates": [ [ [ 2.288024222214561, 48.828099398069774 ], [ 2.28802672761066, 48.828033624662908 ], [ 2.28795360886892, 48.828033189341262 ], [ 2.287951103380594, 48.828098962746608 ], [ 2.288024222214561, 48.828099398069774 ] ] ] } },
{ "type": "Feature", "properties": { "fid": 224 }, "geometry": { "type": "Polygon", "coordinates": [ [ [ 2.288024222214561, 48.828099398069774 ], [ 2.288085274005465, 48.828100822617792 ], [ 2.288088561094002, 48.828036645516462 ], [ 2.288026720365599, 48.828034155170783 ], [ 2.288024222214561, 48.828099398069774 ] ] ] } },
{ "type": "Feature", "properties": { "fid": 225 }, "geometry": { "type": "Polygon", "coordinates": [ [ [ 2.288086084753636, 48.828100296893076 ], [ 2.288147143791128, 48.828101190901663 ], [ 2.28815043804733, 48.828036483290774 ], [ 2.288088561094002, 48.828036645516462 ], [ 2.288086084753636, 48.828100296893076 ] ] ] } },
{ "type": "Feature", "properties": { "fid": 226 }, "geometry": { "type": "Polygon", "coordinates": [ [ [ 2.288147961782517, 48.828100134668666 ], [ 2.288233936679195, 48.828100646386034 ], [ 2.288235573121648, 48.82803964276367 ], [ 2.288150430803527, 48.828037013798642 ], [ 2.288147961782517, 48.828100134668666 ] ] ] } },
{ "type": "Feature", "properties": { "fid": 227 }, "geometry": { "type": "Polygon", "coordinates": [ [ [ 2.288483877024669, 48.828098419808107 ], [ 2.288780319239572, 48.828103896977105 ], [ 2.28878456819725, 48.828028053461111 ], [ 2.288486541129227, 48.828020975217747 ], [ 2.288483877024669, 48.828098419808107 ] ] ] } },
{ "type": "Feature", "properties": { "fid": 230 }, "geometry": { "type": "Polygon", "coordinates": [ [ [ 2.289034421435556, 48.828032215459373 ], [ 2.289029622205065, 48.82812414980318 ], [ 2.2892969666558, 48.828130420592579 ], [ 2.289302709011709, 48.82796926887962 ], [ 2.289218135828386, 48.827968431849726 ], [ 2.289215686434188, 48.8280366370278 ], [ 2.289034421435556, 48.828032215459373 ] ] ] } }
]
}
