{
"type": "FeatureCollection",
"name": "72_vvt",
"crs": { "type": "name", "properties": { "name": "urn:ogc:def:crs:OGC:1.3:CRS84" } },
"features": [
{ "type": "Feature", "properties": { "fid": 1, "type": null, "nom": "business reinvented arena" }, "geometry": { "type": "Polygon", "coordinates": [ [ [ 2.287432860133752, 48.827915922555867 ], [ 2.287601307830221, 48.827918852389899 ], [ 2.287605113443596, 48.827853862746473 ], [ 2.287527694385339, 48.827808133710946 ], [ 2.287438007373253, 48.8278061546469 ], [ 2.287432860133752, 48.827915922555867 ] ] ] } },
{ "type": "Feature", "properties": { "fid": 2, "type": null, "nom": null }, "geometry": { "type": "Polygon", "coordinates": [ [ [ 2.287699746940289, 48.827920883458496 ], [ 2.287806208631532, 48.82792296222221 ], [ 2.287806590169736, 48.827895033279589 ], [ 2.287700121956286, 48.827893436049671 ], [ 2.287699746940289, 48.827920883458496 ] ] ] } },
{ "type": "Feature", "properties": { "fid": 3, "type": null, "nom": null }, "geometry": { "type": "Polygon", "coordinates": [ [ [ 2.287841209647247, 48.827923652227 ], [ 2.287957881898606, 48.82792579165789 ], [ 2.287957527454205, 48.827898339906 ], [ 2.287840848686369, 48.827896682008266 ], [ 2.287841209647247, 48.827923652227 ] ] ] } },
{ "type": "Feature", "properties": { "fid": 4, "type": "stand", "nom": "g42" }, "geometry": { "type": "Polygon", "coordinates": [ [ [ 2.28770196219921, 48.827865515794429 ], [ 2.287874056368473, 48.827868466963913 ], [ 2.287879571017173, 48.827731733151502 ], [ 2.287706747976807, 48.827728777645774 ], [ 2.28770196219921, 48.827865515794429 ] ] ] } },
{ "type": "Feature", "properties": { "fid": 5, "type": null, "nom": null }, "geometry": { "type": "Polygon", "coordinates": [ [ [ 2.287443095356918, 48.827700720529052 ], [ 2.287483930792531, 48.827701445402234 ], [ 2.287484213783896, 48.827680739458742 ], [ 2.287442642461485, 48.827680491773769 ], [ 2.287443095356918, 48.827700720529052 ] ] ] } },
{ "type": "Feature", "properties": { "fid": 6, "type": null, "nom": null }, "geometry": { "type": "Polygon", "coordinates": [ [ [ 2.287442644106873, 48.827680371390379 ], [ 2.28748457679932, 48.827680862014738 ], [ 2.287485211288537, 48.827661121310641 ], [ 2.287444011223905, 48.827660394265187 ], [ 2.287442644106873, 48.827680371390379 ] ] ] } },
{ "type": "Feature", "properties": { "fid": 7, "type": null, "nom": null }, "geometry": { "type": "Polygon", "coordinates": [ [ [ 2.287444011223905, 48.827660394265187 ], [ 2.287485579239711, 48.827660882716494 ], [ 2.2874858622302, 48.827640176772235 ], [ 2.287444658891337, 48.827639690493768 ], [ 2.287444011223905, 48.827660394265187 ] ] ] } },
{ "type": "Feature", "properties": { "fid": 8, "type": null, "nom": null }, "geometry": { "type": "Polygon", "coordinates": [ [ [ 2.287518558768292, 48.827702735245936 ], [ 2.287604608866679, 48.827703970227013 ], [ 2.287606183727237, 48.827642097505965 ], [ 2.287519765780058, 48.827641101120278 ], [ 2.287518558768292, 48.827702735245936 ] ] ] } },
{ "type": "Feature", "properties": { "fid": 9, "type": "stand", "nom": "ibm" }, "geometry": { "type": "Polygon", "coordinates": [ [ [ 2.287638877121025, 48.827704896713435 ], [ 2.287880239889535, 48.827709464394893 ], [ 2.287882537166654, 48.827648077546968 ], [ 2.287641184551744, 48.827642787569488 ], [ 2.287638877121025, 48.827704896713435 ] ] ] } },
{ "type": "Feature", "properties": { "fid": 10, "type": null, "nom": null }, "geometry": { "type": "Polygon", "coordinates": [ [ [ 2.287522811965478, 48.827605001307695 ], [ 2.287608861902652, 48.827606236285831 ], [ 2.287611678784479, 48.827533535569096 ], [ 2.287525632257627, 48.827532059826126 ], [ 2.287522811965478, 48.827605001307695 ] ] ] } },
{ "type": "Feature", "properties": { "fid": 11, "type": null, "nom": null }, "geometry": { "type": "Polygon", "coordinates": [ [ [ 2.287643498042909, 48.82760692417645 ], [ 2.287795538331123, 48.827609515224125 ], [ 2.28779834837454, 48.827537296036873 ], [ 2.287646314876473, 48.827534223458947 ], [ 2.287643498042909, 48.82760692417645 ] ] ] } },
{ "type": "Feature", "properties": { "fid": 12, "type": null, "nom": null }, "geometry": { "type": "Polygon", "coordinates": [ [ [ 2.287446614438895, 48.827603343398117 ], [ 2.287488915020181, 48.827603595426936 ], [ 2.287492925355502, 48.827496950936009 ], [ 2.287451722129767, 48.827496464659895 ], [ 2.287446614438895, 48.827603343398117 ] ] ] } },
{ "type": "Feature", "properties": { "fid": 13, "type": null, "nom": null }, "geometry": { "type": "Polygon", "coordinates": [ [ [ 2.287452704834834, 48.827477929959592 ], [ 2.287494269414703, 48.827478659174758 ], [ 2.28749660662238, 48.827414383119468 ], [ 2.28745541004329, 48.8274134153109 ], [ 2.287452704834834, 48.827477929959592 ] ] ] } },
{ "type": "Feature", "properties": { "fid": 14, "type": null, "nom": null }, "geometry": { "type": "Polygon", "coordinates": [ [ [ 2.287526677454482, 48.827508950556137 ], [ 2.287613091892753, 48.82751018770378 ], [ 2.287617128286599, 48.827401617065007 ], [ 2.287530717318553, 48.827400139153305 ], [ 2.287526677454482, 48.827508950556137 ] ] ] } },
{ "type": "Feature", "properties": { "fid": 15, "type": null, "nom": null }, "geometry": { "type": "Polygon", "coordinates": [ [ [ 2.287455292187885, 48.827395355624809 ], [ 2.287497221360693, 48.827396087011707 ], [ 2.287501106624319, 48.82729859164187 ], [ 2.287459548769283, 48.827297380895203 ], [ 2.287455292187885, 48.827395355624809 ] ] ] } },
{ "type": "Feature", "properties": { "fid": 16, "type": null, "nom": null }, "geometry": { "type": "Polygon", "coordinates": [ [ [ 2.28753292887406, 48.827371739527166 ], [ 2.287619711033579, 48.827372738075788 ], [ 2.287626192485825, 48.82721867334314 ], [ 2.28753905250577, 48.827217191092835 ], [ 2.28753292887406, 48.827371739527166 ] ] ] } },
{ "type": "Feature", "properties": { "fid": 17, "type": null, "nom": null }, "geometry": { "type": "Polygon", "coordinates": [ [ [ 2.287461287109052, 48.827276924401929 ], [ 2.287502854819275, 48.82727741284738 ], [ 2.287506562962584, 48.827166191581391 ], [ 2.287466447388198, 48.827166193361634 ], [ 2.287461287109052, 48.827276924401929 ] ] ] } },
{ "type": "Feature", "properties": { "fid": 18, "type": null, "nom": null }, "geometry": { "type": "Polygon", "coordinates": [ [ [ 2.287541194952638, 48.827193847566676 ], [ 2.287627244211635, 48.827195082532015 ], [ 2.287632371231461, 48.827086759145679 ], [ 2.287545224891162, 48.827085758433533 ], [ 2.287541194952638, 48.827193847566676 ] ] ] } },
{ "type": "Feature", "properties": { "fid": 19, "type": null, "nom": null }, "geometry": { "type": "Polygon", "coordinates": [ [ [ 2.287466342692107, 48.827147170603943 ], [ 2.287508271665471, 48.827147901987125 ], [ 2.287512498513275, 48.827052094136327 ], [ 2.287470576198142, 48.8270508812207 ], [ 2.287466342692107, 48.827147170603943 ] ] ] } },
{ "type": "Feature", "properties": { "fid": 20, "type": null, "nom": null }, "geometry": { "type": "Polygon", "coordinates": [ [ [ 2.28754671040296, 48.827057113687417 ], [ 2.287633850115678, 48.827058595932321 ], [ 2.287637823924364, 48.82695459982115 ], [ 2.287550681095111, 48.826953358345939 ], [ 2.28754671040296, 48.827057113687417 ] ] ] } },
{ "type": "Feature", "properties": { "fid": 21, "type": null, "nom": null }, "geometry": { "type": "Polygon", "coordinates": [ [ [ 2.287472281619263, 48.827032832392049 ], [ 2.287513849134975, 48.827033320833799 ], [ 2.28751653779269, 48.826970009992884 ], [ 2.287475331692589, 48.826969764491636 ], [ 2.287472281619263, 48.827032832392049 ] ] ] } },
{ "type": "Feature", "properties": { "fid": 22, "type": null, "nom": null }, "geometry": { "type": "Polygon", "coordinates": [ [ [ 2.287476311088746, 48.82695147054941 ], [ 2.287518611141274, 48.826951722567856 ], [ 2.287521054163873, 48.826853014633841 ], [ 2.287480580756647, 48.826852532712408 ], [ 2.287476311088746, 48.82695147054941 ] ] ] } },
{ "type": "Feature", "properties": { "fid": 23, "type": null, "nom": null }, "geometry": { "type": "Polygon", "coordinates": [ [ [ 2.287552826816161, 48.82692977404713 ], [ 2.287639237005239, 48.826931251943506 ], [ 2.287641360686279, 48.826855898401398 ], [ 2.287555676641716, 48.826854665618242 ], [ 2.287552826816161, 48.82692977404713 ] ] ] } },
{ "type": "Feature", "properties": { "fid": 24, "type": null, "nom": null }, "geometry": { "type": "Polygon", "coordinates": [ [ [ 2.287673514621325, 48.826931456119794 ], [ 2.287825543074283, 48.826934769431745 ], [ 2.287828392507228, 48.826859660996668 ], [ 2.287675634963172, 48.826856343344062 ], [ 2.287673514621325, 48.826931456119794 ] ] ] } },
{ "type": "Feature", "properties": { "fid": 25, "type": "restaurant", "nom": "picnic" }, "geometry": { "type": "Polygon", "coordinates": [ [ [ 2.287860185348938, 48.826934975726125 ], [ 2.287914873812215, 48.826936023734518 ], [ 2.287918077905922, 48.826861639769625 ], [ 2.287862295555593, 48.826860585248248 ], [ 2.287860185348938, 48.826934975726125 ] ] ] } },
{ "type": "Feature", "properties": { "fid": 26, "type": "stand", "nom": "cic" }, "geometry": { "type": "Polygon", "coordinates": [ [ [ 2.287667027266901, 48.827059275127844 ], [ 2.287909484306828, 48.827063608502172 ], [ 2.287913822221783, 48.826959614553616 ], [ 2.287672094976434, 48.82695528553176 ], [ 2.287667027266901, 48.827059275127844 ] ] ] } },
{ "type": "Feature", "properties": { "fid": 27, "type": null, "nom": "lab gold ratp" }, "geometry": { "type": "Polygon", "coordinates": [ [ [ 2.287659559129689, 48.827243973997867 ], [ 2.287901455324583, 48.827248702886379 ], [ 2.287908579727771, 48.827091729828091 ], [ 2.287666261780858, 48.827087546483931 ], [ 2.287659559129689, 48.827243973997867 ] ] ] } },
{ "type": "Feature", "properties": { "fid": 28, "type": "stand", "nom": "groupe bouygues" }, "geometry": { "type": "Polygon", "coordinates": [ [ [ 2.287653630847619, 48.827374099848285 ], [ 2.287895535130995, 48.827378280745833 ], [ 2.287900314702361, 48.827271440045386 ], [ 2.287657584671221, 48.82726698021208 ], [ 2.287653630847619, 48.827374099848285 ] ] ] } },
{ "type": "Feature", "properties": { "fid": 29, "type": null, "nom": null }, "geometry": { "type": "Polygon", "coordinates": [ [ [ 2.28764760519344, 48.827511349713191 ], [ 2.287889095117684, 48.827515528151324 ], [ 2.287893908398604, 48.827406221453572 ], [ 2.287652007729629, 48.827401766551631 ], [ 2.28764760519344, 48.827511349713191 ] ] ] } },
{ "type": "Feature", "properties": { "fid": 30, "type": "restaurant", "nom": "picnic" }, "geometry": { "type": "Polygon", "coordinates": [ [ [ 2.287830104444487, 48.827610811052608 ], [ 2.287885295201701, 48.827611413725123 ], [ 2.287887535745885, 48.827538536834879 ], [ 2.287832763804423, 48.82753766263356 ], [ 2.287830104444487, 48.827610811052608 ] ] ] } },
{ "type": "Feature", "properties": { "fid": 31, "type": "stand", "nom": "adobe" }, "geometry": { "type": "Polygon", "coordinates": [ [ [ 2.287908736963826, 48.827870231384473 ], [ 2.288214549575203, 48.827875066158356 ], [ 2.288220977553315, 48.827738640782677 ], [ 2.28791476197203, 48.827732981550305 ], [ 2.287908736963826, 48.827870231384473 ] ] ] } },
{ "type": "Feature", "properties": { "fid": 32, "type": null, "nom": null }, "geometry": { "type": "Polygon", "coordinates": [ [ [ 2.287991260989316, 48.827935940286785 ], [ 2.288075079529212, 48.82793726135187 ], [ 2.288076003402324, 48.827899999677761 ], [ 2.287992596178691, 48.827898955085075 ], [ 2.287990845990483, 48.827935937816044 ], [ 2.287991260989316, 48.827935940286785 ] ] ] } },
{ "type": "Feature", "properties": { "fid": 33, "type": null, "nom": "exhibitiors services" }, "geometry": { "type": "Polygon", "coordinates": [ [ [ 2.288075079529212, 48.82793726135187 ], [ 2.288211587965108, 48.827939992062085 ], [ 2.28821375673644, 48.82790273779694 ], [ 2.288076825915995, 48.82790055262079 ], [ 2.288075079529212, 48.82793726135187 ] ] ] } },
{ "type": "Feature", "properties": { "fid": 34, "type": "stand", "nom": "aws" }, "geometry": { "type": "Polygon", "coordinates": [ [ [ 2.288417771373362, 48.827898240486149 ], [ 2.288594671920805, 48.82790100461407 ], [ 2.288604416558143, 48.827661854051989 ], [ 2.288335502576015, 48.827657686571833 ], [ 2.28832788812931, 48.827835656919959 ], [ 2.288417771373362, 48.827898240486149 ] ] ] } },
{ "type": "Feature", "properties": { "fid": 35, "type": "stand", "nom": "lab founding bnpp" }, "geometry": { "type": "Polygon", "coordinates": [ [ [ 2.288636773307802, 48.82790296673916 ], [ 2.288813014135634, 48.827906582464159 ], [ 2.288909769375616, 48.827845537011001 ], [ 2.288912921705565, 48.827756975856914 ], [ 2.288642074671844, 48.82775194173125 ], [ 2.288636773307802, 48.82790296673916 ] ] ] } },
{ "type": "Feature", "properties": { "fid": 36, "type": "stand", "nom": "region ile de france" }, "geometry": { "type": "Polygon", "coordinates": [ [ [ 2.288642728581437, 48.827751517698594 ], [ 2.288912921705565, 48.827756975856914 ], [ 2.288916068188553, 48.827668842583343 ], [ 2.288645239127808, 48.827662524801745 ], [ 2.288642728581437, 48.827751517698594 ] ] ] } },
{ "type": "Feature", "properties": { "fid": 37, "type": "stand", "nom": "l oreal" }, "geometry": { "type": "Polygon", "coordinates": [ [ [ 2.288337295200686, 48.8276213238438 ], [ 2.288606857064914, 48.82762549517507 ], [ 2.288616905179675, 48.827411593779487 ], [ 2.288346708035609, 48.827406562838341 ], [ 2.288337295200686, 48.8276213238438 ] ] ] } },
{ "type": "Feature", "properties": { "fid": 38, "type": "stand", "nom": "engie" }, "geometry": { "type": "Polygon", "coordinates": [ [ [ 2.28834837798545, 48.827379185742487 ], [ 2.288617932759939, 48.827383784937375 ], [ 2.288625189996849, 48.827231915649826 ], [ 2.288355647688527, 48.827226460695279 ], [ 2.28834837798545, 48.827379185742487 ] ] ] } },
{ "type": "Feature", "properties": { "fid": 39, "type": null, "nom": "lab founding la poste groupe" }, "geometry": { "type": "Polygon", "coordinates": [ [ [ 2.288356657882127, 48.827199935513939 ], [ 2.288626859794856, 48.82720453854585 ], [ 2.288633025203647, 48.827037685451273 ], [ 2.288364126120095, 48.827032662257594 ], [ 2.288356657882127, 48.827199935513939 ] ] ] } },
{ "type": "Feature", "properties": { "fid": 40, "type": "stand", "nom": "salesforce" }, "geometry": { "type": "Polygon", "coordinates": [ [ [ 2.288365141474446, 48.827005761949145 ], [ 2.288634844957118, 48.82701017701671 ], [ 2.288639872944447, 48.826875655638695 ], [ 2.288370706985969, 48.826870892467554 ], [ 2.288365141474446, 48.827005761949145 ] ] ] } },
{ "type": "Feature", "properties": { "fid": 41, "type": "stand", "nom": "lab founding orange" }, "geometry": { "type": "Polygon", "coordinates": [ [ [ 2.28864771448171, 48.827626800377793 ], [ 2.288917948451284, 48.827631569249249 ], [ 2.288930188708895, 48.827358323893279 ], [ 2.288661025024991, 48.827353210097378 ], [ 2.28864771448171, 48.827626800377793 ] ] ] } },
{ "type": "Feature", "properties": { "fid": 42, "type": "stand", "nom": "pwc" }, "geometry": { "type": "Polygon", "coordinates": [ [ [ 2.28866139408873, 48.827326161521448 ], [ 2.288933227407947, 48.827330588573261 ], [ 2.288941087101856, 48.827144441674861 ], [ 2.288670860448051, 48.82713932157337 ], [ 2.28866139408873, 48.827326161521448 ] ] ] } },
{ "type": "Feature", "properties": { "fid": 43, "type": "stand", "nom": "l oreal" }, "geometry": { "type": "Polygon", "coordinates": [ [ [ 2.288671761541424, 48.827112276156846 ], [ 2.288941460809943, 48.82711704181277 ], [ 2.288944647789492, 48.827039421519991 ], [ 2.288674953715129, 48.827034304590605 ], [ 2.288671761541424, 48.827112276156846 ] ] ] } },
{ "type": "Feature", "properties": { "fid": 44, "type": "stand", "nom": "l oreal" }, "geometry": { "type": "Polygon", "coordinates": [ [ [ 2.288674958508044, 48.827033953310291 ], [ 2.288945184616112, 48.827039073403007 ], [ 2.28895211932524, 48.826881728282146 ], [ 2.288680825171473, 48.82687695315569 ], [ 2.288674958508044, 48.827033953310291 ] ] ] } },
{ "type": "Feature", "properties": { "fid": 45, "type": null, "nom": null }, "geometry": { "type": "Polygon", "coordinates": [ [ [ 2.287603095903482, 48.826819071221337 ], [ 2.287645121726347, 48.826819672871068 ], [ 2.287650329841092, 48.826672154138031 ], [ 2.287608840968836, 48.826671204379011 ], [ 2.287603095903482, 48.826819071221337 ] ] ] } },
{ "type": "Feature", "properties": { "fid": 46, "type": null, "nom": null }, "geometry": { "type": "Polygon", "coordinates": [ [ [ 2.287679162252379, 48.826820578251763 ], [ 2.287779702134605, 48.826822230989173 ], [ 2.287784905069933, 48.826675063531006 ], [ 2.287684907102162, 48.826672711405976 ], [ 2.287679162252379, 48.826820578251763 ] ] ] } },
{ "type": "Feature", "properties": { "fid": 47, "type": null, "nom": null }, "geometry": { "type": "Polygon", "coordinates": [ [ [ 2.287814274697896, 48.826823139499965 ], [ 2.287920662157378, 48.826825178251305 ], [ 2.287925869493033, 48.82667765950702 ], [ 2.287820019164758, 48.826675272648018 ], [ 2.287814274697896, 48.826823139499965 ] ] ] } },
{ "type": "Feature", "properties": { "fid": 48, "type": null, "nom": null }, "geometry": { "type": "Polygon", "coordinates": [ [ [ 2.287610212235763, 48.826648728773463 ], [ 2.287728850453315, 48.826649786747758 ], [ 2.287729756826138, 48.826622390046154 ], [ 2.287611123470956, 48.826620980792342 ], [ 2.287610212235763, 48.826648728773463 ] ] ] } },
{ "type": "Feature", "properties": { "fid": 49, "type": null, "nom": null }, "geometry": { "type": "Polygon", "coordinates": [ [ [ 2.28776288127183, 48.826651394665582 ], [ 2.287997996021864, 48.826655956486057 ], [ 2.287997842988251, 48.826628202167022 ], [ 2.287763802023847, 48.826622944122526 ], [ 2.28776288127183, 48.826651394665582 ] ] ] } },
{ "type": "Feature", "properties": { "fid": 50, "type": null, "nom": null }, "geometry": { "type": "Polygon", "coordinates": [ [ [ 2.288031504415565, 48.826656858599037 ], [ 2.288269811403509, 48.826661438889602 ], [ 2.28827126391041, 48.826632991509307 ], [ 2.288033489083645, 48.826628414388921 ], [ 2.288031504415565, 48.826656858599037 ] ] ] } },
{ "type": "Feature", "properties": { "fid": 51, "type": null, "nom": "garden of innovators" }, "geometry": { "type": "Polygon", "coordinates": [ [ [ 2.287931077439172, 48.827379296056186 ], [ 2.288144721318693, 48.827383836666705 ], [ 2.288240412973916, 48.827325024416481 ], [ 2.288246791660439, 48.827159991832815 ], [ 2.288156066624774, 48.827096801295994 ], [ 2.287943241527889, 48.827092810360085 ], [ 2.287931077439172, 48.827379296056186 ] ] ] } },
{ "type": "Feature", "properties": { "fid": 52, "type": null, "nom": "garden of innovators" }, "geometry": { "type": "Polygon", "coordinates": [ [ [ 2.289132093539628, 48.827405508663269 ], [ 2.289343269898489, 48.827409487676867 ], [ 2.28935546336146, 48.827120278129151 ], [ 2.28914511322121, 48.827116304040217 ], [ 2.289048583063312, 48.827176201606683 ], [ 2.289041359574928, 48.827342863554897 ], [ 2.289132093539628, 48.827405508663269 ] ] ] } },
{ "type": "Feature", "properties": { "fid": 53, "type": null, "nom": null }, "geometry": { "type": "Polygon", "coordinates": [ [ [ 2.289377723330231, 48.827545344395269 ], [ 2.289546837317372, 48.827547983525918 ], [ 2.289551592535561, 48.827441233507244 ], [ 2.289382486319663, 48.827438049640051 ], [ 2.289377723330231, 48.827545344395269 ] ] ] } },
{ "type": "Feature", "properties": { "fid": 54, "type": null, "nom": null }, "geometry": { "type": "Polygon", "coordinates": [ [ [ 2.289463039979226, 48.82764227862895 ], [ 2.289543873240583, 48.827644393221881 ], [ 2.289546518106269, 48.827571407472703 ], [ 2.289466495164546, 48.827570387269233 ], [ 2.289463039979226, 48.82764227862895 ] ] ] } },
{ "type": "Feature", "properties": { "fid": 55, "type": "restaurant", "nom": "picnic" }, "geometry": { "type": "Polygon", "coordinates": [ [ [ 2.289372291196934, 48.827641194636641 ], [ 2.28942921266525, 48.827642077644015 ], [ 2.289431032636055, 48.827569086995084 ], [ 2.289376578987891, 48.82756876343911 ], [ 2.289372291196934, 48.827641194636641 ] ] ] } },
{ "type": "Feature", "properties": { "fid": 56, "type": "stand", "nom": "freshworks" }, "geometry": { "type": "Polygon", "coordinates": [ [ [ 2.289383682632853, 48.827410817392384 ], [ 2.289554446289582, 48.827413466317608 ], [ 2.289554215109908, 48.827369881973816 ], [ 2.289384269222846, 48.827367782693713 ], [ 2.289383682632853, 48.827410817392384 ] ] ] } },
{ "type": "Feature", "properties": { "fid": 57, "type": null, "nom": "cmo lounge" }, "geometry": { "type": "Polygon", "coordinates": [ [ [ 2.289577700556504, 48.82764459417433 ], [ 2.289808671854782, 48.827649234734487 ], [ 2.289813523015486, 48.827535403056359 ], [ 2.289582552221079, 48.82753076250512 ], [ 2.289577700556504, 48.82764459417433 ] ] ] } },
{ "type": "Feature", "properties": { "fid": 58, "type": null, "nom": "exec arena" }, "geometry": { "type": "Polygon", "coordinates": [ [ [ 2.289582559644214, 48.827530217762167 ], [ 2.28981434807027, 48.827535407955878 ], [ 2.289820655014662, 48.827375278006784 ], [ 2.289588852453808, 48.827371177310589 ], [ 2.289582559644214, 48.827530217762167 ] ] ] } },
{ "type": "Feature", "properties": { "fid": 59, "type": null, "nom": "tech leaders lounge" }, "geometry": { "type": "Polygon", "coordinates": [ [ [ 2.289589684929009, 48.827370637468626 ], [ 2.289820655014662, 48.827375278006777 ], [ 2.28982550612371, 48.827261446300369 ], [ 2.289594529118952, 48.827257350514202 ], [ 2.289589684929009, 48.827370637468626 ] ] ] } },
{ "type": "Feature", "properties": { "fid": 60, "type": "stand", "nom": "taiwan tech arena" }, "geometry": { "type": "Polygon", "coordinates": [ [ [ 2.289387083495679, 48.827344904485173 ], [ 2.289556818159147, 48.827347291080109 ], [ 2.289566817408489, 48.82712409057136 ], [ 2.289396381502362, 48.827122159201636 ], [ 2.289387083495679, 48.827344904485173 ] ] ] } },
{ "type": "Feature", "properties": { "fid": 61, "type": null, "nom": null }, "geometry": { "type": "Polygon", "coordinates": [ [ [ 2.289595932591017, 48.827234055958051 ], [ 2.289751733941493, 48.82723773765747 ], [ 2.289755310443966, 48.827128425853111 ], [ 2.289600888317252, 48.827125671114167 ], [ 2.289595932591017, 48.827234055958051 ] ] ] } },
{ "type": "Feature", "properties": { "fid": 62, "type": null, "nom": null }, "geometry": { "type": "Polygon", "coordinates": [ [ [ 2.289785134251141, 48.827237476634402 ], [ 2.289826864301689, 48.827238643214876 ], [ 2.28982936324895, 48.827157347346258 ], [ 2.289789018422507, 48.827156648375187 ], [ 2.289785134251141, 48.827237476634402 ] ] ] } },
{ "type": "Feature", "properties": { "fid": 63, "type": null, "nom": null }, "geometry": { "type": "Polygon", "coordinates": [ [ [ 2.289790486415945, 48.827133733236899 ], [ 2.289832418844081, 48.827133982252768 ], [ 2.289836480639384, 48.827034417529717 ], [ 2.289795919197275, 48.827032836896308 ], [ 2.289790486415945, 48.827133733236899 ] ] ] } },
{ "type": "Feature", "properties": { "fid": 64, "type": null, "nom": null }, "geometry": { "type": "Polygon", "coordinates": [ [ [ 2.289796905767894, 48.82701006683002 ], [ 2.289838149603052, 48.827011204928731 ], [ 2.289842381695732, 48.826899136775282 ], [ 2.289801125782871, 48.826898891779273 ], [ 2.289796905767894, 48.82701006683002 ] ] ] } },
{ "type": "Feature", "properties": { "fid": 65, "type": null, "nom": null }, "geometry": { "type": "Polygon", "coordinates": [ [ [ 2.289602935357834, 48.8270982321053 ], [ 2.289757796452776, 48.82710049167909 ], [ 2.289761931389751, 48.826995568347812 ], [ 2.289607746933937, 48.826993312796709 ], [ 2.289602935357834, 48.8270982321053 ] ] ] } },
{ "type": "Feature", "properties": { "fid": 66, "type": null, "nom": null }, "geometry": { "type": "Polygon", "coordinates": [ [ [ 2.289398050279508, 48.827093888753552 ], [ 2.289567790590188, 48.827096236984382 ], [ 2.289573266394261, 48.826992214796043 ], [ 2.289402856180973, 48.826989416003457 ], [ 2.289398050279508, 48.827093888753552 ] ] ] } },
{ "type": "Feature", "properties": { "fid": 67, "type": null, "nom": null }, "geometry": { "type": "Polygon", "coordinates": [ [ [ 2.289607393100892, 48.826969641594786 ], [ 2.289764282796213, 48.826971913213043 ], [ 2.289765968975148, 48.826897789817622 ], [ 2.289611120651466, 48.826894637152662 ], [ 2.289607393100892, 48.826969641594786 ] ] ] } },
{ "type": "Feature", "properties": { "fid": 68, "type": null, "nom": null }, "geometry": { "type": "Polygon", "coordinates": [ [ [ 2.289494464693864, 48.826967630960382 ], [ 2.28957425914644, 48.826968998180092 ], [ 2.289576646262035, 48.826893092602191 ], [ 2.289496839754095, 48.82689261848531 ], [ 2.289494464693864, 48.826967630960382 ] ] ] } },
{ "type": "Feature", "properties": { "fid": 69, "type": "restaurant", "nom": "picnic" }, "geometry": { "type": "Polygon", "coordinates": [ [ [ 2.28940385509553, 48.826965752838241 ], [ 2.289459307846271, 48.82696652890867 ], [ 2.289461689043073, 48.826891069883544 ], [ 2.289405541786699, 48.826891629447509 ], [ 2.28940385509553, 48.826965752838241 ] ] ] } },
{ "type": "Feature", "properties": { "fid": 70, "type": "stand", "nom": "cnrs" }, "geometry": { "type": "Polygon", "coordinates": [ [ [ 2.289408498071868, 48.826854509979455 ], [ 2.289509146511546, 48.826855834385384 ], [ 2.289515561243503, 48.826708049140677 ], [ 2.28941381795096, 48.826706355030481 ], [ 2.289408498071868, 48.826854509979455 ] ] ] } },
{ "type": "Feature", "properties": { "fid": 71, "type": null, "nom": null }, "geometry": { "type": "Polygon", "coordinates": [ [ [ 2.289543234490231, 48.826857126506354 ], [ 2.28964497808121, 48.82685882050626 ], [ 2.289650847332793, 48.826710668814499 ], [ 2.289550204118807, 48.826708981354727 ], [ 2.289543234490231, 48.826857126506354 ] ] ] } },
{ "type": "Feature", "properties": { "fid": 72, "type": null, "nom": "founders lounge" }, "geometry": { "type": "Polygon", "coordinates": [ [ [ 2.289678344829022, 48.826859656968502 ], [ 2.289843771785484, 48.826862869098086 ], [ 2.28985267026181, 48.826664110045954 ], [ 2.289685170839593, 48.826689128054689 ], [ 2.289678344829022, 48.826859656968502 ] ] ] } },
{ "type": "Feature", "properties": { "fid": 73, "type": null, "nom": "inverstors lounge" }, "geometry": { "type": "Polygon", "coordinates": [ [ [ 2.289382186365472, 48.826682629293103 ], [ 2.289685541210497, 48.826689000895762 ], [ 2.2898525039661, 48.8266643334875 ], [ 2.289855182858163, 48.826584911985144 ], [ 2.289386309051362, 48.826575448430901 ], [ 2.289382186365472, 48.826682629293103 ] ] ] } },
{ "type": "Feature", "properties": { "fid": 74, "type": "stand", "nom": "region centre val de loire" }, "geometry": { "type": "Polygon", "coordinates": [ [ [ 2.289067754433414, 48.826763422831718 ], [ 2.289370569691367, 48.826769064429982 ], [ 2.289374022426469, 48.826705481553567 ], [ 2.2890695942938, 48.826699616939187 ], [ 2.289067754433414, 48.826763422831718 ] ] ] } },
{ "type": "Feature", "properties": { "fid": 75, "type": null, "nom": null }, "geometry": { "type": "Polygon", "coordinates": [ [ [ 2.289071493637609, 48.826677141115844 ], [ 2.289348079199252, 48.826681957165022 ], [ 2.28934886145068, 48.826653941259117 ], [ 2.289072272433168, 48.826649389535113 ], [ 2.289071493637609, 48.826677141115844 ] ] ] } },
{ "type": "Feature", "properties": { "fid": 76, "type": "technical zone", "nom": null }, "geometry": { "type": "Polygon", "coordinates": [ [ [ 2.289072677748321, 48.826649248750876 ], [ 2.289349233637762, 48.826653780076413 ], [ 2.289352134797894, 48.826574629146705 ], [ 2.289075582609137, 48.826569857214309 ], [ 2.289072677748321, 48.826649248750876 ] ] ] } },
{ "type": "Feature", "properties": { "fid": 77, "type": null, "nom": "one stage" }, "geometry": { "type": "Polygon", "coordinates": [ [ [ 2.288374121527006, 48.826833964529946 ], [ 2.288954969448445, 48.826845199447099 ], [ 2.288965116943523, 48.826566378167023 ], [ 2.288385178445867, 48.826555148689444 ], [ 2.288374121527006, 48.826833964529946 ] ] ] } },
{ "type": "Feature", "properties": { "fid": 78, "type": "technical zone", "nom": null }, "geometry": { "type": "Polygon", "coordinates": [ [ [ 2.288032918390139, 48.826628518371109 ], [ 2.288271416545613, 48.826633041705648 ], [ 2.288274264820256, 48.8265535266301 ], [ 2.288035767028279, 48.826549003300912 ], [ 2.288032918390139, 48.826628518371109 ] ] ] } },
{ "type": "Feature", "properties": { "fid": 79, "type": "technical zone", "nom": null }, "geometry": { "type": "Polygon", "coordinates": [ [ [ 2.287764466429859, 48.826623040246879 ], [ 2.28799885176955, 48.826627539630593 ], [ 2.288001700459594, 48.826548024561141 ], [ 2.287767903014371, 48.82654352868186 ], [ 2.287764466429859, 48.826623040246879 ] ] ] } },
{ "type": "Feature", "properties": { "fid": 80, "type": "technical zone", "nom": null }, "geometry": { "type": "Polygon", "coordinates": [ [ [ 2.287489169881975, 48.826645453941147 ], [ 2.287611351360877, 48.826648121639302 ], [ 2.287611727719999, 48.826620578641609 ], [ 2.287730394517943, 48.826622449359419 ], [ 2.28773265077999, 48.82654331872623 ], [ 2.287494158383405, 48.826538406387343 ], [ 2.287489169881975, 48.826645453941147 ] ] ] } },
{ "type": "Feature", "properties": { "fid": 81, "type": "technical zone", "nom": null }, "geometry": { "type": "Polygon", "coordinates": [ [ [ 2.287482136784465, 48.826816114919303 ], [ 2.287603736423532, 48.826818391194806 ], [ 2.287609275995442, 48.826670998982088 ], [ 2.287488851777173, 48.826668729713035 ], [ 2.287482136784465, 48.826816114919303 ] ] ] } },
{ "type": "Feature", "properties": { "fid": 82, "type": "startup", "nom": null }, "geometry": { "type": "Polygon", "coordinates": [ [ [ 2.287450754568305, 48.827757994002766 ], [ 2.287470429570746, 48.827758693169272 ], [ 2.287470638999566, 48.827743369967749 ], [ 2.287450477192903, 48.827735296646587 ], [ 2.287440051896556, 48.827745709470555 ], [ 2.287450754568305, 48.827757994002766 ] ] ] } },
{ "type": "Feature", "properties": { "fid": 83, "type": "startup", "nom": null }, "geometry": { "type": "Polygon", "coordinates": [ [ [ 2.287470723346206, 48.827758694919581 ], [ 2.287489524975575, 48.827758806938256 ], [ 2.287499971471763, 48.827746842393481 ], [ 2.287490719110869, 48.827735924368923 ], [ 2.287470638999566, 48.827743369967749 ], [ 2.287470723346206, 48.827758694919581 ] ] ] } },
{ "type": "Feature", "properties": { "fid": 84, "type": "startup", "nom": null }, "geometry": { "type": "Polygon", "coordinates": [ [ [ 2.287450770968229, 48.827735298396931 ], [ 2.28747093277494, 48.827743371718064 ], [ 2.287491012886199, 48.827735926119203 ], [ 2.287482940932096, 48.827724627165821 ], [ 2.287460026461353, 48.827724490641415 ], [ 2.287450770968229, 48.827735298396931 ] ] ] } },
{ "type": "Feature", "properties": { "fid": 85, "type": "startup", "nom": null }, "geometry": { "type": "Polygon", "coordinates": [ [ [ 2.287468743311065, 48.827774589512714 ], [ 2.287488905135754, 48.827782662830501 ], [ 2.287499049908659, 48.827771278429516 ], [ 2.287489233851044, 48.827758611223416 ], [ 2.287471022423656, 48.827758308740748 ], [ 2.287468743311065, 48.827774589512714 ] ] ] } },
{ "type": "Feature", "properties": { "fid": 86, "type": "startup", "nom": null }, "geometry": { "type": "Polygon", "coordinates": [ [ [ 2.287448080932718, 48.827781643677696 ], [ 2.287468452186523, 48.827774393797831 ], [ 2.28747101977266, 48.827758502705308 ], [ 2.287450754568305, 48.827757994002766 ], [ 2.287438532149874, 48.827770917863646 ], [ 2.287448080932718, 48.827781643677696 ] ] ] } },
{ "type": "Feature", "properties": { "fid": 87, "type": "startup", "nom": null }, "geometry": { "type": "Polygon", "coordinates": [ [ [ 2.287448377359388, 48.827781451463494 ], [ 2.287457333292797, 48.827792561705088 ], [ 2.287479946064907, 48.82779327837342 ], [ 2.287488910437616, 48.827782274901367 ], [ 2.287468743311065, 48.827774589512714 ], [ 2.287448377359388, 48.827781451463494 ] ] ] } },
{ "type": "Feature", "properties": { "fid": 88, "type": "startup", "nom": null }, "geometry": { "type": "Polygon", "coordinates": [ [ [ 2.287479943413942, 48.827793472337987 ], [ 2.287490037346025, 48.827807305082118 ], [ 2.287508248790636, 48.827807607561894 ], [ 2.287509662470529, 48.827790157751572 ], [ 2.287488619312955, 48.82778207918652 ], [ 2.287479943413942, 48.827793472337987 ] ] ] } },
{ "type": "Feature", "properties": { "fid": 89, "type": "startup", "nom": null }, "geometry": { "type": "Polygon", "coordinates": [ [ [ 2.287508246139775, 48.827807801526475 ], [ 2.287527632687623, 48.827808111004167 ], [ 2.287539571919991, 48.827794409526184 ], [ 2.287530324843916, 48.82778310357601 ], [ 2.287509665121383, 48.827789963787026 ], [ 2.287508246139775, 48.827807801526475 ] ] ] } },
{ "type": "Feature", "properties": { "fid": 90, "type": "startup", "nom": null }, "geometry": { "type": "Polygon", "coordinates": [ [ [ 2.287489497988799, 48.827782278401934 ], [ 2.287509662470529, 48.827790157751572 ], [ 2.287530621270289, 48.827782911361616 ], [ 2.287520484919159, 48.827772182053813 ], [ 2.28749904990866, 48.827771278429516 ], [ 2.287489497988799, 48.827782278401934 ] ] ] } },
{ "type": "Feature", "properties": { "fid": 91, "type": "startup", "nom": null }, "geometry": { "type": "Polygon", "coordinates": [ [ [ 2.287548266814328, 48.827760126800456 ], [ 2.287570585798145, 48.827760841701583 ], [ 2.287580431472382, 48.827749843472546 ], [ 2.287559388320114, 48.827741764919665 ], [ 2.287539014440962, 48.827749208779792 ], [ 2.287548266814328, 48.827760126800456 ] ] ] } },
{ "type": "Feature", "properties": { "fid": 92, "type": "startup", "nom": null }, "geometry": { "type": "Polygon", "coordinates": [ [ [ 2.287529470946905, 48.827738095043536 ], [ 2.287539308216369, 48.82774921052993 ], [ 2.287559388320114, 48.827741764919665 ], [ 2.287561066599118, 48.827726450468205 ], [ 2.287541092530884, 48.82772613749561 ], [ 2.287529470946905, 48.827738095043536 ] ] ] } },
{ "type": "Feature", "properties": { "fid": 93, "type": "startup", "nom": null }, "geometry": { "type": "Polygon", "coordinates": [ [ [ 2.287559385669447, 48.827741958884218 ], [ 2.287580722597206, 48.82775003918718 ], [ 2.287589978066008, 48.827739231421724 ], [ 2.287580453117026, 48.827726759937356 ], [ 2.287560772823839, 48.82772644871811 ], [ 2.287559385669447, 48.827741958884218 ] ] ] } },
{ "type": "Feature", "properties": { "fid": 94, "type": "startup", "nom": null }, "geometry": { "type": "Polygon", "coordinates": [ [ [ 2.287570585798145, 48.827760841701583 ], [ 2.287580399225358, 48.827773702865535 ], [ 2.287599203510895, 48.827773620902398 ], [ 2.287600299529337, 48.827757915021699 ], [ 2.287580142998149, 48.827749453793302 ], [ 2.287570585798145, 48.827760841701583 ] ] ] } },
{ "type": "Feature", "properties": { "fid": 95, "type": "startup", "nom": null }, "geometry": { "type": "Polygon", "coordinates": [ [ [ 2.287599203510895, 48.827773620902398 ], [ 2.287618293620572, 48.827774122579996 ], [ 2.28763079651866, 48.827762170273601 ], [ 2.287620670752702, 48.827750665115737 ], [ 2.287600595955311, 48.827757722807107 ], [ 2.287599203510895, 48.827773620902398 ] ] ] } },
{ "type": "Feature", "properties": { "fid": 96, "type": "startup", "nom": null }, "geometry": { "type": "Polygon", "coordinates": [ [ [ 2.287581019023206, 48.827749846972623 ], [ 2.287600302179852, 48.827757721057111 ], [ 2.287620670752702, 48.827750665115737 ], [ 2.287611124590498, 48.827739745350605 ], [ 2.287589978066008, 48.827739231421724 ], [ 2.287581019023206, 48.827749846972623 ] ] ] } },
{ "type": "Feature", "properties": { "fid": 97, "type": "startup", "nom": null }, "geometry": { "type": "Polygon", "coordinates": [ [ [ 2.28763079651866, 48.827762170273601 ], [ 2.287652538554793, 48.827762105801249 ], [ 2.287661786059992, 48.827751879924108 ], [ 2.287641338396142, 48.827743222991593 ], [ 2.287620668102263, 48.827750859080304 ], [ 2.28763079651866, 48.827762170273601 ] ] ] } },
{ "type": "Feature", "properties": { "fid": 98, "type": "startup", "nom": null }, "geometry": { "type": "Polygon", "coordinates": [ [ [ 2.287661788710278, 48.827751685959534 ], [ 2.287671626412797, 48.827741269616638 ], [ 2.287662104094197, 48.827728604174219 ], [ 2.287642725526184, 48.82772771282454 ], [ 2.287641632171519, 48.827743224741468 ], [ 2.287661788710278, 48.827751685959534 ] ] ] } },
{ "type": "Feature", "properties": { "fid": 99, "type": "startup", "nom": null }, "geometry": { "type": "Polygon", "coordinates": [ [ [ 2.287611127240972, 48.827739551385996 ], [ 2.287620961877683, 48.827750860830271 ], [ 2.287641341046504, 48.827743029027005 ], [ 2.287643019301473, 48.827727714574422 ], [ 2.287622746156116, 48.827727787794771 ], [ 2.287611127240972, 48.827739551385996 ] ] ] } },
{ "type": "Feature", "properties": { "fid": 100, "type": "startup", "nom": null }, "geometry": { "type": "Polygon", "coordinates": [ [ [ 2.287564738106522, 48.827823268542247 ], [ 2.287581096782117, 48.827830155305605 ], [ 2.287593038656027, 48.827816259858011 ], [ 2.287581184691222, 48.827802222657859 ], [ 2.287564637828241, 48.827809107378776 ], [ 2.287564738106522, 48.827823268542247 ] ] ] } },
{ "type": "Feature", "properties": { "fid": 101, "type": "startup", "nom": null }, "geometry": { "type": "Polygon", "coordinates": [ [ [ 2.287581393208571, 48.827829963091091 ], [ 2.287596587386987, 48.827836066993868 ], [ 2.287616656914174, 48.827829397232811 ], [ 2.287617117668785, 48.827817179215039 ], [ 2.287592744880241, 48.827816258107994 ], [ 2.287581393208571, 48.827829963091091 ] ] ] } },
{ "type": "Feature", "properties": { "fid": 102, "type": "startup", "nom": null }, "geometry": { "type": "Polygon", "coordinates": [ [ [ 2.287593041306573, 48.82781606589343 ], [ 2.287617408794123, 48.827817374929566 ], [ 2.2876169988231, 48.82780437580351 ], [ 2.287599472999687, 48.827796900151178 ], [ 2.287581182040634, 48.827802416622433 ], [ 2.287593041306573, 48.82781606589343 ] ] ] } },
{ "type": "Feature", "properties": { "fid": 103, "type": "startup", "nom": null }, "geometry": { "type": "Polygon", "coordinates": [ [ [ 2.287616953340492, 48.827829205018197 ], [ 2.28763476765239, 48.827837070346781 ], [ 2.287650711061265, 48.827831345903959 ], [ 2.287640918808795, 48.827816933029915 ], [ 2.287617411444577, 48.827817180964999 ], [ 2.287616953340492, 48.827829205018197 ] ] ] } },
{ "type": "Feature", "properties": { "fid": 104, "type": "startup", "nom": null }, "geometry": { "type": "Polygon", "coordinates": [ [ [ 2.287651007487468, 48.827831153689289 ], [ 2.287669009973899, 48.827825247528544 ], [ 2.287668626492585, 48.827810308757073 ], [ 2.287651378533524, 48.827803998649664 ], [ 2.287641212584587, 48.827816934779804 ], [ 2.287651007487468, 48.827831153689289 ] ] ] } },
{ "type": "Feature", "properties": { "fid": 105, "type": "startup", "nom": null }, "geometry": { "type": "Polygon", "coordinates": [ [ [ 2.28761770522037, 48.827817182714952 ], [ 2.287641212584587, 48.827816934779804 ], [ 2.287651378533524, 48.827803998649664 ], [ 2.287637655886842, 48.827797709538601 ], [ 2.287617295249274, 48.827804183588881 ], [ 2.28761770522037, 48.827817182714952 ] ] ] } },
{ "type": "Feature", "properties": { "fid": 106, "type": "startup", "nom": null }, "geometry": { "type": "Polygon", "coordinates": [ [ [ 2.287617839544486, 48.827850354155515 ], [ 2.28763781101039, 48.827850861079781 ], [ 2.287636415924449, 48.827866953138766 ], [ 2.287615459756072, 48.827874005582174 ], [ 2.287605902970374, 48.827863861676079 ], [ 2.287617839544486, 48.827850354155515 ] ] ] } },
{ "type": "Feature", "properties": { "fid": 107, "type": "startup", "nom": null }, "geometry": { "type": "Polygon", "coordinates": [ [ [ 2.287636709700522, 48.827866954888684 ], [ 2.287656577810822, 48.827875026427648 ], [ 2.287666132362699, 48.827863832478251 ], [ 2.287656310946437, 48.827851553216028 ], [ 2.28763781101039, 48.827850861079781 ], [ 2.287636709700522, 48.827866954888684 ] ] ] } },
{ "type": "Feature", "properties": { "fid": 108, "type": "startup", "nom": null }, "geometry": { "type": "Polygon", "coordinates": [ [ [ 2.287624712167593, 48.827884923595725 ], [ 2.287647338233799, 48.827884670409595 ], [ 2.287656876887563, 48.827874640248389 ], [ 2.287636415924449, 48.827866953138766 ], [ 2.287615459756072, 48.827874005582174 ], [ 2.287624712167593, 48.827884923595725 ] ] ] } },
{ "type": "Feature", "properties": { "fid": 109, "type": "startup", "nom": null }, "geometry": { "type": "Polygon", "coordinates": [ [ [ 2.287614842197241, 48.827919199323347 ], [ 2.287634525213909, 48.827919316569094 ], [ 2.287634451420444, 48.827903215761346 ], [ 2.287614575351421, 48.827895726112587 ], [ 2.287604433230034, 48.827906916557538 ], [ 2.287614842197241, 48.827919199323347 ] ] ] } },
{ "type": "Feature", "properties": { "fid": 110, "type": "startup", "nom": null }, "geometry": { "type": "Polygon", "coordinates": [ [ [ 2.287634527864305, 48.827919122604534 ], [ 2.287653911803973, 48.827919626026294 ], [ 2.28766494849755, 48.827907471003982 ], [ 2.287655407597995, 48.827896163314797 ], [ 2.287634451420444, 48.827903215761346 ], [ 2.287634527864305, 48.827919122604534 ] ] ] } },
{ "type": "Feature", "properties": { "fid": 111, "type": "startup", "nom": null }, "geometry": { "type": "Polygon", "coordinates": [ [ [ 2.287614278924715, 48.827895918327144 ], [ 2.287634745196722, 48.827903217511242 ], [ 2.287655407597995, 48.827896163314797 ], [ 2.287647338233799, 48.827884670409595 ], [ 2.287624712167593, 48.827884923595725 ], [ 2.287614278924715, 48.827895918327144 ] ] ] } },
{ "type": "Feature", "properties": { "fid": 112, "type": "startup", "nom": null }, "geometry": { "type": "Polygon", "coordinates": [ [ [ 2.287915967322673, 48.82770557750073 ], [ 2.287934075412658, 48.827713444534822 ], [ 2.28795119385161, 48.827707727048036 ], [ 2.287939641537905, 48.827693109737417 ], [ 2.28791554933007, 48.82769316026819 ], [ 2.287915967322673, 48.82770557750073 ] ] ] } },
{ "type": "Feature", "properties": { "fid": 113, "type": "startup", "nom": null }, "geometry": { "type": "Polygon", "coordinates": [ [ [ 2.287951196500817, 48.827707533083448 ], [ 2.287967732683931, 48.827701424166818 ], [ 2.287967634945566, 48.82768706903753 ], [ 2.287951270965398, 48.827680570255353 ], [ 2.28793934511355, 48.827693301952849 ], [ 2.287951196500817, 48.827707533083448 ] ] ] } },
{ "type": "Feature", "properties": { "fid": 114, "type": "startup", "nom": null }, "geometry": { "type": "Polygon", "coordinates": [ [ [ 2.287915843105174, 48.827693162017411 ], [ 2.287939347762801, 48.827693107988232 ], [ 2.287951567389637, 48.827680378039886 ], [ 2.287936087387821, 48.82767369053839 ], [ 2.28791601796144, 48.827680360353995 ], [ 2.287915843105174, 48.827693162017411 ] ] ] } },
{ "type": "Feature", "properties": { "fid": 115, "type": "startup", "nom": null }, "geometry": { "type": "Polygon", "coordinates": [ [ [ 2.287967640243855, 48.827686681108339 ], [ 2.287987423838246, 48.827679427641236 ], [ 2.287987884504641, 48.827667209620429 ], [ 2.2879646736337, 48.827667265408245 ], [ 2.287951270965398, 48.827680570255353 ], [ 2.287967640243855, 48.827686681108339 ] ] ] } },
{ "type": "Feature", "properties": { "fid": 116, "type": "startup", "nom": null }, "geometry": { "type": "Polygon", "coordinates": [ [ [ 2.287936087387821, 48.82767369053839 ], [ 2.287951567389637, 48.827680378039886 ], [ 2.287964970057814, 48.82766707319275 ], [ 2.287953110728392, 48.827653423956797 ], [ 2.287936582506567, 48.82765895097787 ], [ 2.287936087387821, 48.82767369053839 ] ] ] } },
{ "type": "Feature", "properties": { "fid": 117, "type": "startup", "nom": null }, "geometry": { "type": "Polygon", "coordinates": [ [ [ 2.287953110728392, 48.827653423956797 ], [ 2.287964970057814, 48.82766707319275 ], [ 2.287987887153711, 48.82766701565582 ], [ 2.287988355767086, 48.827654215741042 ], [ 2.28796964689412, 48.827647315039592 ], [ 2.287953110728392, 48.827653423956797 ] ] ] } },
{ "type": "Feature", "properties": { "fid": 118, "type": "startup", "nom": null }, "geometry": { "type": "Polygon", "coordinates": [ [ [ 2.288005192857252, 48.827712122133107 ], [ 2.288026342023765, 48.827712442024001 ], [ 2.288026265460661, 48.827696535178106 ], [ 2.288005807161984, 48.82768865416589 ], [ 2.287995667813897, 48.827699650681517 ], [ 2.288005192857252, 48.827712122133107 ] ] ] } },
{ "type": "Feature", "properties": { "fid": 119, "type": "startup", "nom": null }, "geometry": { "type": "Polygon", "coordinates": [ [ [ 2.288026932223125, 48.827712251557294 ], [ 2.288044550789492, 48.827712938386711 ], [ 2.288056180196175, 48.827700398894699 ], [ 2.288046922429343, 48.827689868841915 ], [ 2.288026268109589, 48.827696341213546 ], [ 2.288026932223125, 48.827712251557294 ] ] ] } },
{ "type": "Feature", "properties": { "fid": 120, "type": "startup", "nom": null }, "geometry": { "type": "Polygon", "coordinates": [ [ [ 2.288005804512982, 48.827688848130499 ], [ 2.288026561884714, 48.827696342962511 ], [ 2.288046919780493, 48.827690062806539 ], [ 2.288036801883372, 48.827677975789364 ], [ 2.288015941207866, 48.827678045578487 ], [ 2.288005804512982, 48.827688848130499 ] ] ] } },
{ "type": "Feature", "properties": { "fid": 121, "type": "startup", "nom": null }, "geometry": { "type": "Polygon", "coordinates": [ [ [ 2.288043743880597, 48.82768597031199 ], [ 2.288065779659509, 48.827685907513398 ], [ 2.288075916341394, 48.827675104956327 ], [ 2.288055754467401, 48.827667031736681 ], [ 2.288034494065527, 48.827674858364318 ], [ 2.288043743880597, 48.82768597031199 ] ] ] } },
{ "type": "Feature", "properties": { "fid": 122, "type": "startup", "nom": null }, "geometry": { "type": "Polygon", "coordinates": [ [ [ 2.288076215413883, 48.827674718775938 ], [ 2.288085460171774, 48.827664686829849 ], [ 2.288075643991748, 48.827652019670701 ], [ 2.288055370876434, 48.827652092964335 ], [ 2.288055754467401, 48.827667031736681 ], [ 2.288076215413883, 48.827674718775938 ] ] ] } },
{ "type": "Feature", "properties": { "fid": 123, "type": "startup", "nom": null }, "geometry": { "type": "Polygon", "coordinates": [ [ [ 2.288034790489426, 48.827674666148674 ], [ 2.288055754467401, 48.827667031736681 ], [ 2.288055961075002, 48.8276519024975 ], [ 2.288035391535939, 48.827652168003532 ], [ 2.288025249552257, 48.827663358486618 ], [ 2.288034790489426, 48.827674666148674 ] ] ] } },
{ "type": "Feature", "properties": { "fid": 124, "type": "startup", "nom": null }, "geometry": { "type": "Polygon", "coordinates": [ [ [ 2.288088312702655, 48.827713974824022 ], [ 2.288108580544741, 48.827714289453972 ], [ 2.288109679057101, 48.827698389603171 ], [ 2.288088622600119, 48.827691280966022 ], [ 2.288078790287809, 48.827701309414486 ], [ 2.288088312702655, 48.827713974824022 ] ] ] } },
{ "type": "Feature", "properties": { "fid": 125, "type": "startup", "nom": null }, "geometry": { "type": "Polygon", "coordinates": [ [ [ 2.288108580544741, 48.827714289453972 ], [ 2.288126791960452, 48.827714591839552 ], [ 2.288138704528845, 48.827702829946638 ], [ 2.288129753762731, 48.827691331825939 ], [ 2.288109980778089, 48.827697809458115 ], [ 2.288108580544741, 48.827714289453972 ] ] ] } },
{ "type": "Feature", "properties": { "fid": 126, "type": "startup", "nom": null }, "geometry": { "type": "Polygon", "coordinates": [ [ [ 2.288088916375218, 48.827691282714802 ], [ 2.288109978129473, 48.827698003422697 ], [ 2.288130047537831, 48.827691333574649 ], [ 2.288120509225529, 48.827679831955791 ], [ 2.288097885899179, 48.827679891266904 ], [ 2.288088916375218, 48.827691282714802 ] ] ] } },
{ "type": "Feature", "properties": { "fid": 127, "type": "startup", "nom": null }, "geometry": { "type": "Polygon", "coordinates": [ [ [ 2.288139294727685, 48.827702639479384 ], [ 2.288161327865102, 48.827702770627809 ], [ 2.288170588501931, 48.827691574887737 ], [ 2.288149539984799, 48.827683884367502 ], [ 2.288129753762731, 48.827691331825939 ], [ 2.288139294727685, 48.827702639479384 ] ] ] } },
{ "type": "Feature", "properties": { "fid": 128, "type": "startup", "nom": null }, "geometry": { "type": "Polygon", "coordinates": [ [ [ 2.28812080035199, 48.827680027669125 ], [ 2.288130047537831, 48.827691333574649 ], [ 2.288150130183384, 48.827683693900177 ], [ 2.288150638484027, 48.827667984515863 ], [ 2.288130656489042, 48.827668253535549 ], [ 2.28812080035199, 48.827680027669125 ] ] ] } },
{ "type": "Feature", "properties": { "fid": 129, "type": "startup", "nom": null }, "geometry": { "type": "Polygon", "coordinates": [ [ [ 2.288150130183383, 48.827683693900198 ], [ 2.28817058850193, 48.827691574887787 ], [ 2.288181021586595, 48.827680580105813 ], [ 2.288169736505506, 48.827667904211673 ], [ 2.28815034735752, 48.827667788802628 ], [ 2.288150130183383, 48.827683693900198 ] ] ] } },
{ "type": "Feature", "properties": { "fid": 130, "type": "startup", "nom": null }, "geometry": { "type": "Polygon", "coordinates": [ [ [ 2.288161621640267, 48.827702772376412 ], [ 2.288169971622942, 48.827715236820389 ], [ 2.288189641322254, 48.827716323797787 ], [ 2.288190742458251, 48.827700229981659 ], [ 2.288170591150321, 48.827691380923177 ], [ 2.288161621640267, 48.827702772376412 ] ] ] } },
{ "type": "Feature", "properties": { "fid": 131, "type": "startup", "nom": null }, "geometry": { "type": "Polygon", "coordinates": [ [ [ 2.288189641322254, 48.827716323797787 ], [ 2.288209334856611, 48.827715665090551 ], [ 2.288220662504483, 48.82770370572787 ], [ 2.288211420593273, 48.827692011900226 ], [ 2.288190745106567, 48.827700036017049 ], [ 2.288189641322254, 48.827716323797787 ] ] ] } },
{ "type": "Feature", "properties": { "fid": 132, "type": "startup", "nom": null }, "geometry": { "type": "Polygon", "coordinates": [ [ [ 2.28817058850193, 48.827691574887787 ], [ 2.288191038881719, 48.827700037765595 ], [ 2.288211420593273, 48.827692011900226 ], [ 2.288201869021527, 48.827681480110904 ], [ 2.288180725163199, 48.827680772321841 ], [ 2.28817058850193, 48.827691574887787 ] ] ] } },
{ "type": "Feature", "properties": { "fid": 133, "type": null, "nom": "stage" }, "geometry": { "type": "Polygon", "coordinates": [ [ [ 2.289464118896466, 48.827955127222673 ], [ 2.289796610639964, 48.827961757723763 ], [ 2.289808599036129, 48.827685600959903 ], [ 2.289476109052305, 48.827678970490538 ], [ 2.289464118896466, 48.827955127222673 ] ] ] } },
{ "type": "Feature", "properties": { "fid": 134, "type": null, "nom": null }, "geometry": { "type": "Polygon", "coordinates": [ [ [ 2.289431204738349, 48.827740195460777 ], [ 2.289473497824816, 48.827741222663676 ], [ 2.289476693958926, 48.827679167945938 ], [ 2.289433813372597, 48.827678137253116 ], [ 2.289431204738349, 48.827740195460777 ] ] ] } },
{ "type": "Feature", "properties": { "fid": 135, "type": null, "nom": null }, "geometry": { "type": "Polygon", "coordinates": [ [ [ 2.289424336474544, 48.827899218511014 ], [ 2.289466629689879, 48.827900245716201 ], [ 2.289472603622319, 48.827763719068848 ], [ 2.28942971767911, 48.827763076303889 ], [ 2.289424336474544, 48.827899218511014 ] ] ] } },
{ "type": "Feature", "properties": { "fid": 136, "type": null, "nom": null }, "geometry": { "type": "Polygon", "coordinates": [ [ [ 2.289314898878982, 48.827952882705084 ], [ 2.289428868344491, 48.827954723802705 ], [ 2.289429243752842, 48.827927180831381 ], [ 2.28931527434753, 48.827925339734072 ], [ 2.289314898878982, 48.827952882705084 ] ] ] } },
{ "type": "Feature", "properties": { "fid": 137, "type": null, "nom": null }, "geometry": { "type": "Polygon", "coordinates": [ [ [ 2.289152056716097, 48.827958510225336 ], [ 2.289230190725343, 48.827959750543236 ], [ 2.289231487476957, 48.827950835156521 ], [ 2.289279656262512, 48.827951897347418 ], [ 2.289281212144023, 48.827923973430792 ], [ 2.289153734324399, 48.827921663939698 ], [ 2.289152056716097, 48.827958510225336 ] ] ] } },
{ "type": "Feature", "properties": { "fid": 138, "type": null, "nom": null }, "geometry": { "type": "Polygon", "coordinates": [ [ [ 2.289013415306075, 48.827956134229211 ], [ 2.289117994495194, 48.827957143875572 ], [ 2.289118491732078, 48.827920678534497 ], [ 2.289014516040504, 48.827918508594053 ], [ 2.289013415306075, 48.827956134229211 ] ] ] } },
{ "type": "Feature", "properties": { "fid": 139, "type": "stand", "nom": "japan" }, "geometry": { "type": "Polygon", "coordinates": [ [ [ 2.289017231296539, 48.827891755453649 ], [ 2.289390851262415, 48.82789863158834 ], [ 2.289395073315212, 48.827761318612566 ], [ 2.289022624144321, 48.827754837405486 ], [ 2.289017231296539, 48.827891755453649 ] ] ] } },
{ "type": "Feature", "properties": { "fid": 140, "type": "startup", "nom": null }, "geometry": { "type": "Polygon", "coordinates": [ [ [ 2.289044666399228, 48.827732757696602 ], [ 2.28906434934872, 48.827732874707046 ], [ 2.289065153794709, 48.827716973101325 ], [ 2.289044983815925, 48.827709481942641 ], [ 2.289035434878741, 48.827720288074516 ], [ 2.289044666399228, 48.827732757696602 ] ] ] } },
{ "type": "Feature", "properties": { "fid": 141, "type": "startup", "nom": null }, "geometry": { "type": "Polygon", "coordinates": [ [ [ 2.28906434934872, 48.827732874707046 ], [ 2.289083733232942, 48.827733377897133 ], [ 2.289095359749288, 48.827721032268904 ], [ 2.289085807993663, 48.827710500550417 ], [ 2.289064862664497, 48.827716777390307 ], [ 2.28906434934872, 48.827732874707046 ] ] ] } },
{ "type": "Feature", "properties": { "fid": 142, "type": "startup", "nom": null }, "geometry": { "type": "Polygon", "coordinates": [ [ [ 2.28904527759116, 48.827709483689084 ], [ 2.289064862664497, 48.827716777390307 ], [ 2.28908551421842, 48.827710498804073 ], [ 2.289076862307389, 48.827698614571482 ], [ 2.289054538039356, 48.827698287880665 ], [ 2.28904527759116, 48.827709483689084 ] ] ] } },
{ "type": "Feature", "properties": { "fid": 143, "type": "startup", "nom": null }, "geometry": { "type": "Polygon", "coordinates": [ [ [ 2.28909536503919, 48.827720644339678 ], [ 2.289117689317052, 48.827720971022828 ], [ 2.289126933882741, 48.827710938996645 ], [ 2.289105893151452, 48.827702666750959 ], [ 2.289085223088168, 48.827710303093113 ], [ 2.28909536503919, 48.827720644339678 ] ] ] } },
{ "type": "Feature", "properties": { "fid": 144, "type": "startup", "nom": null }, "geometry": { "type": "Polygon", "coordinates": [ [ [ 2.289085519508395, 48.827710110874833 ], [ 2.289105893151452, 48.827702666750959 ], [ 2.289107287779426, 48.827686574672477 ], [ 2.289088480882684, 48.827686850837381 ], [ 2.289077156082562, 48.827698616317853 ], [ 2.289085519508395, 48.827710110874833 ] ] ] } },
{ "type": "Feature", "properties": { "fid": 145, "type": "startup", "nom": null }, "geometry": { "type": "Polygon", "coordinates": [ [ [ 2.289105893151452, 48.827702666750959 ], [ 2.289126933882741, 48.827710938996645 ], [ 2.289136482799247, 48.827700132857402 ], [ 2.289127253907407, 48.827687469277379 ], [ 2.28910729042433, 48.827686380707874 ], [ 2.289105893151452, 48.827702666750959 ] ] ] } },
{ "type": "Feature", "properties": { "fid": 146, "type": "startup", "nom": null }, "geometry": { "type": "Polygon", "coordinates": [ [ [ 2.289117689317052, 48.827720971022828 ], [ 2.289127492539084, 48.827734607918778 ], [ 2.289146881714082, 48.827734723169378 ], [ 2.289147686134926, 48.827718821563131 ], [ 2.289126640107496, 48.827710937250409 ], [ 2.289117689317052, 48.827720971022828 ] ] ] } },
{ "type": "Feature", "properties": { "fid": 147, "type": "startup", "nom": null }, "geometry": { "type": "Polygon", "coordinates": [ [ [ 2.289147474554356, 48.827734338732533 ], [ 2.289166268244475, 48.827735032381469 ], [ 2.289178183227671, 48.827723076420604 ], [ 2.289167474866696, 48.827711179971828 ], [ 2.289147686134926, 48.827718821563131 ], [ 2.289147474554356, 48.827734338732533 ] ] ] } },
{ "type": "Feature", "properties": { "fid": 148, "type": "startup", "nom": null }, "geometry": { "type": "Polygon", "coordinates": [ [ [ 2.289126933882741, 48.827710938996645 ], [ 2.289147982554971, 48.827718629344716 ], [ 2.289167771286625, 48.827710987753356 ], [ 2.289158518582827, 48.827700069857507 ], [ 2.289136189024064, 48.827700131111165 ], [ 2.289126933882741, 48.827710938996645 ] ] ] } },
{ "type": "Feature", "properties": { "fid": 149, "type": "startup", "nom": null }, "geometry": { "type": "Polygon", "coordinates": [ [ [ 2.289167773931306, 48.827710793788739 ], [ 2.289190090271608, 48.827711702352275 ], [ 2.289199927661234, 48.827701285883279 ], [ 2.289180054088939, 48.827693602528683 ], [ 2.289158812358013, 48.827700071603665 ], [ 2.289167773931306, 48.827710793788739 ] ] ] } },
{ "type": "Feature", "properties": { "fid": 150, "type": "startup", "nom": null }, "geometry": { "type": "Polygon", "coordinates": [ [ [ 2.289200221436427, 48.827701287629345 ], [ 2.28921035788624, 48.827690484976237 ], [ 2.2891993663278, 48.827677810925429 ], [ 2.289180265659646, 48.827678085358677 ], [ 2.289180051444303, 48.82769379649335 ], [ 2.289200221436427, 48.827701287629345 ] ] ] } },
{ "type": "Feature", "properties": { "fid": 151, "type": "startup", "nom": null }, "geometry": { "type": "Polygon", "coordinates": [ [ [ 2.28915910877791, 48.827699879385214 ], [ 2.289180054088939, 48.827693602528683 ], [ 2.289180263015013, 48.827678279323308 ], [ 2.289161178214812, 48.827677389965764 ], [ 2.289149549079037, 48.827689929565494 ], [ 2.28915910877791, 48.827699879385214 ] ] ] } },
{ "type": "Feature", "properties": { "fid": 152, "type": "startup", "nom": null }, "geometry": { "type": "Polygon", "coordinates": [ [ [ 2.289234114491578, 48.827736599510601 ], [ 2.289253800087308, 48.827736522525242 ], [ 2.289254604475569, 48.827720620918292 ], [ 2.289233550497934, 48.827713318518242 ], [ 2.289223988376767, 48.827725094488237 ], [ 2.289234114491578, 48.827736599510601 ] ] ] } },
{ "type": "Feature", "properties": { "fid": 153, "type": "startup", "nom": null }, "geometry": { "type": "Polygon", "coordinates": [ [ [ 2.289253800087308, 48.827736522525242 ], [ 2.28927259377963, 48.827737216157459 ], [ 2.289284508738942, 48.827725260186014 ], [ 2.289274086195662, 48.827713947386535 ], [ 2.289254313344625, 48.82772042520773 ], [ 2.289253800087308, 48.827736522525242 ] ] ] } },
{ "type": "Feature", "properties": { "fid": 154, "type": "startup", "nom": null }, "geometry": { "type": "Polygon", "coordinates": [ [ [ 2.28923384162876, 48.827713514228861 ], [ 2.289254607119927, 48.827720426953682 ], [ 2.289273789776108, 48.82771413960527 ], [ 2.289265439529707, 48.827701675238366 ], [ 2.289243403745577, 48.827701738257993 ], [ 2.28923384162876, 48.827713514228861 ] ] ] } },
{ "type": "Feature", "properties": { "fid": 155, "type": "startup", "nom": null }, "geometry": { "type": "Polygon", "coordinates": [ [ [ 2.289274088839947, 48.827713753421932 ], [ 2.289297291797583, 48.827714279273842 ], [ 2.28930625577314, 48.827703275664781 ], [ 2.289286969734742, 48.827695595819613 ], [ 2.289265439529707, 48.827701675238366 ], [ 2.289274088839947, 48.827713753421932 ] ] ] } },
{ "type": "Feature", "properties": { "fid": 156, "type": "startup", "nom": null }, "geometry": { "type": "Polygon", "coordinates": [ [ [ 2.289265442174024, 48.827701481273749 ], [ 2.289286969734742, 48.827695595819613 ], [ 2.289287191850577, 48.827679302790912 ], [ 2.289267215145742, 48.827679184071243 ], [ 2.289256475293543, 48.827691147025142 ], [ 2.289265442174024, 48.827701481273749 ] ] ] } },
{ "type": "Feature", "properties": { "fid": 157, "type": "startup", "nom": null }, "geometry": { "type": "Polygon", "coordinates": [ [ [ 2.28928755728507, 48.827695599311326 ], [ 2.28930625577314, 48.827703275664781 ], [ 2.289316977107537, 48.82769267045888 ], [ 2.289306872136271, 48.827679613726062 ], [ 2.289286898075507, 48.827679301045038 ], [ 2.28928755728507, 48.827695599311326 ] ] ] } },
{ "type": "Feature", "properties": { "fid": 158, "type": "startup", "nom": null }, "geometry": { "type": "Polygon", "coordinates": [ [ [ 2.289297291797583, 48.827714279273842 ], [ 2.28930711357448, 48.827726558402794 ], [ 2.289326497458698, 48.827727061553531 ], [ 2.28932730182464, 48.827711159945963 ], [ 2.289305961997933, 48.827703273918964 ], [ 2.289297291797583, 48.827714279273842 ] ] ] } },
{ "type": "Feature", "properties": { "fid": 159, "type": "startup", "nom": null }, "geometry": { "type": "Polygon", "coordinates": [ [ [ 2.28932679387813, 48.827726869334676 ], [ 2.289345000017253, 48.827727559464009 ], [ 2.28935663175839, 48.827714825881053 ], [ 2.289347085239148, 48.827703906254129 ], [ 2.289327894663317, 48.827710775508216 ], [ 2.28932679387813, 48.827726869334676 ] ] ] } },
{ "type": "Feature", "properties": { "fid": 160, "type": "startup", "nom": null }, "geometry": { "type": "Polygon", "coordinates": [ [ [ 2.289306258417306, 48.827703081700157 ], [ 2.289327304468727, 48.827710965981339 ], [ 2.289347082595134, 48.827704100218774 ], [ 2.289339301374809, 48.827692997100705 ], [ 2.289317268238561, 48.827692866169308 ], [ 2.289306258417306, 48.827703081700157 ] ] ] } },
{ "type": "Feature", "properties": { "fid": 161, "type": "startup", "nom": null }, "geometry": { "type": "Polygon", "coordinates": [ [ [ 2.289347079951121, 48.82770429418337 ], [ 2.28935663175839, 48.827714825881053 ], [ 2.289379538298163, 48.827715543935959 ], [ 2.289388499612718, 48.827704734285369 ], [ 2.289368334880077, 48.827696855251901 ], [ 2.289347079951121, 48.82770429418337 ] ] ] } },
{ "type": "Feature", "properties": { "fid": 162, "type": "startup", "nom": null }, "geometry": { "type": "Polygon", "coordinates": [ [ [ 2.289388798675655, 48.82770434810174 ], [ 2.289399228862145, 48.827693547178235 ], [ 2.289388517812935, 48.827681844713567 ], [ 2.289368252619673, 48.827681336335914 ], [ 2.289368329592208, 48.827697243181134 ], [ 2.289388798675655, 48.82770434810174 ] ] ] } },
{ "type": "Feature", "properties": { "fid": 163, "type": "startup", "nom": null }, "geometry": { "type": "Polygon", "coordinates": [ [ [ 2.289339592505918, 48.827693192811054 ], [ 2.289347376370347, 48.827704101964478 ], [ 2.289368337524011, 48.82769666128727 ], [ 2.289368252619673, 48.827681336335914 ], [ 2.289350038564381, 48.827681228103984 ], [ 2.289339592505918, 48.827693192811054 ] ] ] } },
{ "type": "Feature", "properties": { "fid": 164, "type": "stand", "nom": "renault software republique" }, "geometry": { "type": "Polygon", "coordinates": [ [ [ 2.287959992034188, 48.826740883872986 ], [ 2.288265449022199, 48.826747357716464 ], [ 2.288269255255909, 48.826683754754534 ], [ 2.287961443186786, 48.826677654857079 ], [ 2.287959992034188, 48.826740883872986 ] ] ] } },
{ "type": "Feature", "properties": { "fid": 165, "type": "startup", "nom": null }, "geometry": { "type": "Polygon", "coordinates": [ [ [ 2.288007262742856, 48.826829135483571 ], [ 2.288026450519284, 48.826822460400741 ], [ 2.28802662004771, 48.826810046656746 ], [ 2.288002245073782, 48.826809319597047 ], [ 2.287990306188595, 48.826823021133272 ], [ 2.288007262742856, 48.826829135483571 ] ] ] } },
{ "type": "Feature", "properties": { "fid": 166, "type": "startup", "nom": null }, "geometry": { "type": "Polygon", "coordinates": [ [ [ 2.288026919115603, 48.826809660476158 ], [ 2.288027091292754, 48.826797052767269 ], [ 2.288008388020148, 48.826789764137125 ], [ 2.287991267239863, 48.826795675601502 ], [ 2.288002832614035, 48.826809323095077 ], [ 2.288026919115603, 48.826809660476158 ] ] ] } },
{ "type": "Feature", "properties": { "fid": 167, "type": "startup", "nom": null }, "geometry": { "type": "Polygon", "coordinates": [ [ [ 2.287974823787299, 48.826816527596414 ], [ 2.287990599958797, 48.826823022882309 ], [ 2.288002247722754, 48.826809125632316 ], [ 2.287991267239863, 48.826795675601502 ], [ 2.287974141157545, 48.826801974992897 ], [ 2.287974823787299, 48.826816527596414 ] ] ] } },
{ "type": "Feature", "properties": { "fid": 168, "type": "startup", "nom": null }, "geometry": { "type": "Polygon", "coordinates": [ [ [ 2.287956919986488, 48.826793725276374 ], [ 2.287974141157545, 48.826801974992897 ], [ 2.287991854779963, 48.826795679099568 ], [ 2.287980876951635, 48.826782035102894 ], [ 2.287957378003068, 48.826781701210756 ], [ 2.287956919986488, 48.826793725276374 ] ] ] } },
{ "type": "Feature", "properties": { "fid": 169, "type": "startup", "nom": null }, "geometry": { "type": "Polygon", "coordinates": [ [ [ 2.287991561009914, 48.826795677350539 ], [ 2.288008388020148, 48.826789764137125 ], [ 2.288009184826826, 48.826774444419378 ], [ 2.287992519411014, 48.826768525782882 ], [ 2.287980585830714, 48.826781839389085 ], [ 2.287991561009914, 48.826795677350539 ] ] ] } },
{ "type": "Feature", "properties": { "fid": 170, "type": "startup", "nom": null }, "geometry": { "type": "Polygon", "coordinates": [ [ [ 2.287957671773039, 48.826781702959877 ], [ 2.287980876951635, 48.826782035102894 ], [ 2.287992522060021, 48.826768331818087 ], [ 2.287977029078438, 48.826762614140264 ], [ 2.28795666888725, 48.826769088254274 ], [ 2.287957671773039, 48.826781702959877 ] ] ] } },
{ "type": "Feature", "properties": { "fid": 171, "type": "startup", "nom": null }, "geometry": { "type": "Polygon", "coordinates": [ [ [ 2.288058484957671, 48.826800149372076 ], [ 2.288081099956285, 48.826800671962651 ], [ 2.288090053436869, 48.826790444294815 ], [ 2.288069304362846, 48.826782367573522 ], [ 2.28804834868898, 48.826789420099587 ], [ 2.288058484957671, 48.826800149372076 ] ] ] } },
{ "type": "Feature", "properties": { "fid": 172, "type": "startup", "nom": null }, "geometry": { "type": "Polygon", "coordinates": [ [ [ 2.288090349855535, 48.826790252078865 ], [ 2.288099607696911, 48.82677925029995 ], [ 2.28809007750412, 48.826767166775035 ], [ 2.288070109097662, 48.826766465961008 ], [ 2.288069600781544, 48.826782175357614 ], [ 2.288090349855535, 48.826790252078865 ] ] ] } },
{ "type": "Feature", "properties": { "fid": 173, "type": "startup", "nom": null }, "geometry": { "type": "Polygon", "coordinates": [ [ [ 2.288048353986578, 48.82678903217009 ], [ 2.288070190970212, 48.82678198489053 ], [ 2.288070109097662, 48.826766465961008 ], [ 2.288050725582718, 48.826765962606203 ], [ 2.288039390153113, 48.826778503857078 ], [ 2.288048353986578, 48.82678903217009 ] ] ] } },
{ "type": "Feature", "properties": { "fid": 174, "type": "startup", "nom": null }, "geometry": { "type": "Polygon", "coordinates": [ [ [ 2.288066498621256, 48.826815715520425 ], [ 2.2880763146416, 48.826828382689797 ], [ 2.288095698179998, 48.826828886040417 ], [ 2.288096502907482, 48.826812984428408 ], [ 2.288075753823489, 48.826804907708393 ], [ 2.288066498621256, 48.826815715520425 ] ] ] } },
{ "type": "Feature", "properties": { "fid": 175, "type": "startup", "nom": null }, "geometry": { "type": "Polygon", "coordinates": [ [ [ 2.288095700828622, 48.826828692075651 ], [ 2.288116262096842, 48.826829008453359 ], [ 2.288126710911406, 48.826816849879137 ], [ 2.288116582571064, 48.826805538718354 ], [ 2.288096502907482, 48.826812984428408 ], [ 2.288095700828622, 48.826828692075651 ] ] ] } },
{ "type": "Feature", "properties": { "fid": 176, "type": "startup", "nom": null }, "geometry": { "type": "Polygon", "coordinates": [ [ [ 2.288076047593594, 48.826804909457223 ], [ 2.288096799326252, 48.826812792212436 ], [ 2.288116878989718, 48.826805346502312 ], [ 2.288108214206812, 48.826794432013848 ], [ 2.288087065412191, 48.826794112137179 ], [ 2.288076047593594, 48.826804909457223 ] ] ] } },
{ "type": "Feature", "properties": { "fid": 177, "type": "startup", "nom": null }, "geometry": { "type": "Polygon", "coordinates": [ [ [ 2.288141899769556, 48.826801809811371 ], [ 2.288164506824622, 48.826802914280407 ], [ 2.28817229050575, 48.826792291682459 ], [ 2.288153015565023, 48.826783835789172 ], [ 2.288131467064856, 48.826791272762023 ], [ 2.288141899769556, 48.826801809811371 ] ] ] } },
{ "type": "Feature", "properties": { "fid": 178, "type": "startup", "nom": null }, "geometry": { "type": "Polygon", "coordinates": [ [ [ 2.288172586924126, 48.826792099466282 ], [ 2.288182432288422, 48.826781101178206 ], [ 2.288173206439335, 48.826768243549466 ], [ 2.288152933667817, 48.826768316859678 ], [ 2.288152727091857, 48.826783446110994 ], [ 2.288172586924126, 48.826792099466282 ] ] ] } },
{ "type": "Feature", "properties": { "fid": 179, "type": "startup", "nom": null }, "geometry": { "type": "Polygon", "coordinates": [ [ [ 2.288122802281234, 48.826780358274469 ], [ 2.288132351023431, 48.826791084043336 ], [ 2.288152724443446, 48.82678364007576 ], [ 2.288153224789309, 48.826768512573111 ], [ 2.28813295466614, 48.82676839191523 ], [ 2.288122802281234, 48.826780358274469 ] ] ] } },
{ "type": "Feature", "properties": { "fid": 180, "type": "startup", "nom": null }, "geometry": { "type": "Polygon", "coordinates": [ [ [ 2.288164803243084, 48.826802722064265 ], [ 2.288172854015531, 48.826815572698926 ], [ 2.288192835683493, 48.826815303671978 ], [ 2.288193346611061, 48.826799400310563 ], [ 2.288172584275788, 48.826792293431048 ], [ 2.288164803243084, 48.826802722064265 ] ] ] } },
{ "type": "Feature", "properties": { "fid": 181, "type": "startup", "nom": null }, "geometry": { "type": "Polygon", "coordinates": [ [ [ 2.288192838331756, 48.826815109707219 ], [ 2.288212216569961, 48.826816000968485 ], [ 2.288222670655844, 48.826803454456233 ], [ 2.288213418311027, 48.826792536478436 ], [ 2.288193640381138, 48.826799402059102 ], [ 2.288192838331756, 48.826815109707219 ] ] ] } },
{ "type": "Feature", "properties": { "fid": 182, "type": "startup", "nom": null }, "geometry": { "type": "Polygon", "coordinates": [ [ [ 2.288172584275788, 48.826792293431048 ], [ 2.288193936799473, 48.826799209842882 ], [ 2.288214299621143, 48.826792541723904 ], [ 2.288204750861821, 48.826781815961581 ], [ 2.288182434936722, 48.826780907213426 ], [ 2.288172584275788, 48.826792293431048 ] ] ] } },
{ "type": "Feature", "properties": { "fid": 183, "type": "startup", "nom": null }, "geometry": { "type": "Polygon", "coordinates": [ [ [ 2.288223258196046, 48.826803457953197 ], [ 2.288245285657537, 48.826803977015764 ], [ 2.288255414186667, 48.826793756329209 ], [ 2.288234961503815, 48.826785487420331 ], [ 2.288214302269325, 48.826792347759145 ], [ 2.288223258196046, 48.826803457953197 ] ] ] } },
{ "type": "Feature", "properties": { "fid": 184, "type": "startup", "nom": null }, "geometry": { "type": "Polygon", "coordinates": [ [ [ 2.288205341049993, 48.826781625493851 ], [ 2.288214892457582, 48.826792157291372 ], [ 2.288235845461918, 48.826785298700884 ], [ 2.288235763540053, 48.826769779771524 ], [ 2.288216377374104, 48.82676947040833 ], [ 2.288205341049993, 48.826781625493851 ] ] ] } },
{ "type": "Feature", "properties": { "fid": 185, "type": "startup", "nom": null }, "geometry": { "type": "Polygon", "coordinates": [ [ [ 2.288236139231917, 48.826785300449295 ], [ 2.288255707956716, 48.826793758077606 ], [ 2.288265553303791, 48.826782759782688 ], [ 2.288253974626574, 48.826770082138005 ], [ 2.288236059958064, 48.826769587555205 ], [ 2.288236139231917, 48.826785300449295 ] ] ] } },
{ "type": "Feature", "properties": { "fid": 186, "type": "escaliers", "nom": null }, "geometry": { "type": "Polygon", "coordinates": [ [ [ 2.287963367145657, 48.826988520093622 ], [ 2.287961275461029, 48.827055624887976 ], [ 2.288237965865335, 48.82706037566583 ], [ 2.288247521458541, 48.826876926994593 ], [ 2.288117674892519, 48.82687615412766 ], [ 2.288111999451047, 48.826990568837225 ], [ 2.287963367145657, 48.826988520093622 ] ] ] } },
{ "type": "Feature", "properties": { "fid": 187, "type": "sanitaires", "nom": null }, "geometry": { "type": "Polygon", "coordinates": [ [ [ 2.287973091010874, 48.826964912368638 ], [ 2.288064144130034, 48.826966618337806 ], [ 2.288066674890713, 48.826910379059235 ], [ 2.288117192856889, 48.82691145571011 ], [ 2.288112592290491, 48.826990184405275 ], [ 2.287971592737444, 48.826988569068305 ], [ 2.287973091010874, 48.826964912368638 ] ] ] } },
{ "type": "Feature", "properties": { "fid": 188, "type": "restaurant", "nom": null }, "geometry": { "type": "Polygon", "coordinates": [ [ [ 2.287973673254708, 48.82696530379625 ], [ 2.288065319214095, 48.826966625333235 ], [ 2.288066505849879, 48.826879729133033 ], [ 2.287977215505467, 48.826878033659966 ], [ 2.287973673254708, 48.82696530379625 ] ] ] } },
{ "type": "Feature", "properties": { "fid": 189, "type": "startup", "nom": null }, "geometry": { "type": "Polygon", "coordinates": [ [ [ 2.289082963346284, 48.826820307496355 ], [ 2.289105872134138, 48.826820831639481 ], [ 2.289116000497834, 48.82681061088023 ], [ 2.289094970711255, 48.826801562766896 ], [ 2.289074589483826, 48.826809588789182 ], [ 2.289082963346284, 48.826820307496355 ] ] ] } },
{ "type": "Feature", "properties": { "fid": 190, "type": "startup", "nom": null }, "geometry": { "type": "Polygon", "coordinates": [ [ [ 2.289074885898972, 48.826809396570781 ], [ 2.289094970711255, 48.826801562766896 ], [ 2.289095174368953, 48.826786627478995 ], [ 2.289075788191643, 48.826786318255131 ], [ 2.289065620149559, 48.826799448482866 ], [ 2.289074885898972, 48.826809396570781 ] ] ] } },
{ "type": "Feature", "properties": { "fid": 191, "type": "startup", "nom": null }, "geometry": { "type": "Polygon", "coordinates": [ [ [ 2.289094970711255, 48.826801562766896 ], [ 2.289116003142663, 48.826810416915443 ], [ 2.289125549251707, 48.826799804733184 ], [ 2.289114854316533, 48.826786938445991 ], [ 2.28909546813899, 48.82678662922531 ], [ 2.289094970711255, 48.826801562766896 ] ] ] } },
{ "type": "Feature", "properties": { "fid": 192, "type": "startup", "nom": null }, "geometry": { "type": "Polygon", "coordinates": [ [ [ 2.289106165904365, 48.82682083338581 ], [ 2.289115386703181, 48.826834078871528 ], [ 2.289135654209404, 48.826834393327658 ], [ 2.28913528882843, 48.826818096794234 ], [ 2.289116000497834, 48.82681061088023 ], [ 2.289106165904365, 48.82682083338581 ] ] ] } },
{ "type": "Feature", "properties": { "fid": 193, "type": "startup", "nom": null }, "geometry": { "type": "Polygon", "coordinates": [ [ [ 2.289135950624465, 48.826834201109087 ], [ 2.289155043049631, 48.826834508577043 ], [ 2.289165491623041, 48.826822349912149 ], [ 2.289156538136964, 48.826811045824073 ], [ 2.289134995058216, 48.826818095048033 ], [ 2.289135950624465, 48.826834201109087 ] ] ] } },
{ "type": "Feature", "properties": { "fid": 194, "type": "startup", "nom": null }, "geometry": { "type": "Polygon", "coordinates": [ [ [ 2.289116590683002, 48.826810420408009 ], [ 2.28913528882843, 48.826818096794234 ], [ 2.289156834551815, 48.826810853605473 ], [ 2.289147290884656, 48.826799739989042 ], [ 2.289125840377028, 48.826800000444209 ], [ 2.289116590683002, 48.826810420408009 ] ] ] } },
{ "type": "Feature", "properties": { "fid": 195, "type": "startup", "nom": null }, "geometry": { "type": "Polygon", "coordinates": [ [ [ 2.289165782748636, 48.826822545623088 ], [ 2.289187524391018, 48.826822480871641 ], [ 2.289197954442781, 48.826811679957196 ], [ 2.289177205188677, 48.826803603428303 ], [ 2.289156538136964, 48.826811045824073 ], [ 2.289165782748636, 48.826822545623088 ] ] ] } },
{ "type": "Feature", "properties": { "fid": 196, "type": "startup", "nom": null }, "geometry": { "type": "Polygon", "coordinates": [ [ [ 2.289156834551815, 48.826810853605473 ], [ 2.289177792728943, 48.826803606920535 ], [ 2.289178006941309, 48.826787895773407 ], [ 2.289157440393518, 48.82678796750784 ], [ 2.289147293529366, 48.826799546024255 ], [ 2.289156834551815, 48.826810853605473 ] ] ] } },
{ "type": "Feature", "properties": { "fid": 197, "type": "startup", "nom": null }, "geometry": { "type": "Polygon", "coordinates": [ [ [ 2.289178086499077, 48.826803608666658 ], [ 2.289197954442781, 48.826811679957196 ], [ 2.289207786372039, 48.826801651408765 ], [ 2.28919739047529, 48.826788398945517 ], [ 2.289178298066759, 48.826788091484318 ], [ 2.289178086499077, 48.826803608666658 ] ] ] } },
{ "type": "Feature", "properties": { "fid": 198, "type": "startup", "nom": null }, "geometry": { "type": "Polygon", "coordinates": [ [ [ 2.289210642561201, 48.826850745449327 ], [ 2.289230616304075, 48.826851058143305 ], [ 2.289230838433924, 48.826834765102426 ], [ 2.28921066612816, 48.826827467930585 ], [ 2.289200823616532, 48.826838272338087 ], [ 2.289210642561201, 48.826850745449327 ] ] ] } },
{ "type": "Feature", "properties": { "fid": 199, "type": "startup", "nom": null }, "geometry": { "type": "Polygon", "coordinates": [ [ [ 2.289230910074478, 48.826851059889293 ], [ 2.289249711380304, 48.826851171631361 ], [ 2.289261337660611, 48.826838825977283 ], [ 2.289252085092004, 48.826827908080183 ], [ 2.289230542019209, 48.826834957321225 ], [ 2.289230910074478, 48.826851059889293 ] ] ] } },
{ "type": "Feature", "properties": { "fid": 200, "type": "startup", "nom": null }, "geometry": { "type": "Polygon", "coordinates": [ [ [ 2.289211253668698, 48.826827471422675 ], [ 2.289230838433924, 48.826834765102426 ], [ 2.28925209038065, 48.826827520150601 ], [ 2.289242840460345, 48.826816408287876 ], [ 2.289219328265986, 48.826817044467624 ], [ 2.289211253668698, 48.826827471422675 ] ] ] } },
{ "type": "Feature", "properties": { "fid": 201, "type": "startup", "nom": null }, "geometry": { "type": "Polygon", "coordinates": [ [ [ 2.289249494046195, 48.826824013071139 ], [ 2.289270642860074, 48.826824332742255 ], [ 2.289281078183416, 48.826813143891037 ], [ 2.28926032362727, 48.826805455306115 ], [ 2.289239082268164, 48.826811924400424 ], [ 2.289249494046195, 48.826824013071139 ] ] ] } },
{ "type": "Feature", "properties": { "fid": 202, "type": "startup", "nom": null }, "geometry": { "type": "Polygon", "coordinates": [ [ [ 2.289281078183416, 48.826813143891037 ], [ 2.289290915385315, 48.826802727406225 ], [ 2.289279627580174, 48.826790245571715 ], [ 2.289260238756134, 48.826790130342509 ], [ 2.289260620041707, 48.826805263087252 ], [ 2.289281078183416, 48.826813143891037 ] ] ] } },
{ "type": "Feature", "properties": { "fid": 203, "type": "startup", "nom": null }, "geometry": { "type": "Polygon", "coordinates": [ [ [ 2.289230115545903, 48.826801590141677 ], [ 2.289239378682715, 48.826811732181639 ], [ 2.289261210226287, 48.826805072614327 ], [ 2.289260238756134, 48.826790130342509 ], [ 2.289240566739573, 48.826789237505075 ], [ 2.289230115545903, 48.826801590141677 ] ] ] } },
{ "type": "Feature", "properties": { "fid": 204, "type": "startup", "nom": null }, "geometry": { "type": "Polygon", "coordinates": [ [ [ 2.289296762240063, 48.82684795960764 ], [ 2.289314875528708, 48.826855438509128 ], [ 2.289332300525037, 48.826848752742208 ], [ 2.289321025920357, 48.826835301088224 ], [ 2.289297222592268, 48.826835741572694 ], [ 2.289296762240063, 48.82684795960764 ] ] ] } },
{ "type": "Feature", "properties": { "fid": 205, "type": "startup", "nom": null }, "geometry": { "type": "Polygon", "coordinates": [ [ [ 2.289332596939455, 48.826848560523182 ], [ 2.289349111536558, 48.826844003129089 ], [ 2.289349614179822, 48.82682868165746 ], [ 2.289332964458636, 48.826821599419333 ], [ 2.289320729505972, 48.826835493307229 ], [ 2.289332596939455, 48.826848560523182 ] ] ] } },
{ "type": "Feature", "properties": { "fid": 206, "type": "startup", "nom": null }, "geometry": { "type": "Polygon", "coordinates": [ [ [ 2.289297812777058, 48.826835551099578 ], [ 2.289321025920357, 48.826835301088224 ], [ 2.289333260872896, 48.826821407200292 ], [ 2.289317765084429, 48.826815883661183 ], [ 2.28929680692182, 48.826823130370599 ], [ 2.289297812777058, 48.826835551099578 ] ] ] } },
{ "type": "Feature", "properties": { "fid": 207, "type": "startup", "nom": null }, "geometry": { "type": "Polygon", "coordinates": [ [ [ 2.289333551999115, 48.826821602910812 ], [ 2.289349907950102, 48.82682868340315 ], [ 2.289368214243727, 48.826822002867935 ], [ 2.289369267407079, 48.826809400394218 ], [ 2.289346056919515, 48.826809456450164 ], [ 2.289333551999115, 48.826821602910812 ] ] ] } },
{ "type": "Feature", "properties": { "fid": 208, "type": "startup", "nom": null }, "geometry": { "type": "Polygon", "coordinates": [ [ [ 2.289317765084429, 48.826815883661183 ], [ 2.289333848413374, 48.826821410691764 ], [ 2.289346641815891, 48.826809653906352 ], [ 2.289334210643685, 48.826794837516843 ], [ 2.289316788309703, 48.826801329319572 ], [ 2.289317765084429, 48.826815883661183 ] ] ] } },
{ "type": "Feature", "properties": { "fid": 209, "type": "startup", "nom": null }, "geometry": { "type": "Polygon", "coordinates": [ [ [ 2.289346644459861, 48.826809459941579 ], [ 2.289369854947426, 48.826809403885512 ], [ 2.289369735673601, 48.826796600464242 ], [ 2.289351323339566, 48.826789507754526 ], [ 2.289334213287701, 48.826794643552049 ], [ 2.289346644459861, 48.826809459941579 ] ] ] } },
{ "type": "Feature", "properties": { "fid": 210, "type": "escaliers", "nom": null }, "geometry": { "type": "Polygon", "coordinates": [ [ [ 2.289345866512119, 48.827017402387078 ], [ 2.289342638534874, 48.827081784714771 ], [ 2.28906889092305, 48.827076666027224 ], [ 2.289077252643084, 48.826894374095346 ], [ 2.289206479993447, 48.826897470005441 ], [ 2.289199001998783, 48.827014977723941 ], [ 2.289345866512119, 48.827017402387078 ] ] ] } },
{ "type": "Feature", "properties": { "fid": 211, "type": "sanitaires", "nom": null }, "geometry": { "type": "Polygon", "coordinates": [ [ [ 2.289204225491661, 48.826933536974316 ], [ 2.289255341622777, 48.826933840777492 ], [ 2.289253389108257, 48.826990859430879 ], [ 2.289342102720966, 48.826991774600515 ], [ 2.289340578627929, 48.827017370964192 ], [ 2.289199001998783, 48.827014977723941 ], [ 2.289204225491661, 48.826933536974316 ] ] ] } },
{ "type": "Feature", "properties": { "fid": 212, "type": "restaurant", "nom": null }, "geometry": { "type": "Polygon", "coordinates": [ [ [ 2.289253981939288, 48.826990474993245 ], [ 2.289342102720966, 48.826991774600515 ], [ 2.289344478176005, 48.826903721583868 ], [ 2.289256373408959, 48.826901258189679 ], [ 2.289253981939288, 48.826990474993245 ] ] ] } },
{ "type": "Feature", "properties": { "fid": 213, "type": "escaliers", "nom": null }, "geometry": { "type": "Polygon", "coordinates": [ [ [ 2.289042627667956, 48.827623728620502 ], [ 2.289051566534608, 48.827442216130848 ], [ 2.289325321352302, 48.82744694692704 ], [ 2.289326179720047, 48.827513293316734 ], [ 2.289175772653427, 48.827512011464954 ], [ 2.289174222890216, 48.827625674747253 ], [ 2.289042627667956, 48.827623728620502 ] ] ] } },
{ "type": "Feature", "properties": { "fid": 214, "type": "sanitaires", "nom": null }, "geometry": { "type": "Polygon", "coordinates": [ [ [ 2.289174121956885, 48.827589981761463 ], [ 2.289223454928287, 48.827591826818448 ], [ 2.289226598461794, 48.827533651392159 ], [ 2.289315302421162, 48.827535342439845 ], [ 2.289316191399378, 48.827513233960573 ], [ 2.289176365490957, 48.827511627027903 ], [ 2.289174121956885, 48.827589981761463 ] ] ] } },
{ "type": "Feature", "properties": { "fid": 215, "type": "restaurant", "nom": null }, "geometry": { "type": "Polygon", "coordinates": [ [ [ 2.289221851425198, 48.827623242106036 ], [ 2.289312926888068, 48.827623395406313 ], [ 2.289315302421162, 48.827535342439845 ], [ 2.2892266037507, 48.827533263462875 ], [ 2.289221851425198, 48.827623242106036 ] ] ] } },
{ "type": "Feature", "properties": { "fid": 216, "type": "escaliers", "nom": null }, "geometry": { "type": "Polygon", "coordinates": [ [ [ 2.287947438573267, 48.827419843924055 ], [ 2.288222961586123, 48.827424752809449 ], [ 2.288214694682841, 48.827607207302904 ], [ 2.288083533133942, 48.827604792222367 ], [ 2.288090112552247, 48.827485523003659 ], [ 2.287942420478599, 48.827485188510003 ], [ 2.287947438573267, 48.827419843924055 ] ] ] } },
{ "type": "Feature", "properties": { "fid": 217, "type": "sanitaires", "nom": null }, "geometry": { "type": "Polygon", "coordinates": [ [ [ 2.288035360720016, 48.827567459922406 ], [ 2.288085666766479, 48.827569393760399 ], [ 2.288090937606079, 48.827485527915087 ], [ 2.287950671016732, 48.827485237634178 ], [ 2.287949518594485, 48.827509201408482 ], [ 2.288038639326782, 48.827508642428334 ], [ 2.288035360720016, 48.827567459922406 ] ] ] } },
{ "type": "Feature", "properties": { "fid": 218, "type": "restaurant", "nom": null }, "geometry": { "type": "Polygon", "coordinates": [ [ [ 2.287945013058489, 48.827597430100866 ], [ 2.288034929239982, 48.827599055007283 ], [ 2.288038631887518, 48.827509187171216 ], [ 2.287950343648679, 48.827509206320876 ], [ 2.287945013058489, 48.827597430100866 ] ] ] } },
{ "type": "Feature", "properties": { "fid": 219, "type": "escaliers", "nom": null }, "geometry": { "type": "Polygon", "coordinates": [ [ [ 2.288455110816963, 48.828131654773784 ], [ 2.288754940531802, 48.828137164297779 ], [ 2.288755129326123, 48.828123326010108 ], [ 2.288455299690849, 48.82811781648649 ], [ 2.288455110816963, 48.828131654773784 ] ] ] } },
{ "type": "Feature", "properties": { "fid": 220, "type": "escaliers", "nom": null }, "geometry": { "type": "Polygon", "coordinates": [ [ [ 2.288455575737117, 48.828097591297123 ], [ 2.288756218647462, 48.828102573372533 ], [ 2.288758019700982, 48.828088744672868 ], [ 2.288457376870211, 48.828083762601942 ], [ 2.288455575737117, 48.828097591297123 ] ] ] } },
{ "type": "Feature", "properties": { "fid": 221, "type": "escaliers", "nom": null }, "geometry": { "type": "Polygon", "coordinates": [ [ [ 2.288458190264281, 48.828083235156335 ], [ 2.288758818569538, 48.828089281708934 ], [ 2.288759021885198, 48.82807437893694 ], [ 2.288455960748661, 48.828069382479747 ], [ 2.288458190264281, 48.828083235156335 ] ] ] } },
{ "type": "Feature", "properties": { "fid": 222, "type": "escaliers", "nom": null }, "geometry": { "type": "Polygon", "coordinates": [ [ [ 2.288458379137175, 48.828069396868479 ], [ 2.28875821575559, 48.828074374142751 ], [ 2.288758404548815, 48.828060535854291 ], [ 2.288457761880678, 48.828055553784203 ], [ 2.288458379137175, 48.828069396868479 ] ] ] } },
{ "type": "Feature", "properties": { "fid": 223, "type": null, "nom": null }, "geometry": { "type": "Polygon", "coordinates": [ [ [ 2.287909999446205, 48.828140652824217 ], [ 2.287991411364025, 48.828141669831219 ], [ 2.287992458115405, 48.828065027012073 ], [ 2.287910247457811, 48.828063472963976 ], [ 2.287909999446205, 48.828140652824217 ] ] ] } },
{ "type": "Feature", "properties": { "fid": 224, "type": null, "nom": null }, "geometry": { "type": "Polygon", "coordinates": [ [ [ 2.287992224763715, 48.828141142388816 ], [ 2.288051863889403, 48.82814256201133 ], [ 2.288052874209531, 48.82806858040081 ], [ 2.287994063105114, 48.828065568852608 ], [ 2.287992224763715, 48.828141142388816 ] ] ] } },
{ "type": "Feature", "properties": { "fid": 225, "type": null, "nom": null }, "geometry": { "type": "Polygon", "coordinates": [ [ [ 2.288054289549675, 48.828142044166441 ], [ 2.288116361605625, 48.828142413670015 ], [ 2.288119804758196, 48.828067381970918 ], [ 2.288052888746491, 48.828067515917155 ], [ 2.288054289549675, 48.828142044166441 ] ] ] } },
{ "type": "Feature", "properties": { "fid": 226, "type": null, "nom": null }, "geometry": { "type": "Polygon", "coordinates": [ [ [ 2.288117988402481, 48.828141358783554 ], [ 2.288202639381824, 48.828141330357248 ], [ 2.28820438294809, 48.8280726759616 ], [ 2.288119790222603, 48.828068446454559 ], [ 2.288117988402481, 48.828141358783554 ] ] ] } },
{ "type": "Feature", "properties": { "fid": 227, "type": "escaliers", "nom": null }, "geometry": { "type": "Polygon", "coordinates": [ [ [ 2.288022866405958, 48.828022625238823 ], [ 2.288263884373701, 48.828025124431413 ], [ 2.288265322671028, 48.827978824186758 ], [ 2.288022707198759, 48.827975250914918 ], [ 2.288022866405958, 48.828022625238823 ] ] ] } },
{ "type": "Feature", "properties": { "fid": 228, "type": null, "nom": null }, "geometry": { "type": "Polygon", "coordinates": [ [ [ 2.288021747719195, 48.828045506838535 ], [ 2.288274857730025, 48.828048077996002 ], [ 2.288275126579721, 48.828028385047652 ], [ 2.288019620084553, 48.828024202767629 ], [ 2.288021747719195, 48.828045506838535 ] ] ] } },
{ "type": "Feature", "properties": { "fid": 229, "type": "escaliers", "nom": null }, "geometry": { "type": "Polygon", "coordinates": [ [ [ 2.287912150513168, 48.828042192891083 ], [ 2.288001616298858, 48.828043790131936 ], [ 2.288001188158, 48.828016108757168 ], [ 2.287914118995978, 48.828016122641216 ], [ 2.287912150513168, 48.828042192891083 ] ] ] } },
{ "type": "Feature", "properties": { "fid": 230, "type": "restaurant", "nom": null }, "geometry": { "type": "Polygon", "coordinates": [ [ [ 2.289008603098769, 48.828158367160242 ], [ 2.289298744941652, 48.828164882293763 ], [ 2.289302635504365, 48.827997767921531 ], [ 2.289199422033724, 48.827999283655117 ], [ 2.289196859137097, 48.828068997762287 ], [ 2.28900988063388, 48.82806469259328 ], [ 2.289008603098769, 48.828158367160242 ] ] ] } },
{ "type": "Feature", "properties": { "fid": 231, "type": null, "nom": null }, "geometry": { "type": "Polygon", "coordinates": [ [ [ 2.288942180276641, 48.828063225518974 ], [ 2.289196873650698, 48.828067933278518 ], [ 2.289197192949783, 48.828044514635124 ], [ 2.288940045005735, 48.828042453706665 ], [ 2.288942180276641, 48.828063225518974 ] ] ] } },
{ "type": "Feature", "properties": { "fid": 232, "type": "escaliers", "nom": null }, "geometry": { "type": "Polygon", "coordinates": [ [ [ 2.288953763719568, 48.828041470702878 ], [ 2.289196386820594, 48.828044509843863 ], [ 2.289200235418968, 48.827998756204444 ], [ 2.288954431572594, 48.827992504448154 ], [ 2.288953763719568, 48.828041470702878 ] ] ] } }
]
}
