{
"type": "FeatureCollection",
"name": "rdc_jcd",
"crs": { "type": "name", "properties": { "name": "urn:ogc:def:crs:OGC:1.3:CRS84" } },
"features": [
{ "type": "Feature", "properties": { "fid": 1, "pièce": "hall" }, "geometry": { "type": "Polygon", "coordinates": [ [ [ 1.945608169336746, 48.799307734261838 ], [ 1.945808179776098, 48.799303977466828 ], [ 1.945787979545568, 48.799317389691922 ], [ 1.945808281888997, 48.799330734461989 ], [ 1.945773752077486, 48.799353363691473 ], [ 1.945774214617473, 48.799362286469211 ], [ 1.945819250028071, 48.799392412687688 ], [ 1.945819746902782, 48.799399636968175 ], [ 1.945774093580598, 48.799400083691928 ], [ 1.945779506764673, 48.799513951001899 ], [ 1.945758938310349, 48.799513769577601 ], [ 1.945739415079568, 48.799525488965017 ], [ 1.945739646802229, 48.799514024113243 ], [ 1.94569398479656, 48.799514895430498 ], [ 1.945694395828202, 48.799526365952069 ], [ 1.945606715775053, 48.799475053199082 ], [ 1.945602973756897, 48.799373941614192 ], [ 1.945616274352592, 48.799383827048125 ], [ 1.945647530359762, 48.799364141883281 ], [ 1.945647684854533, 48.799356498647811 ], [ 1.945610216799658, 48.799333659019801 ], [ 1.945628480213611, 48.799320654438361 ], [ 1.945608169336746, 48.799307734261838 ] ] ] } },
{ "type": "Feature", "properties": { "fid": 2, "pièce": "escalier" }, "geometry": { "type": "Polygon", "coordinates": [ [ [ 1.945776129499396, 48.799457240651861 ], [ 1.945820692753491, 48.799456497833596 ], [ 1.945819348193052, 48.799399278999807 ], [ 1.945773691016696, 48.799400012168249 ], [ 1.945776129499396, 48.799457240651861 ] ] ] } },
{ "type": "Feature", "properties": { "fid": 3, "pièce": "vestiaire" }, "geometry": { "type": "Polygon", "coordinates": [ [ [ 1.945606820794379, 48.799475071531269 ], [ 1.945607561314557, 48.799516642952007 ], [ 1.945679312759254, 48.799517589215135 ], [ 1.945606820794379, 48.799475071531269 ] ] ] } },
{ "type": "Feature", "properties": { "fid": 4, "pièce": "accueil" }, "geometry": { "type": "Polygon", "coordinates": [ [ [ 1.945652445217557, 48.799517247772044 ], [ 1.945653807449405, 48.799559346846976 ], [ 1.945780476452863, 48.799557226720729 ], [ 1.945779453445985, 48.799513981861928 ], [ 1.945759064122652, 48.799513802017664 ], [ 1.945739388884918, 48.79952522068568 ], [ 1.945739772755216, 48.799514049592261 ], [ 1.945694227079925, 48.799514901048859 ], [ 1.945694317370283, 48.799526076324838 ], [ 1.945679314869779, 48.79951748479936 ], [ 1.945652445217557, 48.799517247772044 ] ] ] } },
{ "type": "Feature", "properties": { "fid": 5, "pièce": "reserve" }, "geometry": { "type": "Polygon", "coordinates": [ [ [ 1.945603331947588, 48.799373948255258 ], [ 1.94560178004498, 48.799333414015315 ], [ 1.945610468915707, 48.799333699536554 ], [ 1.945647790577161, 48.79935648217473 ], [ 1.945647478448208, 48.799364103132746 ], [ 1.94561625222309, 48.799383879070099 ], [ 1.945603331947588, 48.799373948255258 ] ] ] } },
{ "type": "Feature", "properties": { "fid": 6, "pièce": "sas" }, "geometry": { "type": "Polygon", "coordinates": [ [ [ 1.945588593678315, 48.799324916823984 ], [ 1.94560185960076, 48.799333388608567 ], [ 1.945610390415263, 48.799333672735457 ], [ 1.945628596789846, 48.799320622395889 ], [ 1.945611036033118, 48.799309554082782 ], [ 1.945588593678315, 48.799324916823984 ] ] ] } },
{ "type": "Feature", "properties": { "fid": 7, "pièce": "sas" }, "geometry": { "type": "Polygon", "coordinates": [ [ [ 1.945788010805095, 48.799317407373387 ], [ 1.945808214242083, 48.799330692091594 ], [ 1.945812877955584, 48.799330681009273 ], [ 1.945826752399859, 48.799320777680798 ], [ 1.945804434196438, 48.799306534403222 ], [ 1.945788010805095, 48.799317407373387 ] ] ] } },
{ "type": "Feature", "properties": { "fid": 8, "pièce": "sanitaire" }, "geometry": { "type": "Polygon", "coordinates": [ [ [ 1.945532387651364, 48.799411284274399 ], [ 1.945604486722786, 48.799410667134765 ], [ 1.94560193915655, 48.799333363201825 ], [ 1.945529524079507, 48.799333977551058 ], [ 1.945532387651364, 48.799411284274399 ] ] ] } },
{ "type": "Feature", "properties": { "fid": 9, "pièce": "local" }, "geometry": { "type": "Polygon", "coordinates": [ [ [ 1.945503288377193, 48.799411863017383 ], [ 1.945532494350058, 48.799411351708393 ], [ 1.945529728855462, 48.799333974524721 ], [ 1.945500721167459, 48.799334837852051 ], [ 1.945503288377193, 48.799411863017383 ] ] ] } },
{ "type": "Feature", "properties": { "fid": 10, "pièce": "palier" }, "geometry": { "type": "Polygon", "coordinates": [ [ [ 1.945500924884402, 48.799334881175348 ], [ 1.945461337405145, 48.799335333933797 ], [ 1.945461938443799, 48.799365656233782 ], [ 1.945502008241144, 48.799365368137721 ], [ 1.945500924884402, 48.799334881175348 ] ] ] } },
{ "type": "Feature", "properties": { "fid": 11, "pièce": "sas" }, "geometry": { "type": "Polygon", "coordinates": [ [ [ 1.945462059017537, 48.799365697399459 ], [ 1.945462726728868, 48.799386716658539 ], [ 1.945502437252601, 48.799386184781191 ], [ 1.945501766283047, 48.799365325901128 ], [ 1.945462180401865, 48.799365698470453 ], [ 1.945462059017537, 48.799365697399459 ] ] ] } },
{ "type": "Feature", "properties": { "fid": 12, "pièce": "cafeteria" }, "geometry": { "type": "Polygon", "coordinates": [ [ [ 1.945463210645201, 48.79938680113186 ], [ 1.945464888944567, 48.799435900598709 ], [ 1.945488923073942, 48.799436112651144 ], [ 1.945488812836679, 48.799441565529413 ], [ 1.945509451444807, 48.799441587212016 ], [ 1.945509083419903, 48.799411748192533 ], [ 1.945503496493627, 48.799411859307959 ], [ 1.945502315868225, 48.799386183710247 ], [ 1.945463210645201, 48.79938680113186 ] ] ] } },
{ "type": "Feature", "properties": { "fid": 13, "pièce": "bureau" }, "geometry": { "type": "Polygon", "coordinates": [ [ [ 1.945780853677311, 48.799348539015035 ], [ 1.945808413265824, 48.799330495657927 ], [ 1.94581326863595, 48.799330538483254 ], [ 1.945814746315205, 48.799329508868652 ], [ 1.945956827467892, 48.799327714222933 ], [ 1.945959204782829, 48.799402324618114 ], [ 1.945911363115574, 48.799402704732508 ], [ 1.945912867432209, 48.799436403547134 ], [ 1.945780853677311, 48.799348539015035 ] ] ] } },
{ "type": "Feature", "properties": { "fid": 14, "pièce": "reserve" }, "geometry": { "type": "Polygon", "coordinates": [ [ [ 1.945820039569393, 48.799416015132842 ], [ 1.945834848472613, 48.799416145747998 ], [ 1.94591727525784, 48.79947060918969 ], [ 1.945917274955207, 48.799482639739097 ], [ 1.945820850199397, 48.799484035006486 ], [ 1.945820039569393, 48.799416015132842 ] ] ] } },
{ "type": "Feature", "properties": { "fid": 15, "pièce": "reserve" }, "geometry": { "type": "Polygon", "coordinates": [ [ [ 1.945911851894238, 48.79940254863584 ], [ 1.945959450792499, 48.799402166380283 ], [ 1.945961229439903, 48.799470355196426 ], [ 1.945912627904176, 48.799436241027273 ], [ 1.945911851894238, 48.79940254863584 ] ] ] } },
{ "type": "Feature", "properties": { "fid": 16, "pièce": "salle de reunion" }, "geometry": { "type": "Polygon", "coordinates": [ [ [ 1.945842208730088, 48.799556567106585 ], [ 1.945925760351028, 48.799555379105577 ], [ 1.945924942198657, 48.799523771641802 ], [ 1.945840908330694, 48.799524794981089 ], [ 1.945842208730088, 48.799556567106585 ] ] ] } },
{ "type": "Feature", "properties": { "fid": 17, "pièce": "salle de reunion" }, "geometry": { "type": "Polygon", "coordinates": [ [ [ 1.945841157582495, 48.799524476364738 ], [ 1.945925191449939, 48.799523453025301 ], [ 1.945923395739489, 48.799492157754017 ], [ 1.945839355440026, 48.799493501849803 ], [ 1.945841157582495, 48.799524476364738 ] ] ] } },
{ "type": "Feature", "properties": { "fid": 18, "pièce": "salle de pause" }, "geometry": { "type": "Polygon", "coordinates": [ [ [ 1.945777201030606, 48.799457182793766 ], [ 1.945820922156701, 48.799456445574442 ], [ 1.945821367176118, 48.799518527148685 ], [ 1.945779588153065, 48.799519281498789 ], [ 1.945777201030606, 48.799457182793766 ] ] ] } },
{ "type": "Feature", "properties": { "fid": 19, "pièce": "atelier" }, "geometry": { "type": "Polygon", "coordinates": [ [ [ 1.945780522572899, 48.79955714587679 ], [ 1.945842454740842, 48.799556408869016 ], [ 1.945840791967921, 48.799518538067879 ], [ 1.945779594635833, 48.79951896074126 ], [ 1.945780522572899, 48.79955714587679 ] ] ] } },
{ "type": "Feature", "properties": { "fid": 20, "pièce": "salle de pause" }, "geometry": { "type": "Polygon", "coordinates": [ [ [ 1.94574894632289, 48.799557669393934 ], [ 1.945750550683784, 48.799598427012661 ], [ 1.945791109439196, 48.799597982723775 ], [ 1.945791021922656, 48.799602312950213 ], [ 1.94587263470099, 48.799600947477195 ], [ 1.945871839580926, 48.79955618681447 ], [ 1.94574894632289, 48.799557669393934 ] ] ] } },
{ "type": "Feature", "properties": { "fid": 21, "pièce": "atelier" }, "geometry": { "type": "Polygon", "coordinates": [ [ [ 1.945957316245719, 48.799327558126052 ], [ 1.945971083478436, 48.79970367437604 ], [ 1.947284215064856, 48.79967979737939 ], [ 1.947274737118686, 48.799451614701894 ], [ 1.947196539563681, 48.799452209176749 ], [ 1.947193348015975, 48.799369731693105 ], [ 1.947075783197669, 48.799371904198296 ], [ 1.947073575796923, 48.799312854847607 ], [ 1.94706676532995, 48.799313436479117 ], [ 1.947013077733623, 48.799350819631016 ], [ 1.946956975700238, 48.799315356548497 ], [ 1.945957316245719, 48.799327558126052 ] ] ] } },
{ "type": "Feature", "properties": { "fid": 22, "pièce": "chaufferie" }, "geometry": { "type": "Polygon", "coordinates": [ [ [ 1.945977288334233, 48.799853228714362 ], [ 1.946231349875091, 48.799849373462138 ], [ 1.946230139951853, 48.79981311074441 ], [ 1.946212155474531, 48.799813914624906 ], [ 1.946207677794298, 48.799699023509696 ], [ 1.946021126556798, 48.799702511611656 ], [ 1.946020867304544, 48.799715341911501 ], [ 1.945971316236101, 48.799716188200136 ], [ 1.945977288334233, 48.799853228714362 ] ] ] } },
{ "type": "Feature", "properties": { "fid": 23, "pièce": "atelier" }, "geometry": { "type": "Polygon", "coordinates": [ [ [ 1.945872082350487, 48.799556188955577 ], [ 1.945926003120589, 48.799555381246599 ], [ 1.945931341056978, 48.799675733828543 ], [ 1.945893455954654, 48.799676041338337 ], [ 1.94589586236419, 48.799749208303204 ], [ 1.94582589909542, 48.799750836950452 ], [ 1.945826785257692, 48.799779076455195 ], [ 1.945820958763427, 48.799779025065483 ], [ 1.945823087624186, 48.79981786241305 ], [ 1.945559787948602, 48.799822276925383 ], [ 1.945560053028908, 48.79983318696182 ], [ 1.945538682711178, 48.799833319241202 ], [ 1.945523759439963, 48.799466496385705 ], [ 1.945466446472393, 48.799466953168277 ], [ 1.945465133334719, 48.799435822551274 ], [ 1.945488918210531, 48.799436353219285 ], [ 1.945488820942358, 48.79944116458244 ], [ 1.945509699077127, 48.799441348785713 ], [ 1.945509324567668, 48.799411830523759 ], [ 1.945604535353994, 48.79941042479917 ], [ 1.94560822215043, 48.799516326188758 ], [ 1.945652891713519, 48.799516720248988 ], [ 1.945654463580396, 48.799559081658096 ], [ 1.945749182609492, 48.799557992292826 ], [ 1.945750793453535, 48.799598429154031 ], [ 1.945791106197843, 48.7995981431025 ], [ 1.945791021922656, 48.799602312950192 ], [ 1.945872644424297, 48.799600466340891 ], [ 1.945872082350487, 48.799556188955577 ] ] ] } },
{ "type": "Feature", "properties": { "fid": 24, "pièce": "stockage" }, "geometry": { "type": "Polygon", "coordinates": [ [ [ 1.947289838042983, 48.799829446941722 ], [ 1.947496700023331, 48.799825427166923 ], [ 1.947477410789005, 48.799365569747927 ], [ 1.947343381947109, 48.799367085497316 ], [ 1.947348623453003, 48.79954552460952 ], [ 1.947279228535173, 48.799546261465629 ], [ 1.947289838042983, 48.799829446941722 ] ] ] } },
{ "type": "Feature", "properties": { "fid": 25, "pièce": "atelier" }, "geometry": { "type": "Polygon", "coordinates": [ [ [ 1.94752461870017, 48.800076748616192 ], [ 1.947644721263275, 48.800074436003989 ], [ 1.94766267079962, 48.800061338151927 ], [ 1.947684787074016, 48.800060858845818 ], [ 1.947703584662243, 48.800073156856193 ], [ 1.947867230617802, 48.80007032867406 ], [ 1.947841742069234, 48.799378101647292 ], [ 1.947806033677792, 48.799378011970354 ], [ 1.947804859130038, 48.799351939184263 ], [ 1.947767115068538, 48.799351606898192 ], [ 1.947765763465505, 48.799300593486187 ], [ 1.94774094081897, 48.79930037494892 ], [ 1.947743058737366, 48.799363976978775 ], [ 1.947477385858852, 48.799366805247828 ], [ 1.947500606428434, 48.79991836516264 ], [ 1.947519313175807, 48.799918305215748 ], [ 1.94752461870017, 48.800076748616192 ] ] ] } },
{ "type": "Feature", "properties": { "fid": 26, "pièce": "bureau" }, "geometry": { "type": "Polygon", "coordinates": [ [ [ 1.945466576840649, 48.799466979560719 ], [ 1.945468316761599, 48.799498674273764 ], [ 1.945525286652599, 48.799498502878421 ], [ 1.945523891275425, 48.799466586529952 ], [ 1.945466576840649, 48.799466979560719 ] ] ] } },
{ "type": "Feature", "properties": { "fid": 27, "pièce": "bureau" }, "geometry": { "type": "Polygon", "coordinates": [ [ [ 1.945468486780304, 48.799498675773854 ], [ 1.945468875635823, 48.799529909212843 ], [ 1.945526523365591, 48.799529856135358 ], [ 1.945525114363303, 48.799498613696564 ], [ 1.945468486780304, 48.799498675773854 ] ] ] } },
{ "type": "Feature", "properties": { "fid": 28, "pièce": "bureau" }, "geometry": { "type": "Polygon", "coordinates": [ [ [ 1.945469047925343, 48.799529798394779 ], [ 1.945470443270652, 48.799561714742097 ], [ 1.945527766891823, 48.799560872437041 ], [ 1.945526353346782, 48.799529854635352 ], [ 1.945469047925343, 48.799529798394779 ] ] ] } },
{ "type": "Feature", "properties": { "fid": 29, "pièce": "bureau" }, "geometry": { "type": "Polygon", "coordinates": [ [ [ 1.945470613289564, 48.799561716242209 ], [ 1.945472071648722, 48.799607338398864 ], [ 1.945529565339063, 48.799606497593047 ], [ 1.945527769162406, 48.799560760118936 ], [ 1.945470613289564, 48.799561716242209 ] ] ] } },
{ "type": "Feature", "properties": { "fid": 30, "pièce": "bureau" }, "geometry": { "type": "Polygon", "coordinates": [ [ [ 1.945472241667782, 48.799607339898934 ], [ 1.945529567609642, 48.79960638527492 ], [ 1.945530779351382, 48.799638974028056 ], [ 1.945473115606097, 48.79963981333438 ], [ 1.945472241667782, 48.799607339898934 ] ] ] } },
{ "type": "Feature", "properties": { "fid": 31, "pièce": "bureau" }, "geometry": { "type": "Polygon", "coordinates": [ [ [ 1.945473285625266, 48.799639814834443 ], [ 1.945474837371168, 48.799672406587355 ], [ 1.945532322050866, 48.799672015052671 ], [ 1.945530779351382, 48.799638974028056 ], [ 1.945473285625266, 48.799639814834443 ] ] ] } },
{ "type": "Feature", "properties": { "fid": 32, "pièce": "bureau" }, "geometry": { "type": "Polygon", "coordinates": [ [ [ 1.945475007390441, 48.799672408087424 ], [ 1.945532324321443, 48.799671902734573 ], [ 1.945533400105711, 48.799702805214217 ], [ 1.945476078599362, 48.799703535203783 ], [ 1.945475007390441, 48.799672408087424 ] ] ] } },
{ "type": "Feature", "properties": { "fid": 33, "pièce": "bureau" }, "geometry": { "type": "Polygon", "coordinates": [ [ [ 1.945476250889436, 48.799703424385761 ], [ 1.945533570125085, 48.799702806714237 ], [ 1.94553479549502, 48.79973472155595 ], [ 1.945477648514496, 48.79973522841 ], [ 1.945476250889436, 48.799703424385761 ] ] ] } },
{ "type": "Feature", "properties": { "fid": 34, "pièce": "bureau" }, "geometry": { "type": "Polygon", "coordinates": [ [ [ 1.945477648514496, 48.79973522841 ], [ 1.94553479549502, 48.79973472155595 ], [ 1.945536050383926, 48.799765176261431 ], [ 1.945478377416424, 48.799766464842591 ], [ 1.945477648514496, 48.79973522841 ] ] ] } },
{ "type": "Feature", "properties": { "fid": 35, "pièce": "salle de reunion" }, "geometry": { "type": "Polygon", "coordinates": [ [ [ 1.945478547436005, 48.79976646634266 ], [ 1.945535882634922, 48.799765062443349 ], [ 1.945537282568564, 48.799796754147074 ], [ 1.945479951876245, 48.799797933410822 ], [ 1.945478547436005, 48.79976646634266 ] ] ] } },
{ "type": "Feature", "properties": { "fid": 36, "pièce": "bureau" }, "geometry": { "type": "Polygon", "coordinates": [ [ [ 1.945479951876245, 48.799797933410822 ], [ 1.945481974806335, 48.799840864423849 ], [ 1.945539121902544, 48.79984035756776 ], [ 1.945537112548884, 48.799796752647083 ], [ 1.945479951876245, 48.799797933410822 ] ] ] } },
{ "type": "Feature", "properties": { "fid": 37, "pièce": "palier" }, "geometry": { "type": "Polygon", "coordinates": [ [ [ 1.945481974806335, 48.799840864423849 ], [ 1.945482649497811, 48.799866371130875 ], [ 1.945529083097299, 48.799865882093435 ], [ 1.9455282383633, 48.799840373886667 ], [ 1.945481974806335, 48.799840864423849 ] ] ] } },
{ "type": "Feature", "properties": { "fid": 38, "pièce": "sas" }, "geometry": { "type": "Polygon", "coordinates": [ [ [ 1.945538757159686, 48.799833164709831 ], [ 1.945559844155952, 48.799833126069288 ], [ 1.945560899525119, 48.799865039407116 ], [ 1.945529257658391, 48.799865658957245 ], [ 1.945528236092705, 48.799840486204751 ], [ 1.945539126443686, 48.799840132931557 ], [ 1.945538757159686, 48.799833164709831 ] ] ] } },
{ "type": "Feature", "properties": { "fid": 39, "pièce": "bureau" }, "geometry": { "type": "Polygon", "coordinates": [ [ [ 1.945561074086073, 48.799864816270883 ], [ 1.945633028831969, 48.799863653637836 ], [ 1.945631339005085, 48.799821062582218 ], [ 1.94555972435743, 48.799822228214197 ], [ 1.945561074086073, 48.799864816270883 ] ] ] } },
{ "type": "Feature", "properties": { "fid": 40, "pièce": "bureau" }, "geometry": { "type": "Polygon", "coordinates": [ [ [ 1.945632861082438, 48.799863539819903 ], [ 1.945706171443744, 48.799862613777762 ], [ 1.945704313807627, 48.799819908905292 ], [ 1.945631506754475, 48.799821176400165 ], [ 1.945632861082438, 48.799863539819903 ] ] ] } },
{ "type": "Feature", "properties": { "fid": 41, "pièce": "bureau" }, "geometry": { "type": "Polygon", "coordinates": [ [ [ 1.945706346004068, 48.799862390641316 ], [ 1.94577745064389, 48.799861220422628 ], [ 1.945775926178804, 48.799818855504803 ], [ 1.945704483827388, 48.799819910405049 ], [ 1.945706346004068, 48.799862390641316 ] ] ] } },
{ "type": "Feature", "properties": { "fid": 42, "pièce": "salle de pause" }, "geometry": { "type": "Polygon", "coordinates": [ [ [ 1.945777452913949, 48.799861108104515 ], [ 1.945824573395447, 48.799860287996573 ], [ 1.945823051162078, 48.799817810761212 ], [ 1.945776105278805, 48.79981840773204 ], [ 1.945777452913949, 48.799861108104515 ] ] ] } },
{ "type": "Feature", "properties": { "fid": 43, "pièce": "cabinet medical" }, "geometry": { "type": "Polygon", "coordinates": [ [ [ 1.94582453506857, 48.799860236846264 ], [ 1.945899596419829, 48.799859161082551 ], [ 1.945896739825556, 48.799767582300419 ], [ 1.945856297680443, 48.799768323163697 ], [ 1.94585622172905, 48.799778932100963 ], [ 1.945820916069076, 48.799778986557634 ], [ 1.94582453506857, 48.799860236846264 ] ] ] } },
{ "type": "Feature", "properties": { "fid": 44, "pièce": "sas" }, "geometry": { "type": "Polygon", "coordinates": [ [ [ 1.945899737616618, 48.799859025134637 ], [ 1.945939618740566, 48.799858645156938 ], [ 1.945938316480627, 48.799827170701747 ], [ 1.945898579349431, 48.799827277562343 ], [ 1.945899737616618, 48.799859025134637 ] ] ] } },
{ "type": "Feature", "properties": { "fid": 45, "pièce": "ascenceur" }, "geometry": { "type": "Polygon", "coordinates": [ [ [ 1.945939832501848, 48.799858563690776 ], [ 1.945961115003087, 48.799858566384685 ], [ 1.945960497608853, 48.799840616416624 ], [ 1.945965679174915, 48.799840569614446 ], [ 1.945965250191727, 48.799827153687417 ], [ 1.945938368032058, 48.799827101610646 ], [ 1.945939832501848, 48.799858563690776 ] ] ] } },
{ "type": "Feature", "properties": { "fid": 46, "pièce": "local" }, "geometry": { "type": "Polygon", "coordinates": [ [ [ 1.945916661830545, 48.799827280170973 ], [ 1.94591636555091, 48.79980729808802 ], [ 1.945975466354569, 48.799806616828803 ], [ 1.945977639649652, 48.799858434619203 ], [ 1.945961116871896, 48.799858473903612 ], [ 1.945960497608854, 48.799840616416617 ], [ 1.945965819166732, 48.799840570849007 ], [ 1.945965252060526, 48.799827061206358 ], [ 1.945916661830545, 48.799827280170973 ] ] ] } },
{ "type": "Feature", "properties": { "fid": 47, "pièce": "sanitaire" }, "geometry": { "type": "Polygon", "coordinates": [ [ [ 1.945930510321984, 48.799807145340523 ], [ 1.945975326362843, 48.799806615594271 ], [ 1.94597398130815, 48.799776172039437 ], [ 1.945945831774619, 48.799776478777673 ], [ 1.94594575770425, 48.799752428761394 ], [ 1.945924604024684, 48.799752982185794 ], [ 1.945924814339211, 48.799777218398809 ], [ 1.945914174974074, 48.799777124568045 ], [ 1.945914290145461, 48.799799140000367 ], [ 1.94593109288787, 48.799799103191624 ], [ 1.945930510321984, 48.799807145340523 ] ] ] } },
{ "type": "Feature", "properties": { "fid": 48, "pièce": "salle de pause" }, "geometry": { "type": "Polygon", "coordinates": [ [ [ 1.94582676785489, 48.799778943602043 ], [ 1.945826076119378, 48.799750818245137 ], [ 1.945855913014606, 48.79975015642713 ], [ 1.945856451691618, 48.799778927916648 ], [ 1.94582676785489, 48.799778943602043 ] ] ] } },
{ "type": "Feature", "properties": { "fid": 49, "pièce": "reserve" }, "geometry": { "type": "Polygon", "coordinates": [ [ [ 1.94585624478157, 48.799768381370974 ], [ 1.945896866648004, 48.799767537170162 ], [ 1.945895836777916, 48.799749213572142 ], [ 1.945856053006179, 48.799750157661812 ], [ 1.94585624478157, 48.799768381370974 ] ] ] } },
{ "type": "Feature", "properties": { "fid": 50, "pièce": "local" }, "geometry": { "type": "Polygon", "coordinates": [ [ [ 1.945925027737167, 48.799752800927486 ], [ 1.945946033949753, 48.79975261619272 ], [ 1.945946115495574, 48.799776296284698 ], [ 1.94597412503736, 48.799775988311886 ], [ 1.945970931030142, 48.799712321829297 ], [ 1.945925835087301, 48.799712849104722 ], [ 1.945925027737167, 48.799752800927486 ] ] ] } },
{ "type": "Feature", "properties": { "fid": 51, "pièce": "reserve" }, "geometry": { "type": "Polygon", "coordinates": [ [ [ 1.945971203454284, 48.79971616288023 ], [ 1.946020924724585, 48.799715398882945 ], [ 1.946021040744444, 48.799702727741213 ], [ 1.945971317617439, 48.799703584219642 ], [ 1.945971205323068, 48.799716070399157 ], [ 1.945971203454284, 48.79971616288023 ] ] ] } },
{ "type": "Feature", "properties": { "fid": 52, "pièce": "sas" }, "geometry": { "type": "Polygon", "coordinates": [ [ [ 1.946225122261259, 48.799698884882936 ], [ 1.9463007550058, 48.799697701736534 ], [ 1.946304516115835, 48.799802627111362 ], [ 1.946229159466039, 48.799803997690702 ], [ 1.946225122261259, 48.799698884882936 ] ] ] } },
{ "type": "Feature", "properties": { "fid": 53, "pièce": "degagement" }, "geometry": { "type": "Polygon", "coordinates": [ [ [ 1.946212442396299, 48.799813655041113 ], [ 1.946230383760471, 48.799812703253799 ], [ 1.946225118524593, 48.79969906984509 ], [ 1.946207748375379, 48.799699471682374 ], [ 1.946212442396299, 48.799813655041113 ] ] ] } },
{ "type": "Feature", "properties": { "fid": 54, "pièce": "bureau" }, "geometry": { "type": "Polygon", "coordinates": [ [ [ 1.94633183215112, 48.799753474237946 ], [ 1.94640746497239, 48.799752291024063 ], [ 1.94640634174151, 48.7997247168542 ], [ 1.946330701487606, 48.799726269991709 ], [ 1.94633183215112, 48.799753474237946 ] ] ] } },
{ "type": "Feature", "properties": { "fid": 55, "pièce": "bureau" }, "geometry": { "type": "Polygon", "coordinates": [ [ [ 1.946324530651798, 48.79972677057615 ], [ 1.946406621724545, 48.799724719322292 ], [ 1.946405248400046, 48.799695662986352 ], [ 1.946323724811375, 48.799697349251552 ], [ 1.946324530651798, 48.79972677057615 ] ] ] } },
{ "type": "Feature", "properties": { "fid": 56, "pièce": "degagement" }, "geometry": { "type": "Polygon", "coordinates": [ [ [ 1.946332112134306, 48.799753476706208 ], [ 1.946302982673979, 48.799753774889616 ], [ 1.946300758742197, 48.799697516774351 ], [ 1.946324004794259, 48.799697351719821 ], [ 1.946324814371155, 48.799726588082258 ], [ 1.946330694015017, 48.799726639916031 ], [ 1.946332112134306, 48.799753476706208 ] ] ] } },
{ "type": "Feature", "properties": { "fid": 57, "pièce": "degagement" }, "geometry": { "type": "Polygon", "coordinates": [ [ [ 1.946408028674778, 48.799752110998092 ], [ 1.94642819493583, 48.799751918774319 ], [ 1.946425978340997, 48.799695290736963 ], [ 1.946405244664017, 48.79969584794852 ], [ 1.946408028674778, 48.799752110998092 ] ] ] } },
{ "type": "Feature", "properties": { "fid": 58, "pièce": "bureau" }, "geometry": { "type": "Polygon", "coordinates": [ [ [ 1.94642819867178, 48.799751733812165 ], [ 1.946471051041921, 48.799751371565876 ], [ 1.946470510158308, 48.799722692559513 ], [ 1.946427374092744, 48.799723237299716 ], [ 1.94642819867178, 48.799751733812165 ] ] ] } },
{ "type": "Feature", "properties": { "fid": 59, "pièce": "bureau" }, "geometry": { "type": "Polygon", "coordinates": [ [ [ 1.946427657811723, 48.799723054805597 ], [ 1.946470793877133, 48.79972251006528 ], [ 1.946469118119267, 48.799694561035082 ], [ 1.946426254587922, 48.799695478167173 ], [ 1.946427657811723, 48.799723054805597 ] ] ] } },
{ "type": "Feature", "properties": { "fid": 60, "pièce": "bureau" }, "geometry": { "type": "Polygon", "coordinates": [ [ [ 1.9464713347609, 48.799751189071664 ], [ 1.946535757041926, 48.799750461945003 ], [ 1.946534107767282, 48.799693468920815 ], [ 1.946469118119267, 48.799694561035082 ], [ 1.9464713347609, 48.799751189071664 ] ] ] } },
{ "type": "Feature", "properties": { "fid": 61, "pièce": "sanitaire" }, "geometry": { "type": "Polygon", "coordinates": [ [ [ 1.946337088077632, 48.799770540120996 ], [ 1.946339468501623, 48.799846779079388 ], [ 1.946504737330723, 48.799844351025968 ], [ 1.94650291663184, 48.799768117006423 ], [ 1.946337088077632, 48.799770540120996 ] ] ] } },
{ "type": "Feature", "properties": { "fid": 62, "pièce": "vestiaire" }, "geometry": { "type": "Polygon", "coordinates": [ [ [ 1.946339752221581, 48.799846596585489 ], [ 1.946305859250252, 48.799847037771436 ], [ 1.94630298267398, 48.799753774889631 ], [ 1.946391222211761, 48.799752332836029 ], [ 1.946391990953045, 48.799769729150867 ], [ 1.946337368060907, 48.799770542589236 ], [ 1.946339752221581, 48.799846596585489 ] ] ] } },
{ "type": "Feature", "properties": { "fid": 63, "pièce": "vestiaire" }, "geometry": { "type": "Polygon", "coordinates": [ [ [ 1.946448297479002, 48.799768745533342 ], [ 1.946447801230371, 48.799751721611159 ], [ 1.946535477058748, 48.799750459477238 ], [ 1.946537981045482, 48.799820594682195 ], [ 1.946504379283336, 48.799820483505769 ], [ 1.94650291663184, 48.799768117006423 ], [ 1.946448297479002, 48.799768745533342 ] ] ] } },
{ "type": "Feature", "properties": { "fid": 64, "pièce": "local" }, "geometry": { "type": "Polygon", "coordinates": [ [ [ 1.946504741066409, 48.799844166063821 ], [ 1.946530230788218, 48.799843835749918 ], [ 1.946529861522385, 48.799820523116246 ], [ 1.946504379283336, 48.799820483505769 ], [ 1.946504741066409, 48.799844166063821 ] ] ] } },
{ "type": "Feature", "properties": { "fid": 65, "pièce": "ascenceur" }, "geometry": { "type": "Polygon", "coordinates": [ [ [ 1.946530514507493, 48.799843653255593 ], [ 1.946558800330177, 48.7998435325757 ], [ 1.94655759857191, 48.799819842614589 ], [ 1.946530137770345, 48.799820710546186 ], [ 1.946530514507493, 48.799843653255593 ] ] ] } },
{ "type": "Feature", "properties": { "fid": 66, "pièce": "degagement" }, "geometry": { "type": "Polygon", "coordinates": [ [ [ 1.946391994689125, 48.799769544188706 ], [ 1.946448573726396, 48.799768932963467 ], [ 1.946448084949432, 48.799751539117011 ], [ 1.946391218475679, 48.79975251779819 ], [ 1.946391994689125, 48.799769544188706 ] ] ] } },
{ "type": "Feature", "properties": { "fid": 67, "pièce": "sas" }, "geometry": { "type": "Polygon", "coordinates": [ [ [ 1.946556635707676, 48.799798189704383 ], [ 1.946631712357045, 48.799796816451014 ], [ 1.946630522091071, 48.799744822344024 ], [ 1.946554045600718, 48.79974618325798 ], [ 1.946556635707676, 48.799798189704383 ] ] ] } },
{ "type": "Feature", "properties": { "fid": 68, "pièce": "sas" }, "geometry": { "type": "Polygon", "coordinates": [ [ [ 1.946554045600718, 48.79974618325798 ], [ 1.94663052209107, 48.799744822344024 ], [ 1.946628238042634, 48.799691523629171 ], [ 1.946552317860596, 48.799693074439389 ], [ 1.946554045600718, 48.79974618325798 ] ] ] } },
{ "type": "Feature", "properties": { "fid": 69, "pièce": "degagement" }, "geometry": { "type": "Polygon", "coordinates": [ [ [ 1.946538111566775, 48.799820140742533 ], [ 1.946557791983824, 48.799819772691023 ], [ 1.946552564824083, 48.799693012440414 ], [ 1.94653411379449, 48.799693391326606 ], [ 1.946538111566775, 48.799820140742533 ] ] ] } },
{ "type": "Feature", "properties": { "fid": 70, "pièce": "local" }, "geometry": { "type": "Polygon", "coordinates": [ [ [ 1.946631421863375, 48.799781229588035 ], [ 1.946680193953477, 48.799781253283527 ], [ 1.946682275016854, 48.799840567357066 ], [ 1.946632658708386, 48.799841754628083 ], [ 1.946631421863375, 48.799781229588035 ] ] ] } },
{ "type": "Feature", "properties": { "fid": 71, "pièce": "local" }, "geometry": { "type": "Polygon", "coordinates": [ [ [ 1.946682479907382, 48.799840569162733 ], [ 1.946777595575769, 48.799839105928918 ], [ 1.946775284916329, 48.79978100824021 ], [ 1.946680193953477, 48.799781253283527 ], [ 1.946682479907382, 48.799840569162733 ] ] ] } },
{ "type": "Feature", "properties": { "fid": 72, "pièce": "bureau" }, "geometry": { "type": "Polygon", "coordinates": [ [ [ 1.946777598308816, 48.799838970574626 ], [ 1.946837669493771, 48.799837604610481 ], [ 1.946836470365464, 48.799815798124911 ], [ 1.946776612295174, 48.799816759831096 ], [ 1.946777598308816, 48.799838970574626 ] ] ] } },
{ "type": "Feature", "properties": { "fid": 73, "pièce": "reserve" }, "geometry": { "type": "Polygon", "coordinates": [ [ [ 1.946631421863377, 48.799781229588035 ], [ 1.946775284916329, 48.799781008240188 ], [ 1.946774135098955, 48.799746611996781 ], [ 1.946630662787215, 48.799747784434864 ], [ 1.946631421863377, 48.799781229588035 ] ] ] } },
{ "type": "Feature", "properties": { "fid": 74, "pièce": "degagement" }, "geometry": { "type": "Polygon", "coordinates": [ [ [ 1.946630662787217, 48.799747784434864 ], [ 1.946661000198058, 48.799747374910602 ], [ 1.946660481416173, 48.799722325335217 ], [ 1.946652487970363, 48.799722390266965 ], [ 1.946651067744521, 48.799691240718367 ], [ 1.946628106404135, 48.799691715247548 ], [ 1.946630662787217, 48.799747784434864 ] ] ] } },
{ "type": "Feature", "properties": { "fid": 75, "pièce": "bureau" }, "geometry": { "type": "Polygon", "coordinates": [ [ [ 1.946660997464714, 48.799747510264908 ], [ 1.946780284536866, 48.799746530807468 ], [ 1.946778785239159, 48.799688846398979 ], [ 1.94665127263446, 48.799691242524084 ], [ 1.946652897750489, 48.79972239387839 ], [ 1.946660481416173, 48.799722325335217 ], [ 1.946660997464714, 48.799747510264908 ] ] ] } },
{ "type": "Feature", "properties": { "fid": 76, "pièce": "local" }, "geometry": { "type": "Polygon", "coordinates": [ [ [ 1.946776404671689, 48.799816893379891 ], [ 1.94683626547503, 48.799815796319521 ], [ 1.946837877117186, 48.799837471061579 ], [ 1.946876828178814, 48.799836731245975 ], [ 1.946876057944554, 48.799813980891308 ], [ 1.946865398176556, 48.799814157722281 ], [ 1.946863120285581, 48.799744282403637 ], [ 1.946774137832007, 48.799746476642476 ], [ 1.946776404671689, 48.799816893379891 ] ] ] } },
{ "type": "Feature", "properties": { "fid": 77, "pièce": "salle de pause" }, "geometry": { "type": "Polygon", "coordinates": [ [ [ 1.946780186191337, 48.799746326873262 ], [ 1.946863016474092, 48.799744349178134 ], [ 1.946860678395483, 48.799687605029384 ], [ 1.946778883584575, 48.799689050333221 ], [ 1.946780186191337, 48.799746326873262 ] ] ] } },
{ "type": "Feature", "properties": { "fid": 78, "pièce": "degagement" }, "geometry": { "type": "Polygon", "coordinates": [ [ [ 1.946865504720995, 48.799813955593521 ], [ 1.946884775352544, 48.79981358387748 ], [ 1.946879132153432, 48.799687090738452 ], [ 1.94686067566266, 48.799687740383696 ], [ 1.946865504720995, 48.799813955593521 ] ] ] } },
{ "type": "Feature", "properties": { "fid": 79, "pièce": "sas" }, "geometry": { "type": "Polygon", "coordinates": [ [ [ 1.946884393033705, 48.799791919967497 ], [ 1.946959011375911, 48.799790682118847 ], [ 1.94695497968539, 48.799685863724157 ], [ 1.946879536467748, 48.79968736505775 ], [ 1.946884393033705, 48.799791919967497 ] ] ] } },
{ "type": "Feature", "properties": { "fid": 80, "pièce": "reserve" }, "geometry": { "type": "Polygon", "coordinates": [ [ [ 1.946959060562225, 48.799788245741304 ], [ 1.947040656098075, 48.799786527800627 ], [ 1.947036984841079, 48.799684149396228 ], [ 1.946954569905529, 48.799685860113762 ], [ 1.946959060562225, 48.799788245741304 ] ] ] } },
{ "type": "Feature", "properties": { "fid": 81, "pièce": "reserve" }, "geometry": { "type": "Polygon", "coordinates": [ [ [ 1.947041071343451, 48.799786260702099 ], [ 1.9471218418479, 48.799784806194431 ], [ 1.94711816496738, 48.799682698501009 ], [ 1.947036979376349, 48.79968442010486 ], [ 1.947041071343451, 48.799786260702099 ] ] ] } },
{ "type": "Feature", "properties": { "fid": 82, "pièce": "reserve" }, "geometry": { "type": "Polygon", "coordinates": [ [ [ 1.946959161641106, 48.799788314321056 ], [ 1.946959404629738, 48.799816881300416 ], [ 1.94700100832017, 48.79981670632894 ], [ 1.947001065613022, 48.799834170644452 ], [ 1.947078139966774, 48.799833089737142 ], [ 1.94707684519778, 48.799785560520142 ], [ 1.946959161641106, 48.799788314321056 ] ] ] } },
{ "type": "Feature", "properties": { "fid": 83, "pièce": "local" }, "geometry": { "type": "Polygon", "coordinates": [ [ [ 1.94707814269904, 48.799832954382836 ], [ 1.947123846944297, 48.799832680113916 ], [ 1.947122150549463, 48.799784741224649 ], [ 1.94707684519778, 48.799785560520142 ], [ 1.94707814269904, 48.799832954382836 ] ] ] } },
{ "type": "Feature", "properties": { "fid": 84, "pièce": "bureau" }, "geometry": { "type": "Polygon", "coordinates": [ [ [ 1.947001068345489, 48.799834035290139 ], [ 1.94700100832017, 48.79981670632894 ], [ 1.946959404629738, 48.799816881300416 ], [ 1.946960068382485, 48.799834757094423 ], [ 1.947001068345489, 48.799834035290139 ] ] ] } },
{ "type": "Feature", "properties": { "fid": 85, "pièce": "palier" }, "geometry": { "type": "Polygon", "coordinates": [ [ [ 1.947123849676444, 48.799832544759617 ], [ 1.94715315721601, 48.799832396794542 ], [ 1.947152075465222, 48.799784463320258 ], [ 1.947122150549465, 48.799784741224656 ], [ 1.947123849676444, 48.799832544759617 ] ] ] } },
{ "type": "Feature", "properties": { "fid": 86, "pièce": "local" }, "geometry": { "type": "Polygon", "coordinates": [ [ [ 1.947153159948081, 48.79983226144023 ], [ 1.947208504974141, 48.799831530549504 ], [ 1.947206805769616, 48.799783727015694 ], [ 1.94715207273315, 48.799784598674549 ], [ 1.947153159948081, 48.79983226144023 ] ] ] } },
{ "type": "Feature", "properties": { "fid": 87, "pièce": "local" }, "geometry": { "type": "Polygon", "coordinates": [ [ [ 1.947121740768816, 48.799784737614843 ], [ 1.947178927025802, 48.799784158336223 ], [ 1.947178481758893, 48.799755454197367 ], [ 1.947120678130585, 48.799756163415339 ], [ 1.947121740768816, 48.799784737614843 ] ] ] } },
{ "type": "Feature", "properties": { "fid": 88, "pièce": "reserve" }, "geometry": { "type": "Polygon", "coordinates": [ [ [ 1.947121085178857, 48.799756302379485 ], [ 1.947178689381106, 48.799755320647847 ], [ 1.947178927025802, 48.799784158336223 ], [ 1.94720700792801, 48.799783864174763 ], [ 1.947204166807488, 48.799731718472088 ], [ 1.947119932380536, 48.79973219487178 ], [ 1.947121085178857, 48.799756302379485 ] ] ] } },
{ "type": "Feature", "properties": { "fid": 89, "pièce": "degagement" }, "geometry": { "type": "Polygon", "coordinates": [ [ [ 1.947119932380538, 48.799732194871794 ], [ 1.947204368965674, 48.79973185563118 ], [ 1.947203535755619, 48.799712218425974 ], [ 1.947141637106802, 48.799712756204343 ], [ 1.947141221914065, 48.799682563165952 ], [ 1.947118058424189, 48.799682900630053 ], [ 1.947119937844843, 48.79973192416314 ], [ 1.947119932380538, 48.799732194871794 ] ] ] } },
{ "type": "Feature", "properties": { "fid": 90, "pièce": "bureau" }, "geometry": { "type": "Polygon", "coordinates": [ [ [ 1.947141844728939, 48.799712622654909 ], [ 1.947203535755619, 48.799712218425974 ], [ 1.947202314627045, 48.799681341397061 ], [ 1.947141429536082, 48.799682429616503 ], [ 1.947141844728939, 48.799712622654909 ] ] ] } },
{ "type": "Feature", "properties": { "fid": 91, "pièce": "sas" }, "geometry": { "type": "Polygon", "coordinates": [ [ [ 1.947207359373624, 48.799786705849925 ], [ 1.94728853401, 48.799785420533084 ], [ 1.947284606354032, 48.799679969579508 ], [ 1.947201918185607, 48.799681241560421 ], [ 1.947207359373624, 48.799786705849925 ] ] ] } },
{ "type": "Feature", "properties": { "fid": 92, "pièce": "sanitaire" }, "geometry": { "type": "Polygon", "coordinates": [ [ [ 1.947471716307072, 48.799890849915037 ], [ 1.947499879239097, 48.799890697858096 ], [ 1.947497299622506, 48.799838467047771 ], [ 1.947470331536771, 48.799839429750023 ], [ 1.947471716307072, 48.799890849915037 ] ] ] } },
{ "type": "Feature", "properties": { "fid": 93, "pièce": "local" }, "geometry": { "type": "Polygon", "coordinates": [ [ [ 1.947499576498656, 48.799890695192175 ], [ 1.947500529266381, 48.799918507891967 ], [ 1.947472669059944, 48.799918662615049 ], [ 1.94747140953102, 48.799891047244536 ], [ 1.947499576498656, 48.799890695192175 ] ] ] } },
{ "type": "Feature", "properties": { "fid": 94, "pièce": "salle de pause" }, "geometry": { "type": "Polygon", "coordinates": [ [ [ 1.947472673095553, 48.799918462619594 ], [ 1.947519609995202, 48.799918275852463 ], [ 1.947521035170445, 48.799967696058772 ], [ 1.947474998377787, 48.799968290815329 ], [ 1.947472673095553, 48.799918462619594 ] ] ] } },
{ "type": "Feature", "properties": { "fid": 95, "pièce": "local" }, "geometry": { "type": "Polygon", "coordinates": [ [ [ 1.947525030400524, 48.800076551208619 ], [ 1.947479623546216, 48.800077358836198 ], [ 1.947475123363344, 48.799968243844731 ], [ 1.947521139282459, 48.799967441582886 ], [ 1.947525030400524, 48.800076551208619 ] ] ] } },
{ "type": "Feature", "properties": { "fid": 96, "pièce": "vestiaire" }, "geometry": { "type": "Polygon", "coordinates": [ [ [ 1.947479952537712, 48.800077369736613 ], [ 1.947481731853755, 48.800114375745999 ], [ 1.947546583406153, 48.80011355620185 ], [ 1.947560005467181, 48.800105608826719 ], [ 1.947559126936648, 48.800076120067821 ], [ 1.947479952537712, 48.800077369736613 ] ] ] } },
{ "type": "Feature", "properties": { "fid": 97, "pièce": "sanitaire" }, "geometry": { "type": "Polygon", "coordinates": [ [ [ 1.947481942319657, 48.800114377599385 ], [ 1.947483918076746, 48.800152080644509 ], [ 1.947546583406153, 48.80011355620185 ], [ 1.947481942319657, 48.800114377599385 ] ] ] } },
{ "type": "Feature", "properties": { "fid": 99, "pièce": "sas" }, "geometry": { "type": "Polygon", "coordinates": [ [ [ 1.947560210322392, 48.8001058887534 ], [ 1.947559124131317, 48.800076259104536 ], [ 1.947644839795524, 48.800074232608935 ], [ 1.947662572127745, 48.800061316961383 ], [ 1.947684685050784, 48.800060816347013 ], [ 1.947703385737936, 48.800072940276536 ], [ 1.947790142500917, 48.800071479088601 ], [ 1.947790774234811, 48.800102773470599 ], [ 1.947560210322392, 48.8001058887534 ] ] ] } },
{ "type": "Feature", "properties": { "fid": 100, "pièce": "palier" }, "geometry": { "type": "Polygon", "coordinates": [ [ [ 1.94779034735723, 48.800071759014912 ], [ 1.947867212226098, 48.800070210687352 ], [ 1.947868798689082, 48.800148099047973 ], [ 1.947790779844243, 48.800102495397127 ], [ 1.94779034735723, 48.800071759014912 ] ] ] } },
{ "type": "Feature", "properties": { "fid": 101, "pièce": "ae" }, "geometry": { "type": "Polygon", "coordinates": [ [ [ 1.947470545022438, 48.799839422286176 ], [ 1.947497299300609, 48.799838406334025 ], [ 1.947496931621757, 48.79982533131875 ], [ 1.947469767643028, 48.799825787416992 ], [ 1.947470545022438, 48.799839422286176 ] ] ] } },
{ "type": "Feature", "properties": { "fid": 102, "pièce": "sanitaire" }, "geometry": { "type": "Polygon", "coordinates": [ [ [ 1.947279120006432, 48.79954605493743 ], [ 1.947348803100716, 48.799545695246366 ], [ 1.94734763562406, 48.799499238421618 ], [ 1.947276880632385, 48.799500562100889 ], [ 1.947279120006432, 48.79954605493743 ] ] ] } },
{ "type": "Feature", "properties": { "fid": 103, "pièce": "local" }, "geometry": { "type": "Polygon", "coordinates": [ [ [ 1.947277093901856, 48.799500424917845 ], [ 1.947327422718438, 48.799499477583183 ], [ 1.947326869874458, 48.799485149378647 ], [ 1.947276344638596, 48.799485399675376 ], [ 1.947277093901856, 48.799500424917845 ] ] ] } },
{ "type": "Feature", "properties": { "fid": 104, "pièce": "palier" }, "geometry": { "type": "Polygon", "coordinates": [ [ [ 1.947327422718438, 48.799499477583183 ], [ 1.94734742796651, 48.799499097531225 ], [ 1.947345985493981, 48.799455836697348 ], [ 1.947275034128165, 48.799456463337961 ], [ 1.947276347444649, 48.799485260638576 ], [ 1.947327080337817, 48.799485151232304 ], [ 1.947327004597524, 48.799499334839084 ], [ 1.947327422718438, 48.799499477583183 ] ] ] } },
{ "type": "Feature", "properties": { "fid": 105, "pièce": "sanitaire" }, "geometry": { "type": "Polygon", "coordinates": [ [ [ 1.947275039740274, 48.799456185264376 ], [ 1.947345988299847, 48.799455697660555 ], [ 1.947344725405201, 48.799403538469413 ], [ 1.947273552423247, 48.799404719402773 ], [ 1.947275039740274, 48.799456185264376 ] ] ] } },
{ "type": "Feature", "properties": { "fid": 106, "pièce": "reserve" }, "geometry": { "type": "Polygon", "coordinates": [ [ [ 1.947273552423247, 48.799404719402773 ], [ 1.94734430447914, 48.799403534762178 ], [ 1.947344231480692, 48.799386290490773 ], [ 1.947272631984221, 48.799387745789957 ], [ 1.947273552423247, 48.799404719402773 ] ] ] } },
{ "type": "Feature", "properties": { "fid": 107, "pièce": "palier" }, "geometry": { "type": "Polygon", "coordinates": [ [ [ 1.947272631984221, 48.799387745789957 ], [ 1.947343813360641, 48.799386147746716 ], [ 1.947343774032785, 48.799367235033309 ], [ 1.94727196409957, 48.799368688478502 ], [ 1.947272631984221, 48.799387745789957 ] ] ] } },
{ "type": "Feature", "properties": { "fid": 108, "pièce": "reserve" }, "geometry": { "type": "Polygon", "coordinates": [ [ [ 1.947196604303229, 48.799452156909013 ], [ 1.94727512953403, 48.799451736086787 ], [ 1.94727196409957, 48.799368688478502 ], [ 1.947193427768684, 48.79936966544593 ], [ 1.947196604303229, 48.799452156909013 ] ] ] } },
{ "type": "Feature", "properties": { "fid": 109, "pièce": "sanitaire" }, "geometry": { "type": "Polygon", "coordinates": [ [ [ 1.947805919767228, 48.799378048907826 ], [ 1.94784191453984, 48.799378087659115 ], [ 1.947839626760969, 48.799314099222748 ], [ 1.947803003449096, 48.799313915875487 ], [ 1.947805919767228, 48.799378048907826 ] ] ] } },
{ "type": "Feature", "properties": { "fid": 110, "pièce": "palier" }, "geometry": { "type": "Polygon", "coordinates": [ [ [ 1.947767087683346, 48.799351702540449 ], [ 1.94780497099401, 48.799352036052397 ], [ 1.947803000644455, 48.799314054912301 ], [ 1.947839842832739, 48.799313823001832 ], [ 1.947839486289892, 48.799300191834227 ], [ 1.947765591469621, 48.799300653790745 ], [ 1.947767087683346, 48.799351702540449 ] ] ] } },
{ "type": "Feature", "properties": { "fid": 111, "pièce": "bureau" }, "geometry": { "type": "Polygon", "coordinates": [ [ [ 1.947552090182659, 48.79936594068338 ], [ 1.947743052950823, 48.799364006476871 ], [ 1.947741388267308, 48.79930044070705 ], [ 1.947549996390581, 48.799302788314968 ], [ 1.947552090182659, 48.79936594068338 ] ] ] } },
{ "type": "Feature", "properties": { "fid": 113, "pièce": "bureau" }, "geometry": { "type": "Polygon", "coordinates": [ [ [ 1.947501346184117, 48.79936660633242 ], [ 1.947552511108434, 48.799365944389891 ], [ 1.947549785927954, 48.799302786461702 ], [ 1.947500714470085, 48.799304023083877 ], [ 1.947501346184117, 48.79936660633242 ] ] ] } },
{ "type": "Feature", "properties": { "fid": 114, "pièce": "bureau" }, "geometry": { "type": "Polygon", "coordinates": [ [ [ 1.947342196964098, 48.799367151612749 ], [ 1.947477580711115, 48.799365562681146 ], [ 1.947477558267032, 48.799366674975658 ], [ 1.947501556647003, 48.799366608185771 ], [ 1.947500922127274, 48.79930416397405 ], [ 1.947340883547417, 48.799307065465243 ], [ 1.947342196964098, 48.799367151612749 ] ] ] } },
{ "type": "Feature", "properties": { "fid": 115, "pièce": "local" }, "geometry": { "type": "Polygon", "coordinates": [ [ [ 1.947222165774678, 48.799369431869309 ], [ 1.94734240462111, 48.799367292503177 ], [ 1.947341304472699, 48.799307069172485 ], [ 1.947220016258005, 48.799309060231643 ], [ 1.947222165774678, 48.799369431869309 ] ] ] } },
{ "type": "Feature", "properties": { "fid": 116, "pièce": "bureau" }, "geometry": { "type": "Polygon", "coordinates": [ [ [ 1.947151627031533, 48.799370479254804 ], [ 1.947222379043755, 48.799369294686343 ], [ 1.94722001345181, 48.79930919926845 ], [ 1.947149065090311, 48.799309686797535 ], [ 1.947151627031533, 48.799370479254804 ] ] ] } },
{ "type": "Feature", "properties": { "fid": 117, "pièce": "bureau" }, "geometry": { "type": "Polygon", "coordinates": [ [ [ 1.947075607830644, 48.799371895502716 ], [ 1.947151837494423, 48.799370481108767 ], [ 1.947149272746574, 48.799309827688312 ], [ 1.947073640880293, 48.799312916084752 ], [ 1.947075607830644, 48.799371895502716 ] ] ] } },
{ "type": "Feature", "properties": { "fid": 118, "pièce": "atelier" }, "geometry": { "type": "Polygon", "coordinates": [ [ [ 1.94695697439959, 48.799315364777463 ], [ 1.947013092018491, 48.799350902701526 ], [ 1.947066894848947, 48.799313412900645 ], [ 1.94695697439959, 48.799315364777463 ] ] ] } },
{ "type": "Feature", "properties": { "fid": 119, "pièce": "degagement" }, "geometry": { "type": "Polygon", "coordinates": [ [ [ 1.945898654012053, 48.799827307800257 ], [ 1.945916970059369, 48.799827191211911 ], [ 1.945916743261443, 48.799807164355492 ], [ 1.945930636735229, 48.799807147822854 ], [ 1.945931223434134, 48.799798948368327 ], [ 1.945914591113365, 48.79979907980799 ], [ 1.945914195997477, 48.799776965544012 ], [ 1.945924932495933, 48.799776921169901 ], [ 1.945926227752617, 48.799712825236696 ], [ 1.945970863026397, 48.79971238450505 ], [ 1.94596209026112, 48.799468916286372 ], [ 1.945780968102118, 48.799348576227516 ], [ 1.945773782351394, 48.799353198214519 ], [ 1.945774233668595, 48.799362293209271 ], [ 1.945819353262967, 48.799392481730479 ], [ 1.945819936848246, 48.799415983651009 ], [ 1.945835177381787, 48.79941611807314 ], [ 1.945917280173103, 48.799470549097194 ], [ 1.945917039976455, 48.79948243522626 ], [ 1.945821103453959, 48.799483966746138 ], [ 1.945821460952957, 48.799518655609205 ], [ 1.945840728983992, 48.799518545829656 ], [ 1.94583954427763, 48.799493360268784 ], [ 1.94592361857366, 48.799492143704136 ], [ 1.945931129858428, 48.799675708525122 ], [ 1.945893652056224, 48.799675937444533 ], [ 1.945898654012053, 48.799827307800257 ] ] ] } }
]
}
