{
"type": "FeatureCollection",
"name": "hall3",
"crs": { "type": "name", "properties": { "name": "urn:ogc:def:crs:OGC:1.3:CRS84" } },
"features": [
{ "type": "Feature", "properties": { "fid": 1, "ID": null, "Nom": "Black Stage" }, "geometry": { "type": "Polygon", "coordinates": [ [ [ 2.287848680740865, 48.827664639045864 ], [ 2.287838348335973, 48.82791615323746 ], [ 2.287431837762048, 48.827910757346984 ], [ 2.287436348228211, 48.827663159923183 ], [ 2.287848680740865, 48.827664639045864 ] ] ] } },
{ "type": "Feature", "properties": { "fid": 2, "ID": "3G14", "Nom": null }, "geometry": { "type": "Polygon", "coordinates": [ [ [ 2.287748308933176, 48.827664274655646 ], [ 2.287891363967384, 48.827665431162892 ], [ 2.28789309070983, 48.827634455392818 ], [ 2.287748757296912, 48.827631228884314 ], [ 2.287748308933176, 48.827664274655646 ] ] ] } },
{ "type": "Feature", "properties": { "fid": 4, "ID": "3G13", "Nom": "Business France" }, "geometry": { "type": "Polygon", "coordinates": [ [ [ 2.287921514208992, 48.827773192331193 ], [ 2.288020593678254, 48.827774514645256 ], [ 2.288025921628633, 48.827628063750112 ], [ 2.287926852440515, 48.827626009086728 ], [ 2.287921514208992, 48.827773192331193 ] ] ] } },
{ "type": "Feature", "properties": { "fid": 5, "ID": "3F10", "Nom": "Scaleway" }, "geometry": { "type": "Polygon", "coordinates": [ [ [ 2.288054602800317, 48.827775205385763 ], [ 2.288248677988539, 48.827779046095145 ], [ 2.288252442626639, 48.827692887900383 ], [ 2.288162337475915, 48.827630096495589 ], [ 2.28806030705843, 48.827628268454554 ], [ 2.288054602800317, 48.827775205385763 ] ] ] } },
{ "type": "Feature", "properties": { "fid": 7, "ID": "3H14", "Nom": null }, "geometry": { "type": "Polygon", "coordinates": [ [ [ 2.287530957109148, 48.827662979977418 ], [ 2.287672855189932, 48.827663825252522 ], [ 2.287674335992538, 48.827629578883226 ], [ 2.287532882323629, 48.827627815955303 ], [ 2.287530957109148, 48.827662979977418 ] ] ] } },
{ "type": "Feature", "properties": { "fid": 8, "ID": "3J16", "Nom": null }, "geometry": { "type": "Polygon", "coordinates": [ [ [ 2.287493779678278, 48.82758225814036 ], [ 2.287534543863436, 48.827582731074948 ], [ 2.287535856961957, 48.827537644116958 ], [ 2.287496134983107, 48.827537407467297 ], [ 2.287493779678278, 48.82758225814036 ] ] ] } },
{ "type": "Feature", "properties": { "fid": 9, "ID": "3H20", "Nom": null }, "geometry": { "type": "Polygon", "coordinates": [ [ [ 2.287570084612393, 48.827582942803325 ], [ 2.287716403730335, 48.827585654968232 ], [ 2.287719883191879, 48.827509520731105 ], [ 2.287573209561591, 48.827507266607967 ], [ 2.287570084612393, 48.827582942803325 ] ] ] } },
{ "type": "Feature", "properties": { "fid": 10, "ID": "3J20", "Nom": null }, "geometry": { "type": "Polygon", "coordinates": [ [ [ 2.287497494713507, 48.827514408026303 ], [ 2.287538258845649, 48.827514880959647 ], [ 2.287539223501288, 48.827469791923072 ], [ 2.28749881098649, 48.827469091009263 ], [ 2.287497494713507, 48.827514408026303 ] ] ] } },
{ "type": "Feature", "properties": { "fid": 11, "ID": "3H19", "Nom": null }, "geometry": { "type": "Polygon", "coordinates": [ [ [ 2.287751235032396, 48.82758678271891 ], [ 2.287825097762505, 48.82758768274951 ], [ 2.287828922361018, 48.827511780641025 ], [ 2.28775401756667, 48.827510644330495 ], [ 2.287751235032396, 48.82758678271891 ] ] ] } },
{ "type": "Feature", "properties": { "fid": 13, "ID": "3J24", "Nom": null }, "geometry": { "type": "Polygon", "coordinates": [ [ [ 2.287501363501745, 48.827446592769661 ], [ 2.287541465502122, 48.827446605378285 ], [ 2.287541728888943, 48.827402251420004 ], [ 2.287501975833261, 48.827401788282771 ], [ 2.287501363501745, 48.827446592769661 ] ] ] } },
{ "type": "Feature", "properties": { "fid": 14, "ID": "3J28", "Nom": null }, "geometry": { "type": "Polygon", "coordinates": [ [ [ 2.287504004902665, 48.827378717392165 ], [ 2.287544443391305, 48.827379184612248 ], [ 2.287545401502368, 48.827334155878894 ], [ 2.287504963048643, 48.827333688659117 ], [ 2.287504004902665, 48.827378717392165 ] ] ] } },
{ "type": "Feature", "properties": { "fid": 15, "ID": "3H36", "Nom": "Région Grand-Est" }, "geometry": { "type": "Polygon", "coordinates": [ [ [ 2.287580816074047, 48.827351113329222 ], [ 2.287727490045626, 48.827352892210186 ], [ 2.287731301974531, 48.827249494108479 ], [ 2.287584634478141, 48.827247262661388 ], [ 2.287581161891365, 48.827350889085587 ], [ 2.287580816074047, 48.827351113329222 ] ] ] } },
{ "type": "Feature", "properties": { "fid": 16, "ID": "3J32", "Nom": null }, "geometry": { "type": "Polygon", "coordinates": [ [ [ 2.287506646296707, 48.827310842010505 ], [ 2.287547773274741, 48.827311087027915 ], [ 2.287547693930984, 48.827266731022519 ], [ 2.28750759825406, 48.827266265845353 ], [ 2.287506646296707, 48.827310842010505 ] ] ] } },
{ "type": "Feature", "properties": { "fid": 18, "ID": "3H40", "Nom": null }, "geometry": { "type": "Polygon", "coordinates": [ [ [ 2.28758666041275, 48.827224418051522 ], [ 2.28773263930485, 48.827226871699068 ], [ 2.2877340605454, 48.827173019870934 ], [ 2.287587732895732, 48.827171016754043 ], [ 2.28758666041275, 48.827224418051522 ] ] ] } },
{ "type": "Feature", "properties": { "fid": 20, "ID": "3H37", "Nom": null }, "geometry": { "type": "Polygon", "coordinates": [ [ [ 2.287766951256597, 48.82722748698486 ], [ 2.287927042323523, 48.827230451437529 ], [ 2.287933053569734, 48.827077067248176 ], [ 2.287772962973459, 48.827074102803138 ], [ 2.287766951256597, 48.82722748698486 ] ] ] } },
{ "type": "Feature", "properties": { "fid": 46, "ID": null, "Nom": "Viva Lounge" }, "geometry": { "type": "Polygon", "coordinates": [ [ [ 2.288411873204704, 48.826568053611595 ], [ 2.288984651586916, 48.826578512230711 ], [ 2.288973643858507, 48.826826267233542 ], [ 2.288400855881987, 48.826816312223173 ], [ 2.288411873204704, 48.826568053611595 ] ] ] } },
{ "type": "Feature", "properties": { "fid": 47, "ID": null, "Nom": "Media Lounge" }, "geometry": { "type": "Polygon", "coordinates": [ [ [ 2.289100821311926, 48.826786727301595 ], [ 2.28936929236449, 48.826791345123269 ], [ 2.289379554277078, 48.826532636659884 ], [ 2.289108534823889, 48.826526329080814 ], [ 2.289100821311926, 48.826786727301595 ] ] ] } },
{ "type": "Feature", "properties": { "fid": 48, "ID": null, "Nom": "Workshop B" }, "geometry": { "type": "Polygon", "coordinates": [ [ [ 2.289370062048676, 48.826790845996868 ], [ 2.28963927537739, 48.826796978722989 ], [ 2.289650602236003, 48.826536856316636 ], [ 2.289379568502582, 48.826531593005875 ], [ 2.289370062048676, 48.826790845996868 ] ] ] } },
{ "type": "Feature", "properties": { "fid": 49, "ID": null, "Nom": "Live & Podcast Studio" }, "geometry": { "type": "Polygon", "coordinates": [ [ [ 2.289190827070393, 48.826787766005879 ], [ 2.289543943588038, 48.826794901315658 ], [ 2.28954182768169, 48.826838206946952 ], [ 2.289190999329549, 48.826831085233216 ], [ 2.289190827070393, 48.826787766005879 ] ] ] } },
{ "type": "Feature", "properties": { "fid": 50, "ID": null, "Nom": "Workshop A" }, "geometry": { "type": "Polygon", "coordinates": [ [ [ 2.289649811905007, 48.82653685162213 ], [ 2.289923195364403, 48.826543693879685 ], [ 2.289910811527027, 48.826800606134931 ], [ 2.289640038196437, 48.826796983254113 ], [ 2.289649811905007, 48.82653685162213 ] ] ] } },
{ "type": "Feature", "properties": { "fid": 51, "ID": null, "Nom": "Restauration" }, "geometry": { "type": "Polygon", "coordinates": [ [ [ 2.28942731856477, 48.826873282445064 ], [ 2.289588162816421, 48.826876334606325 ], [ 2.289586371226229, 48.826930136018255 ], [ 2.289425522046474, 48.826927433255349 ], [ 2.28942731856477, 48.826873282445064 ] ] ] } },
{ "type": "Feature", "properties": { "fid": 53, "ID": null, "Nom": null }, "geometry": { "type": "Polygon", "coordinates": [ [ [ 2.28964089107893, 48.826890624978994 ], [ 2.289907558545412, 48.826895353535647 ], [ 2.289899896669287, 48.827069323628251 ], [ 2.28963323307451, 48.82706424565464 ], [ 2.28964089107893, 48.826890624978994 ] ] ] } },
{ "type": "Feature", "properties": { "fid": 54, "ID": null, "Nom": "Arena" }, "geometry": { "type": "Polygon", "coordinates": [ [ [ 2.289672652093065, 48.827064692027491 ], [ 2.289836031883233, 48.827068114688714 ], [ 2.289831178838953, 48.827185798682898 ], [ 2.289747163365637, 48.827184380110261 ], [ 2.289668985432457, 48.827129350990063 ], [ 2.289672652093065, 48.827064692027491 ] ] ] } },
{ "type": "Feature", "properties": { "fid": 55, "ID": "3B38", "Nom": "Groupe Bouygues" }, "geometry": { "type": "Polygon", "coordinates": [ [ [ 2.289417202515569, 48.82710578405743 ], [ 2.289578269559457, 48.827108580240505 ], [ 2.289571534498464, 48.827262118663398 ], [ 2.289410471158474, 48.827259015952698 ], [ 2.289417202515569, 48.82710578405743 ] ] ] } },
{ "type": "Feature", "properties": { "fid": 57, "ID": "3B36", "Nom": null }, "geometry": { "type": "Polygon", "coordinates": [ [ [ 2.289603358205937, 48.827303310977513 ], [ 2.289750133880548, 48.82730551665346 ], [ 2.289746271418896, 48.827391307025366 ], [ 2.289599158819244, 48.827389099344877 ], [ 2.289603358205937, 48.827303310977513 ] ] ] } },
{ "type": "Feature", "properties": { "fid": 61, "ID": "3A25", "Nom": null }, "geometry": { "type": "Polygon", "coordinates": [ [ [ 2.289780355209761, 48.827385729273757 ], [ 2.289822100956269, 48.82738619949761 ], [ 2.289819369787188, 48.827463104013006 ], [ 2.289776953639168, 48.827462407492987 ], [ 2.289780355209761, 48.827385729273757 ] ] ] } },
{ "type": "Feature", "properties": { "fid": 63, "ID": "3A19", "Nom": null }, "geometry": { "type": "Polygon", "coordinates": [ [ [ 2.289775965320281, 48.827485522305793 ], [ 2.289817714174851, 48.82748577023488 ], [ 2.289815043558283, 48.827558228818312 ], [ 2.289773306759253, 48.827557091703326 ], [ 2.289775965320281, 48.827485522305793 ] ] ] } },
{ "type": "Feature", "properties": { "fid": 64, "ID": "3A15", "Nom": null }, "geometry": { "type": "Polygon", "coordinates": [ [ [ 2.289772318436956, 48.827580206514149 ], [ 2.28981372765419, 48.827580674741341 ], [ 2.28981244561169, 48.827625352287328 ], [ 2.289770699673775, 48.827624882060213 ], [ 2.289772318436956, 48.827580206514149 ] ] ] } },
{ "type": "Feature", "properties": { "fid": 68, "ID": "3B28", "Nom": "Airbus" }, "geometry": { "type": "Polygon", "coordinates": [ [ [ 2.289559314165131, 48.827520917322225 ], [ 2.289563783233386, 48.827415344598172 ], [ 2.289403885678045, 48.827412393784819 ], [ 2.289399073541784, 48.82751840909512 ], [ 2.289559314165131, 48.827520917322225 ] ] ] } },
{ "type": "Feature", "properties": { "fid": 69, "ID": "3B36", "Nom": "Capgemini" }, "geometry": { "type": "Polygon", "coordinates": [ [ [ 2.289405263868257, 48.827385390789289 ], [ 2.289565840766732, 48.827387901008478 ], [ 2.289569269468986, 48.82728454523447 ], [ 2.289409369284566, 48.827281816724408 ], [ 2.289405263868257, 48.827385390789289 ] ] ] } },
{ "type": "Feature", "properties": { "fid": 70, "ID": null, "Nom": "Services" }, "geometry": { "type": "Polygon", "coordinates": [ [ [ 2.289141355423935, 48.827380043045487 ], [ 2.289363866930291, 48.827384033235496 ], [ 2.289368306081607, 48.827280683468842 ], [ 2.289146140792077, 48.827276028399098 ], [ 2.28906597427614, 48.827327573405583 ], [ 2.289141355423935, 48.827380043045487 ] ] ] } },
{ "type": "Feature", "properties": { "fid": 71, "ID": null, "Nom": "VivaTech News" }, "geometry": { "type": "Polygon", "coordinates": [ [ [ 2.288380276092181, 48.827298754257725 ], [ 2.288582289165676, 48.827302473390255 ], [ 2.288717513952945, 48.827218111311048 ], [ 2.288844656634514, 48.827306970637082 ], [ 2.28895265798509, 48.827308451903633 ], [ 2.288957099292934, 48.827215760187393 ], [ 2.288382818038679, 48.827205631714797 ], [ 2.288380276092181, 48.827298754257725 ] ] ] } },
{ "type": "Feature", "properties": { "fid": 72, "ID": null, "Nom": null }, "geometry": { "type": "Polygon", "coordinates": [ [ [ 2.288650863253192, 48.82725966878202 ], [ 2.288713804887851, 48.827303675212669 ], [ 2.288781090962507, 48.827262121486854 ], [ 2.288716872861206, 48.82721852703709 ], [ 2.288650863253192, 48.82725966878202 ] ] ] } },
{ "type": "Feature", "properties": { "fid": 73, "ID": null, "Nom": "VivaTech Theater" }, "geometry": { "type": "Polygon", "coordinates": [ [ [ 2.289064453648127, 48.827218076585446 ], [ 2.28908006588596, 48.826865337017743 ], [ 2.288291081310952, 48.826850575235483 ], [ 2.288276734475524, 48.827203322267401 ], [ 2.289064453648127, 48.827218076585446 ] ] ] } },
{ "type": "Feature", "properties": { "fid": 75, "ID": null, "Nom": "Services" }, "geometry": { "type": "Polygon", "coordinates": [ [ [ 2.287860357942326, 48.82758839271812 ], [ 2.287911499717029, 48.827589116783386 ], [ 2.287913810451711, 48.827512984221272 ], [ 2.287862668751658, 48.827512260156958 ], [ 2.287860357942326, 48.82758839271812 ] ] ] } },
{ "type": "Feature", "properties": { "fid": 76, "ID": "3H35", "Nom": "Turkiye" }, "geometry": { "type": "Polygon", "coordinates": [ [ [ 2.287761889147681, 48.827354227983122 ], [ 2.287921029247024, 48.827356644041195 ], [ 2.287924986000239, 48.8272530414554 ], [ 2.287765216579479, 48.827250202113419 ], [ 2.287761889147681, 48.827354227983122 ] ] ] } },
{ "type": "Feature", "properties": { "fid": 77, "ID": "3F32", "Nom": "Italy" }, "geometry": { "type": "Polygon", "coordinates": [ [ [ 2.287962949337118, 48.827357942485577 ], [ 2.288184973900849, 48.827361991202771 ], [ 2.288265090994953, 48.827311494047926 ], [ 2.288189250678183, 48.827258180747137 ], [ 2.287966906007128, 48.827254339898502 ], [ 2.287962949337118, 48.827357942485577 ] ] ] } },
{ "type": "Feature", "properties": { "fid": 80, "ID": "3F19", "Nom": "Germany" }, "geometry": { "type": "Polygon", "coordinates": [ [ [ 2.288378160646372, 48.827325636948792 ], [ 2.288692154582312, 48.827331644813746 ], [ 2.288679892821535, 48.827603674011328 ], [ 2.288366462079207, 48.827598045828111 ], [ 2.288378160646372, 48.827325636948792 ] ] ] } },
{ "type": "Feature", "properties": { "fid": 82, "ID": "3D14", "Nom": "Envision" }, "geometry": { "type": "Polygon", "coordinates": [ [ [ 2.288709783075598, 48.827877835611126 ], [ 2.288838011038181, 48.827879727248543 ], [ 2.288931152114864, 48.82782119391829 ], [ 2.288938119134992, 48.827644726539376 ], [ 2.288719852217475, 48.827641170471992 ], [ 2.288709783075598, 48.827877835611126 ] ] ] } },
{ "type": "Feature", "properties": { "fid": 84, "ID": "3F13", "Nom": "Canada" }, "geometry": { "type": "Polygon", "coordinates": [ [ [ 2.288446513214657, 48.827872129625298 ], [ 2.288488110783099, 48.827873129819231 ], [ 2.288491972546098, 48.827757236568324 ], [ 2.288509081892658, 48.827756585655727 ], [ 2.288514704861986, 48.827636939355955 ], [ 2.288364823868098, 48.827634542171133 ], [ 2.288357295212971, 48.827810253484969 ], [ 2.288446513214657, 48.827872129625298 ] ] ] } },
{ "type": "Feature", "properties": { "fid": 86, "ID": "3D05", "Nom": "OVHCloud" }, "geometry": { "type": "Polygon", "coordinates": [ [ [ 2.289038356599365, 48.827908563095455 ], [ 2.28936510939561, 48.827914021019488 ], [ 2.289368340110811, 48.827823506672935 ], [ 2.289040940279467, 48.827816726457598 ], [ 2.289038356599365, 48.827908563095455 ] ] ] } },
{ "type": "Feature", "properties": { "fid": 87, "ID": "3D09", "Nom": "KPMG" }, "geometry": { "type": "Polygon", "coordinates": [ [ [ 2.28904191749006, 48.827793879137261 ], [ 2.289222931402869, 48.827796713035625 ], [ 2.289228919989847, 48.827650400693265 ], [ 2.289141081591163, 48.827648560159936 ], [ 2.289045094823346, 48.827707319818828 ], [ 2.28904191749006, 48.827793879137261 ] ] ] } },
{ "type": "Feature", "properties": { "fid": 88, "ID": "3C14", "Nom": "Région Sud" }, "geometry": { "type": "Polygon", "coordinates": [ [ [ 2.289257529605365, 48.827797797626218 ], [ 2.2893699887487, 48.827800223857352 ], [ 2.289375317334771, 48.827653468105474 ], [ 2.289262852516749, 48.827651481326718 ], [ 2.289257529605365, 48.827797797626218 ] ] ] } },
{ "type": "Feature", "properties": { "fid": 89, "ID": "3D13", "Nom": null }, "geometry": { "type": "Polygon", "coordinates": [ [ [ 2.289627638437784, 48.827698915482095 ], [ 2.289768057702167, 48.827701067936133 ], [ 2.289767817182152, 48.82766986319524 ], [ 2.289626744398842, 48.827666827891903 ], [ 2.289627638437784, 48.827698915482095 ] ] ] } },
{ "type": "Feature", "properties": { "fid": 90, "ID": "3C13", "Nom": null }, "geometry": { "type": "Polygon", "coordinates": [ [ [ 2.289551780369312, 48.827697146413307 ], [ 2.289552871136418, 48.827665949579739 ], [ 2.289410461228901, 48.827663345561099 ], [ 2.289408698807676, 48.827694977886395 ], [ 2.289551780369312, 48.827697146413307 ] ] ] } },
{ "type": "Feature", "properties": { "fid": 91, "ID": "3C11", "Nom": null }, "geometry": { "type": "Polygon", "coordinates": [ [ [ 2.289398370525031, 48.827915537106854 ], [ 2.289441627365792, 48.827916233608541 ], [ 2.289449964717409, 48.827695223073242 ], [ 2.289408704797453, 48.827694538438685 ], [ 2.289398370525031, 48.827915537106854 ] ] ] } },
{ "type": "Feature", "properties": { "fid": 92, "ID": null, "Nom": "Purple Stage" }, "geometry": { "type": "Polygon", "coordinates": [ [ [ 2.289441070339569, 48.827957102235857 ], [ 2.289860315524648, 48.827964866245203 ], [ 2.289869867391328, 48.827703430453106 ], [ 2.289450624307177, 48.827695666475442 ], [ 2.289441070339569, 48.827957102235857 ] ] ] } },
{ "type": "Feature", "properties": { "fid": 135, "ID": "3H21", "Nom": null }, "geometry": { "type": "Polygon", "coordinates": [ [ [ 2.287752321092631, 48.82748486882808 ], [ 2.287808558198678, 48.827485203745105 ], [ 2.287811515236026, 48.827383103825028 ], [ 2.287755292331031, 48.827381737503025 ], [ 2.287752321092631, 48.82748486882808 ] ] ] } },
{ "type": "Feature", "properties": { "fid": 136, "ID": "3G12", "Nom": null }, "geometry": { "type": "Polygon", "coordinates": [ [ [ 2.287892010555266, 48.827666211452879 ], [ 2.287891376580752, 48.827712624725912 ], [ 2.287847636418104, 48.827712364267526 ], [ 2.287851408815205, 48.827664938193315 ], [ 2.287892010555266, 48.827666211452879 ] ] ] } },
{ "type": "Feature", "properties": { "fid": 137, "ID": "3G10", "Nom": null }, "geometry": { "type": "Polygon", "coordinates": [ [ [ 2.287847650507305, 48.82771133286149 ], [ 2.287891376580752, 48.827712624725912 ], [ 2.287890742605108, 48.827759037997012 ], [ 2.287845454342732, 48.82775773683003 ], [ 2.287847650507305, 48.82771133286149 ] ] ] } },
{ "type": "Feature", "properties": { "fid": 138, "ID": "3G08", "Nom": null }, "geometry": { "type": "Polygon", "coordinates": [ [ [ 2.287845454342732, 48.82775773683003 ], [ 2.287890742605108, 48.827759037997012 ], [ 2.287891290394021, 48.827833308528582 ], [ 2.287842863673301, 48.827833020162991 ], [ 2.287845454342732, 48.82775773683003 ] ] ] } },
{ "type": "Feature", "properties": { "fid": 139, "ID": null, "Nom": null }, "geometry": { "type": "Polygon", "coordinates": [ [ [ 2.287841315610387, 48.827831979454615 ], [ 2.28789130448239, 48.82783227712266 ], [ 2.28788888293671, 48.827895183581155 ], [ 2.287838894004403, 48.827894885912137 ], [ 2.287841315610387, 48.827831979454615 ] ] ] } },
{ "type": "Feature", "properties": { "fid": 140, "ID": "3F05", "Nom": null }, "geometry": { "type": "Polygon", "coordinates": [ [ [ 2.287920126019691, 48.827895369613692 ], [ 2.288027900572006, 48.827897042769166 ], [ 2.288030857203156, 48.827794942881141 ], [ 2.287921506622953, 48.827794291832767 ], [ 2.287920126019691, 48.827895369613692 ] ] ] } },
{ "type": "Feature", "properties": { "fid": 141, "ID": "3F06", "Nom": "Spain" }, "geometry": { "type": "Polygon", "coordinates": [ [ [ 2.28802791465769, 48.827896011363279 ], [ 2.288249712396141, 48.827899394571475 ], [ 2.288251092360515, 48.827798316787103 ], [ 2.288030843117558, 48.827795974287142 ], [ 2.28802791465769, 48.827896011363279 ] ] ] } },
{ "type": "Feature", "properties": { "fid": 142, "ID": null, "Nom": null }, "geometry": { "type": "Polygon", "coordinates": [ [ [ 2.288487554005914, 48.82787192813084 ], [ 2.288550040148497, 48.827872299874961 ], [ 2.288550434467148, 48.827728925141834 ], [ 2.28851138073533, 48.827728692805692 ], [ 2.288509452607157, 48.827755500070374 ], [ 2.288492240803516, 48.827757460650304 ], [ 2.288487554005914, 48.82787192813084 ] ] ] } },
{ "type": "Feature", "properties": { "fid": 143, "ID": "3E04", "Nom": null }, "geometry": { "type": "Polygon", "coordinates": [ [ [ 2.288604771821049, 48.82786849950034 ], [ 2.288668806040857, 48.827869911880882 ], [ 2.288670959258481, 48.827826602119963 ], [ 2.288603800787462, 48.827825171155574 ], [ 2.288604771821049, 48.82786849950034 ] ] ] } },
{ "type": "Feature", "properties": { "fid": 144, "ID": "3E08", "Nom": null }, "geometry": { "type": "Polygon", "coordinates": [ [ [ 2.288605433310831, 48.827820023417921 ], [ 2.288669495617057, 48.827819372986077 ], [ 2.28867007260836, 48.827777085337672 ], [ 2.288604448203351, 48.827777726477379 ], [ 2.288605433310831, 48.827820023417921 ] ] ] } },
{ "type": "Feature", "properties": { "fid": 145, "ID": "3E12", "Nom": null }, "geometry": { "type": "Polygon", "coordinates": [ [ [ 2.288551447680469, 48.827769159272549 ], [ 2.288673281347151, 48.827770915484393 ], [ 2.288673830189128, 48.827730690646369 ], [ 2.288550420391847, 48.827729956547955 ], [ 2.288551447680469, 48.827769159272549 ] ] ] } },
{ "type": "Feature", "properties": { "fid": 146, "ID": "3E14", "Nom": "Germany" }, "geometry": { "type": "Polygon", "coordinates": [ [ [ 2.288509818586063, 48.827728683511971 ], [ 2.288675392338483, 48.827730699937945 ], [ 2.288678249182949, 48.827635819862273 ], [ 2.28851419565019, 48.82763690695235 ], [ 2.288509818586063, 48.827728683511971 ] ] ] } },
{ "type": "Feature", "properties": { "fid": 147, "ID": "3D20", "Nom": "LVMH" }, "geometry": { "type": "Polygon", "coordinates": [ [ [ 2.288720933727503, 48.827598940101609 ], [ 2.288941154033989, 48.827603344143647 ], [ 2.288946937068109, 48.827408426917735 ], [ 2.288728279724046, 48.827404032176453 ], [ 2.288720933727503, 48.827598940101609 ] ] ] } },
{ "type": "Feature", "properties": { "fid": 148, "ID": "3D30", "Nom": "Groupe Les Echos - Le Parisien" }, "geometry": { "type": "Polygon", "coordinates": [ [ [ 2.288726942732012, 48.827387520382615 ], [ 2.288950286424471, 48.827391942990396 ], [ 2.288951017923302, 48.827338309852927 ], [ 2.288730798735493, 48.827333905827999 ], [ 2.288726942732012, 48.827387520382615 ] ] ] } },
{ "type": "Feature", "properties": { "fid": 149, "ID": null, "Nom": "Escaliers" }, "geometry": { "type": "Polygon", "coordinates": [ [ [ 2.287968064222722, 48.827588271049258 ], [ 2.288250784307485, 48.827592016972041 ], [ 2.28826132674394, 48.827391970636626 ], [ 2.287972345100718, 48.827389218941654 ], [ 2.287968064222722, 48.827588271049258 ] ] ] } },
{ "type": "Feature", "properties": { "fid": 150, "ID": null, "Nom": "Services" }, "geometry": { "type": "Polygon", "coordinates": [ [ [ 2.287846049603112, 48.827485427008433 ], [ 2.287917894041426, 48.827486886303191 ], [ 2.287920836777085, 48.827385817786933 ], [ 2.287847430339135, 48.827384349191412 ], [ 2.287846049603112, 48.827485427008433 ] ] ] } },
{ "type": "Feature", "properties": { "fid": 151, "ID": "3J36", "Nom": null }, "geometry": { "type": "Polygon", "coordinates": [ [ [ 2.287510264582542, 48.827249278674138 ], [ 2.287554004354988, 48.827249539256037 ], [ 2.28755451177046, 48.827212408623872 ], [ 2.287509209895553, 48.827212138735369 ], [ 2.287510264582542, 48.827249278674138 ] ] ] } },
{ "type": "Feature", "properties": { "fid": 152, "ID": "3J40", "Nom": null }, "geometry": { "type": "Polygon", "coordinates": [ [ [ 2.287510786124892, 48.827211116635688 ], [ 2.287554525865324, 48.827211377217388 ], [ 2.28755499099552, 48.827177340803466 ], [ 2.287511251283641, 48.827177080221929 ], [ 2.287510786124892, 48.827211116635688 ] ] ] } },
{ "type": "Feature", "properties": { "fid": 153, "ID": "3H44", "Nom": null }, "geometry": { "type": "Polygon", "coordinates": [ [ [ 2.287514657461624, 48.827156470705347 ], [ 2.287738014152647, 48.827159864171477 ], [ 2.287738591892187, 48.827117576502701 ], [ 2.287515263573522, 48.827112120224427 ], [ 2.287514657461624, 48.827156470705347 ] ] ] } },
{ "type": "Feature", "properties": { "fid": 154, "ID": "3F38", "Nom": "SwissTech" }, "geometry": { "type": "Polygon", "coordinates": [ [ [ 2.288081092918274, 48.827090734160102 ], [ 2.288201362853574, 48.827092481554416 ], [ 2.288196238929917, 48.827238922693901 ], [ 2.288075968656968, 48.827237175294655 ], [ 2.288081092918274, 48.827090734160102 ] ] ] } },
{ "type": "Feature", "properties": { "fid": 155, "ID": "3G41", "Nom": null }, "geometry": { "type": "Polygon", "coordinates": [ [ [ 2.287975768139206, 48.827138587169884 ], [ 2.288028880610149, 48.827138903381964 ], [ 2.288026740973054, 48.827181181751307 ], [ 2.287973642545619, 48.827179834131734 ], [ 2.287975768139206, 48.827138587169884 ] ] ] } },
{ "type": "Feature", "properties": { "fid": 156, "ID": "3G37", "Nom": null }, "geometry": { "type": "Polygon", "coordinates": [ [ [ 2.288027050854217, 48.827158490806973 ], [ 2.288078587129153, 48.827159829103486 ], [ 2.288077544875954, 48.827236153187528 ], [ 2.287971333822603, 48.827234489376572 ], [ 2.28797209449949, 48.827178793424459 ], [ 2.288028303105829, 48.827181191051331 ], [ 2.288027050854217, 48.827158490806973 ] ] ] } },
{ "type": "Feature", "properties": { "fid": 157, "ID": "3G45", "Nom": null }, "geometry": { "type": "Polygon", "coordinates": [ [ [ 2.288028627071782, 48.827157468700428 ], [ 2.288081711393441, 48.827159847702156 ], [ 2.288081107002687, 48.827089702753455 ], [ 2.287976444291065, 48.827089079652772 ], [ 2.287974191921176, 48.827139609275754 ], [ 2.288030442741657, 48.827138912681953 ], [ 2.288028627071782, 48.827157468700428 ] ] ] } },
{ "type": "Feature", "properties": { "fid": 158, "ID": "3H49", "Nom": null }, "geometry": { "type": "Polygon", "coordinates": [ [ [ 2.287775309967473, 48.827060031714794 ], [ 2.287834670873649, 48.827060385226261 ], [ 2.287836079798927, 48.826957244557626 ], [ 2.287779857352532, 48.826955878246665 ], [ 2.287775309967473, 48.827060031714794 ] ] ] } },
{ "type": "Feature", "properties": { "fid": 159, "ID": "3G50", "Nom": "French State's Digital Alliance" }, "geometry": { "type": "Polygon", "coordinates": [ [ [ 2.287836079798927, 48.826957244557626 ], [ 2.287942290283156, 48.826958908489118 ], [ 2.287937757309573, 48.827062030556483 ], [ 2.28783468496293, 48.827059353819628 ], [ 2.287836079798927, 48.826957244557626 ] ] ] } },
{ "type": "Feature", "properties": { "fid": 160, "ID": null, "Nom": "Viva Suite" }, "geometry": { "type": "Polygon", "coordinates": [ [ [ 2.288015800257449, 48.826495175284606 ], [ 2.288289141743802, 48.826498865318875 ], [ 2.288277416839045, 48.826785550002562 ], [ 2.288005621885453, 48.826782900649697 ], [ 2.288015800257449, 48.826495175284606 ] ] ] } },
{ "type": "Feature", "properties": { "fid": 161, "ID": null, "Nom": "Private Area" }, "geometry": { "type": "Polygon", "coordinates": [ [ [ 2.288007184006291, 48.826782909949983 ], [ 2.287466732519384, 48.826776596606081 ], [ 2.28748002399186, 48.826489921306795 ], [ 2.288015800257449, 48.826495175284606 ], [ 2.288007184006291, 48.826782909949983 ] ] ] } },
{ "type": "Feature", "properties": { "fid": 162, "ID": "3H59", "Nom": null }, "geometry": { "type": "Polygon", "coordinates": [ [ [ 2.28778584003057, 48.826861016733268 ], [ 2.287854559360354, 48.826862457460514 ], [ 2.287852025104177, 48.826933615226721 ], [ 2.287783291590407, 48.826933205904886 ], [ 2.28778584003057, 48.826861016733268 ] ] ] } },
{ "type": "Feature", "properties": { "fid": 163, "ID": null, "Nom": "Viva Suite" }, "geometry": { "type": "Polygon", "coordinates": [ [ [ 2.287464293819494, 48.826955029978002 ], [ 2.28772670279539, 48.826958656144114 ], [ 2.287728013292167, 48.826862735315068 ], [ 2.287465618895494, 48.826858077744767 ], [ 2.287464293819494, 48.826955029978002 ] ] ] } },
{ "type": "Feature", "properties": { "fid": 164, "ID": null, "Nom": "Services" }, "geometry": { "type": "Polygon", "coordinates": [ [ [ 2.287855163443669, 48.826932602424556 ], [ 2.287944204586413, 48.826933132621321 ], [ 2.287945148419478, 48.826864028365691 ], [ 2.287852997237162, 48.826862448158195 ], [ 2.287855163443669, 48.826932602424556 ] ] ] } },
{ "type": "Feature", "properties": { "fid": 165, "ID": null, "Nom": "Escaliers" }, "geometry": { "type": "Polygon", "coordinates": [ [ [ 2.287990926047053, 48.827058221158829 ], [ 2.288286140293095, 48.827062041403195 ], [ 2.288295289324837, 48.826849608791093 ], [ 2.287996994293602, 48.826842675747194 ], [ 2.287990926047053, 48.827058221158829 ] ] ] } },
{ "type": "Feature", "properties": { "fid": 166, "ID": "3J46", "Nom": null }, "geometry": { "type": "Polygon", "coordinates": [ [ [ 2.287534305140898, 48.827090572365691 ], [ 2.287571979488687, 48.827077387429441 ], [ 2.287536233745885, 48.827063765100853 ], [ 2.287534305140898, 48.827090572365691 ] ] ] } },
{ "type": "Feature", "properties": { "fid": 167, "ID": "3J45", "Nom": null }, "geometry": { "type": "Polygon", "coordinates": [ [ [ 2.287590739137833, 48.827076467693111 ], [ 2.287629609163536, 48.827090108615735 ], [ 2.287629947403666, 48.827065354857375 ], [ 2.287590739137833, 48.827076467693111 ] ] ] } },
{ "type": "Feature", "properties": { "fid": 168, "ID": "3H46", "Nom": null }, "geometry": { "type": "Polygon", "coordinates": [ [ [ 2.287673532005236, 48.827076960868233 ], [ 2.287710797647745, 48.827093686679582 ], [ 2.287717483007983, 48.827061750291193 ], [ 2.287673532005236, 48.827076960868233 ] ] ] } },
{ "type": "Feature", "properties": { "fid": 169, "ID": null, "Nom": "Sovereignty Arena" }, "geometry": { "type": "Polygon", "coordinates": [ [ [ 2.287525216729925, 48.826955392950502 ], [ 2.287679853106363, 48.826957345609507 ], [ 2.287678472056758, 48.82705842346305 ], [ 2.287520697027186, 48.82705748359578 ], [ 2.287525216729925, 48.826955392950502 ] ] ] } },
{ "type": "Feature", "properties": { "fid": 170, "ID": "3H52", "Nom": null }, "geometry": { "type": "Polygon", "coordinates": [ [ [ 2.287698274503593, 48.8269811796171 ], [ 2.287715063332064, 48.827010161350636 ], [ 2.287743547996667, 48.82698351224743 ], [ 2.287698274503593, 48.8269811796171 ] ] ] } },
{ "type": "Feature", "properties": { "fid": 171, "ID": "3J21", "Nom": null }, "geometry": { "type": "Polygon", "coordinates": [ [ [ 2.287625914448386, 48.827474832512031 ], [ 2.287580598250662, 48.827475594056885 ], [ 2.287602820581434, 48.827449939180902 ], [ 2.287625914448386, 48.827474832512031 ] ] ] } },
{ "type": "Feature", "properties": { "fid": 172, "ID": "3H22", "Nom": null }, "geometry": { "type": "Polygon", "coordinates": [ [ [ 2.287724568920785, 48.827457884797212 ], [ 2.28768377005383, 48.827471051168054 ], [ 2.28768571268837, 48.827443212503631 ], [ 2.287724568920785, 48.827457884797212 ] ] ] } },
{ "type": "Feature", "properties": { "fid": 173, "ID": "3H24", "Nom": null }, "geometry": { "type": "Polygon", "coordinates": [ [ [ 2.287646898757109, 48.827425445978406 ], [ 2.287685726780701, 48.827442181097368 ], [ 2.287686135458049, 48.827412270315122 ], [ 2.287646898757109, 48.827425445978406 ] ] ] } },
{ "type": "Feature", "properties": { "fid": 174, "ID": "3J25", "Nom": null }, "geometry": { "type": "Polygon", "coordinates": [ [ [ 2.287581091554995, 48.827439494838345 ], [ 2.287627941674809, 48.827440805411079 ], [ 2.287604847821961, 48.827415912079566 ], [ 2.287581091554995, 48.827439494838345 ] ] ] } },
{ "type": "Feature", "properties": { "fid": 175, "ID": "3J27", "Nom": null }, "geometry": { "type": "Polygon", "coordinates": [ [ [ 2.28763177062565, 48.827389253707061 ], [ 2.287583344318834, 48.827388965236281 ], [ 2.287604847821961, 48.827415912079566 ], [ 2.28763177062565, 48.827389253707061 ] ] ] } },
{ "type": "Feature", "properties": { "fid": 176, "ID": null, "Nom": "Escaliers" }, "geometry": { "type": "Polygon", "coordinates": [ [ [ 2.289050588618645, 48.827597805822137 ], [ 2.289339557415273, 48.82760158631752 ], [ 2.289348392942084, 48.827411844670102 ], [ 2.28906256354109, 48.827407051362023 ], [ 2.289050588618645, 48.827597805822137 ] ] ] } },
{ "type": "Feature", "properties": { "fid": 177, "ID": "3B19", "Nom": null }, "geometry": { "type": "Polygon", "coordinates": [ [ [ 2.28959083798991, 48.82761958309888 ], [ 2.289737651630545, 48.827622518104036 ], [ 2.289738073183849, 48.827591575913218 ], [ 2.289647468752987, 48.827591037773509 ], [ 2.289649621146095, 48.827547727984225 ], [ 2.289593369906172, 48.827548425339337 ], [ 2.28959083798991, 48.82761958309888 ] ] ] } },
{ "type": "Feature", "properties": { "fid": 178, "ID": "3A20", "Nom": null }, "geometry": { "type": "Polygon", "coordinates": [ [ [ 2.289645906607645, 48.827591028494631 ], [ 2.289738073183849, 48.827591575913218 ], [ 2.289738621202396, 48.827551351063903 ], [ 2.289648044948511, 48.827548750111774 ], [ 2.289645906607645, 48.827591028494631 ] ] ] } },
{ "type": "Feature", "properties": { "fid": 179, "ID": "3A22", "Nom": null }, "geometry": { "type": "Polygon", "coordinates": [ [ [ 2.289735932519855, 48.827519358909313 ], [ 2.289692206562805, 48.827518067719055 ], [ 2.289714385715952, 48.827495506671077 ], [ 2.289735932519855, 48.827519358909313 ] ] ] } },
{ "type": "Feature", "properties": { "fid": 180, "ID": "3B21", "Nom": null }, "geometry": { "type": "Polygon", "coordinates": [ [ [ 2.289632915392077, 48.827512558097567 ], [ 2.289592524548564, 48.827495814332281 ], [ 2.289633308899031, 48.827483678717016 ], [ 2.289632915392077, 48.827512558097567 ] ] ] } },
{ "type": "Feature", "properties": { "fid": 181, "ID": "3B23", "Nom": null }, "geometry": { "type": "Polygon", "coordinates": [ [ [ 2.289636826688068, 48.827454817893774 ], [ 2.289674121336513, 48.827469480274772 ], [ 2.289634885094936, 48.827482656589602 ], [ 2.289636826688068, 48.827454817893774 ] ] ] } },
{ "type": "Feature", "properties": { "fid": 182, "ID": "3A26", "Nom": null }, "geometry": { "type": "Polygon", "coordinates": [ [ [ 2.289694218389691, 48.827485071990871 ], [ 2.289739520513051, 48.827485341051613 ], [ 2.289714877543003, 48.827459407444394 ], [ 2.289694218389691, 48.827485071990871 ] ] ] } },
{ "type": "Feature", "properties": { "fid": 183, "ID": "3A28", "Nom": null }, "geometry": { "type": "Polygon", "coordinates": [ [ [ 2.289738618802124, 48.827436855668708 ], [ 2.289716453736576, 48.827458385315865 ], [ 2.289693330773509, 48.827435555201085 ], [ 2.289738618802124, 48.827436855668708 ] ] ] } },
{ "type": "Feature", "properties": { "fid": 184, "ID": "3A36", "Nom": null }, "geometry": { "type": "Polygon", "coordinates": [ [ [ 2.289720320419696, 48.827289243915949 ], [ 2.289673470383498, 48.827287934162705 ], [ 2.289698787770496, 48.827264360263328 ], [ 2.289720320419696, 48.827289243915949 ] ] ] } },
{ "type": "Feature", "properties": { "fid": 185, "ID": "3A25", "Nom": null }, "geometry": { "type": "Polygon", "coordinates": [ [ [ 2.289826629989931, 48.827283686326886 ], [ 2.289793614371763, 48.827298962615231 ], [ 2.289779906413774, 48.827273093955277 ], [ 2.289826629989931, 48.827283686326886 ] ] ] } },
{ "type": "Feature", "properties": { "fid": 186, "ID": "3A39", "Nom": null }, "geometry": { "type": "Polygon", "coordinates": [ [ [ 2.289819830914005, 48.827209378661522 ], [ 2.289814779208344, 48.827236167406376 ], [ 2.289780623006656, 48.827220492213776 ], [ 2.289819830914005, 48.827209378661522 ] ] ] } },
{ "type": "Feature", "properties": { "fid": 187, "ID": "3A37", "Nom": null }, "geometry": { "type": "Polygon", "coordinates": [ [ [ 2.289778386430588, 48.82726999045812 ], [ 2.289741007585804, 48.827261516547125 ], [ 2.289770955129704, 48.827242096091553 ], [ 2.289778386430588, 48.82726999045812 ] ] ] } },
{ "type": "Feature", "properties": { "fid": 188, "ID": "3A36", "Nom": null }, "geometry": { "type": "Polygon", "coordinates": [ [ [ 2.289717912803446, 48.827236623619683 ], [ 2.28969881587541, 48.827262297449991 ], [ 2.289675721112852, 48.82723740451442 ], [ 2.289717912803446, 48.827236623619683 ] ] ] } },
{ "type": "Feature", "properties": { "fid": 189, "ID": "3A40", "Nom": null }, "geometry": { "type": "Polygon", "coordinates": [ [ [ 2.289735166544234, 48.82723156864234 ], [ 2.289774388520552, 48.827219423698381 ], [ 2.289737108074467, 48.82720372993866 ], [ 2.289735166544234, 48.82723156864234 ] ] ] } },
{ "type": "Feature", "properties": { "fid": 190, "ID": "3B39", "Nom": null }, "geometry": { "type": "Polygon", "coordinates": [ [ [ 2.28960716988969, 48.827223587953846 ], [ 2.289641326041255, 48.827239263195935 ], [ 2.289647939970341, 48.827212483737355 ], [ 2.28960716988969, 48.827223587953846 ] ] ] } },
{ "type": "Feature", "properties": { "fid": 191, "ID": "3B41", "Nom": null }, "geometry": { "type": "Polygon", "coordinates": [ [ [ 2.289668303924587, 48.827208478733944 ], [ 2.289692002931874, 48.827189021182676 ], [ 2.289654610105873, 48.827181578650809 ], [ 2.289668303924587, 48.827208478733944 ] ] ] } },
{ "type": "Feature", "properties": { "fid": 192, "ID": "3B43", "Nom": null }, "geometry": { "type": "Polygon", "coordinates": [ [ [ 2.289609448788924, 48.827170995490405 ], [ 2.289653047972797, 48.827181569372023 ], [ 2.289647178883814, 48.827153684274343 ], [ 2.289609448788924, 48.827170995490405 ] ] ] } },
{ "type": "Feature", "properties": { "fid": 193, "ID": "3B47", "Nom": null }, "geometry": { "type": "Polygon", "coordinates": [ [ [ 2.289655467356696, 48.827118662837805 ], [ 2.289636398548435, 48.827142273847286 ], [ 2.28961488005407, 48.827116358769509 ], [ 2.289655467356696, 48.827118662837805 ] ] ] } },
{ "type": "Feature", "properties": { "fid": 194, "ID": "3A33", "Nom": null }, "geometry": { "type": "Polygon", "coordinates": [ [ [ 2.2898245480047, 48.827321839096427 ], [ 2.28982394385483, 48.827366189580736 ], [ 2.289778655885474, 48.82736488914535 ], [ 2.289780808160267, 48.827321579344975 ], [ 2.2898245480047, 48.827321839096427 ] ] ] } },
{ "type": "Feature", "properties": { "fid": 195, "ID": null, "Nom": "Services" }, "geometry": { "type": "Polygon", "coordinates": [ [ [ 2.289394063808862, 48.827614288081811 ], [ 2.289556512939995, 48.827616284723717 ], [ 2.289559058958244, 48.827544095558281 ], [ 2.289396624110458, 48.827541067513337 ], [ 2.289394063808862, 48.827614288081811 ] ] ] } },
{ "type": "Feature", "properties": { "fid": 196, "ID": "3D37", "Nom": "Total Energies" }, "geometry": { "type": "Polygon", "coordinates": [ [ [ 2.289141077282478, 48.827263109460652 ], [ 2.28937068307845, 48.827266537018978 ], [ 2.289371315730593, 48.82722012371967 ], [ 2.289318231288721, 48.827217745290469 ], [ 2.28923774557926, 48.827162597983936 ], [ 2.289238392410014, 48.827115153274278 ], [ 2.289146240744639, 48.827113574063624 ], [ 2.289141077282478, 48.827263109460652 ] ] ] } },
{ "type": "Feature", "properties": { "fid": 197, "ID": "3C46", "Nom": null }, "geometry": { "type": "Polygon", "coordinates": [ [ [ 2.289329264645722, 48.827210590425416 ], [ 2.289376114603769, 48.827211900313578 ], [ 2.289375255412026, 48.827160320695945 ], [ 2.289329939513241, 48.827161082903828 ], [ 2.289329264645722, 48.827210590425416 ] ] ] } },
{ "type": "Feature", "properties": { "fid": 198, "ID": "3C48", "Nom": null }, "geometry": { "type": "Polygon", "coordinates": [ [ [ 2.289309645852162, 48.827159930816222 ], [ 2.289375255412026, 48.827160320695945 ], [ 2.289375817764778, 48.827119064426043 ], [ 2.289313332519089, 48.827118693113128 ], [ 2.289309645852162, 48.827159930816222 ] ] ] } },
{ "type": "Feature", "properties": { "fid": 199, "ID": "3B50", "Nom": "Metropole du Grand Paris" }, "geometry": { "type": "Polygon", "coordinates": [ [ [ 2.289415180320426, 48.827096605530862 ], [ 2.289580723990976, 48.82710068351814 ], [ 2.289581918642634, 48.827013013936089 ], [ 2.289416389308339, 48.827007904543272 ], [ 2.289415180320426, 48.827096605530862 ] ] ] } },
{ "type": "Feature", "properties": { "fid": 200, "ID": "3B56", "Nom": "Ey" }, "geometry": { "type": "Polygon", "coordinates": [ [ [ 2.289419513563999, 48.827007923106997 ], [ 2.289583494825318, 48.827011991808909 ], [ 2.289585858066841, 48.826953210894381 ], [ 2.289418710564343, 48.826952217852593 ], [ 2.289419513563999, 48.827007923106997 ] ] ] } },
{ "type": "Feature", "properties": { "fid": 201, "ID": null, "Nom": "Escaliers" }, "geometry": { "type": "Polygon", "coordinates": [ [ [ 2.289082444620779, 48.826865637127788 ], [ 2.289360432318752, 48.826872446791825 ], [ 2.289349753611566, 48.827082807384741 ], [ 2.28907176479334, 48.827075997697172 ], [ 2.289082444620779, 48.826865637127788 ] ] ] } }
]
}
